<?xml version="1.0" encoding="UTF-8"?>
<kml xmlns="http://www.opengis.net/kml/2.2"><Document><name>Rota Dois Irmãos do Tocantins — pontos VERA</name>
<Placemark><name>V20260910105030072741755 — Jatobá</name><description><![CDATA[Espécie: Jatobá<br/>Poste: <br/>Área: URBANO<br/>Altura: 10 m · DAP: 100 cm<br/>Dist. BT/MT/AT: /200/0 cm<br/>Equipe: Enecol Centro · 10/09/2026, 10:50:29<br/><a href="https://raw.githubusercontent.com/LGRSV/vera-vegetacao/main/fotos/Enecol-Centro/VER20260910105030072741755F1.jpg">Foto</a>]]></description><Point><coordinates>-49.058075,-9.262,0</coordinates></Point></Placemark>
<Placemark><name>V20260910105433386866624 — Outros</name><description><![CDATA[Espécie: Outros<br/>Poste: <br/>Área: URBANO<br/>Altura: 4.5 m · DAP: 55 cm<br/>Dist. BT/MT/AT: 150/300/0 cm<br/>Equipe: Enecol Centro · 10/09/2026, 10:54:32<br/><a href="https://raw.githubusercontent.com/LGRSV/vera-vegetacao/main/fotos/Enecol-Centro/VER20260910105433386866624F1.jpg">Foto</a>]]></description><Point><coordinates>-49.0597417,-9.2609383,0</coordinates></Point></Placemark>
</Document></kml>
