<?xml version="1.0" encoding="UTF-8"?>
<kml xmlns="http://www.opengis.net/kml/2.2"><Document><name>Rota Couto Magalhães — pontos VERA</name>
<Placemark><name>V20260824133630982321953 — Outros</name><description><![CDATA[Espécie: Outros<br/>Poste: 1224958<br/>Área: URBANO<br/>Altura: 4.5 m · DAP: 50 cm<br/>Dist. BT/MT/AT: 300/300/0 cm<br/>Equipe: Enecol Centro · 24/08/2026, 13:36:29<br/><a href="https://raw.githubusercontent.com/LGRSV/vera-vegetacao/main/fotos/Enecol-Centro/VER20260824133630982321953F1.jpg">Foto</a>]]></description><Point><coordinates>-49.1870543,-8.361432,0</coordinates></Point></Placemark>
</Document></kml>
