<?xml version="1.0" encoding="UTF-8"?>
<kml xmlns="http://www.opengis.net/kml/2.2"><Document><name>sem-projeto — pontos VERA</name>
<Placemark><name>V0001 — Coqueiro</name><description><![CDATA[Espécie: Coqueiro<br/>Poste: 1096119<br/>Área: urbano<br/>Altura: 3 m · DAP: 35 cm<br/>Dist. BT/MT/AT: 50/50/50 cm<br/>Equipe: Enecol Sul · 24/06/2026, 16:47:38]]></description><Point><coordinates>-48.32842767115249,-10.177272458051297,0</coordinates></Point></Placemark>
<Placemark><name>V0001 — Teste</name><description><![CDATA[Espécie: Teste<br/>Poste: 1<br/>Área: Teste<br/>Altura: 7 m · DAP: 47 cm<br/>Dist. BT/MT/AT: 100/200/ cm<br/>Equipe: Equipe 01 — Norte · 23/06/2026, 14:37:19]]></description><Point><coordinates>-48.32842697182525,-10.17763830762443,0</coordinates></Point></Placemark>
<Placemark><name>V0001 — Mangueira</name><description><![CDATA[Espécie: Mangueira<br/>Poste: 443539<br/>Área: URBANO<br/>Altura: 3.5 m · DAP: 45 cm<br/>Dist. BT/MT/AT: 0/250/0 cm<br/>Equipe: Equipe Energisa · 30/06/2026, 15:22:39<br/><a href="https://raw.githubusercontent.com/LGRSV/vera-vegetacao/main/fotos/Equipe-Energisa/VER0001F1.jpg">Foto</a>]]></description><Point><coordinates>-48.328449547502835,-10.177689302381243,0</coordinates></Point></Placemark>
<Placemark><name>V0002 — Babaçu</name><description><![CDATA[Espécie: Babaçu<br/>Poste: 402081<br/>Área: URBANO<br/>Altura: 4 m · DAP: 50 cm<br/>Dist. BT/MT/AT: 150/150/0 cm<br/>Equipe: Equipe Energisa · 30/06/2026, 20:26:40<br/><a href="https://raw.githubusercontent.com/LGRSV/vera-vegetacao/main/fotos/Equipe-Energisa/VER0002F1.jpg">Foto</a>]]></description><Point><coordinates>-48.35272768675436,-10.215356958072663,0</coordinates></Point></Placemark>
<Placemark><name>V0003 — Oiti</name><description><![CDATA[Espécie: Oiti<br/>Poste: 443539<br/>Área: <br/>Altura: 2.5 m · DAP: 20 cm<br/>Dist. BT/MT/AT: 300/300/0 cm<br/>Equipe: Equipe Energisa · 26/06/2026, 09:22:24<br/><a href="https://raw.githubusercontent.com/LGRSV/vera-vegetacao/main/fotos/Equipe-Energisa/VER0003F1.jpg">Foto</a>]]></description><Point><coordinates>-48.3284619,-10.1772728,0</coordinates></Point></Placemark>
<Placemark><name>V0004 — Outros</name><description><![CDATA[Espécie: Outros<br/>Poste: 440318<br/>Área: <br/>Altura: 4 m · DAP: 60 cm<br/>Dist. BT/MT/AT: 300/300/0 cm<br/>Equipe: Equipe Energisa · 26/06/2026, 09:25:38<br/><a href="https://raw.githubusercontent.com/LGRSV/vera-vegetacao/main/fotos/Equipe-Energisa/VER0004F1.jpg">Foto</a>]]></description><Point><coordinates>-48.3280135,-10.177261,0</coordinates></Point></Placemark>
<Placemark><name>V0005 — Outros</name><description><![CDATA[Espécie: Outros<br/>Poste: 444120<br/>Área: <br/>Altura: 4 m · DAP: 25 cm<br/>Dist. BT/MT/AT: 250/300/0 cm<br/>Equipe: Equipe Energisa · 26/06/2026, 09:28:37<br/><a href="https://raw.githubusercontent.com/LGRSV/vera-vegetacao/main/fotos/Equipe-Energisa/VER0005F1.jpg">Foto</a>]]></description><Point><coordinates>-48.3278281,-10.1772336,0</coordinates></Point></Placemark>
<Placemark><name>V0006 — Mangueira</name><description><![CDATA[Espécie: Mangueira<br/>Poste: 444122<br/>Área: <br/>Altura: 9 m · DAP: 150 cm<br/>Dist. BT/MT/AT: 250/150/0 cm<br/>Equipe: Equipe Energisa · 26/06/2026, 09:31:50<br/><a href="https://raw.githubusercontent.com/LGRSV/vera-vegetacao/main/fotos/Equipe-Energisa/VER0006F1.jpg">Foto</a>]]></description><Point><coordinates>-48.3274191,-10.1772393,0</coordinates></Point></Placemark>
</Document></kml>
