<?xml version="1.0" encoding="UTF-8"?>
<kml xmlns="http://www.opengis.net/kml/2.2"><Document><name>Rota Araguatins — pontos VERA</name>
<Placemark><name>V20260923152533329594736 — Outros</name><description><![CDATA[Espécie: Outros<br/>Poste: 1081253<br/>Área: URBANO<br/>Altura: 7 m · DAP: 75 cm<br/>Dist. BT/MT/AT: /250/0 cm<br/>Equipe: Enecol Centro · 23/09/2026, 15:25:32<br/><a href="https://raw.githubusercontent.com/LGRSV/vera-vegetacao/main/fotos/Enecol-Centro/VER20260923152533329594736F1.jpg">Foto</a>]]></description><Point><coordinates>-48.1205567,-5.656995,0</coordinates></Point></Placemark>
</Document></kml>
