<?xml version="1.0" encoding="UTF-8"?>
<kml xmlns="http://www.opengis.net/kml/2.2"><Document><name>Rota SE Colinas — pontos VERA</name>
<Placemark><name>V20260731111458431695690 — Cajueiro</name><description><![CDATA[Espécie: Cajueiro<br/>Poste: 1123879<br/>Área: URBANO<br/>Altura: 7 m · DAP: 60 cm<br/>Dist. BT/MT/AT: /300/0 cm<br/>Equipe: Enecol Centro · 31/07/2026, 11:14:57<br/><a href="https://raw.githubusercontent.com/LGRSV/vera-vegetacao/main/fotos/Enecol-Centro/VER20260731111458431695690F1.jpg">Foto</a>]]></description><Point><coordinates>-48.4971965,-8.0377728,0</coordinates></Point></Placemark>
</Document></kml>
