<?xml version="1.0" encoding="UTF-8"?>
<kml xmlns="http://www.opengis.net/kml/2.2"><Document><name>Rota Itaporã do Tocantins — pontos VERA</name>
<Placemark><name>V20260922134348501516700 — Outros</name><description><![CDATA[Espécie: Outros<br/>Poste: 1097348<br/>Área: URBANO<br/>Altura: 3 m · DAP: 60 cm<br/>Dist. BT/MT/AT: 300/300/0 cm<br/>Equipe: Enecol Centro · 22/09/2026, 13:43:47<br/><a href="https://raw.githubusercontent.com/LGRSV/vera-vegetacao/main/fotos/Enecol-Centro/VER20260922134348501516700F1.jpg">Foto</a>]]></description><Point><coordinates>-48.6900022,-8.5797625,0</coordinates></Point></Placemark>
<Placemark><name>V20260922134656763706265 — Outros</name><description><![CDATA[Espécie: Outros<br/>Poste: 308924<br/>Área: URBANO<br/>Altura: 6.5 m · DAP: 85 cm<br/>Dist. BT/MT/AT: 300/300/0 cm<br/>Equipe: Enecol Centro · 22/09/2026, 13:46:55<br/><a href="https://raw.githubusercontent.com/LGRSV/vera-vegetacao/main/fotos/Enecol-Centro/VER20260922134656763706265F1.jpg">Foto</a>]]></description><Point><coordinates>-48.6908182,-8.5774985,0</coordinates></Point></Placemark>
<Placemark><name>V20260922134806832745988 — Outros</name><description><![CDATA[Espécie: Outros<br/>Poste: 308924<br/>Área: URBANO<br/>Altura: 6.5 m · DAP: 95 cm<br/>Dist. BT/MT/AT: 300/300/0 cm<br/>Equipe: Enecol Centro · 22/09/2026, 13:48:05<br/><a href="https://raw.githubusercontent.com/LGRSV/vera-vegetacao/main/fotos/Enecol-Centro/VER20260922134806832745988F1.jpg">Foto</a>]]></description><Point><coordinates>-48.6907839,-8.5774698,0</coordinates></Point></Placemark>
<Placemark><name>V20260922135037718869190 — Outros</name><description><![CDATA[Espécie: Outros<br/>Poste: 861596<br/>Área: URBANO<br/>Altura: 6 m · DAP: 55 cm<br/>Dist. BT/MT/AT: 300/300/0 cm<br/>Equipe: Enecol Centro · 22/09/2026, 13:50:36<br/><a href="https://raw.githubusercontent.com/LGRSV/vera-vegetacao/main/fotos/Enecol-Centro/VER20260922135037718869190F1.jpg">Foto</a>]]></description><Point><coordinates>-48.6911681,-8.5763747,0</coordinates></Point></Placemark>
<Placemark><name>V20260922135355329891619 — Outros</name><description><![CDATA[Espécie: Outros<br/>Poste: 861596<br/>Área: URBANO<br/>Altura: 6 m · DAP: 80 cm<br/>Dist. BT/MT/AT: 100//0 cm<br/>Equipe: Enecol Centro · 22/09/2026, 13:53:54<br/><a href="https://raw.githubusercontent.com/LGRSV/vera-vegetacao/main/fotos/Enecol-Centro/VER20260922135355329891619F1.jpg">Foto</a>]]></description><Point><coordinates>-48.6911918,-8.5761469,0</coordinates></Point></Placemark>
<Placemark><name>V20260922135454096644482 — Outros</name><description><![CDATA[Espécie: Outros<br/>Poste: 861596<br/>Área: URBANO<br/>Altura: 5.5 m · DAP: 75 cm<br/>Dist. BT/MT/AT: 100/300/0 cm<br/>Equipe: Enecol Centro · 22/09/2026, 13:54:53<br/><a href="https://raw.githubusercontent.com/LGRSV/vera-vegetacao/main/fotos/Enecol-Centro/VER20260922135454096644482F1.jpg">Foto</a>]]></description><Point><coordinates>-48.6911994,-8.5762398,0</coordinates></Point></Placemark>
<Placemark><name>V20260922135619079876189 — Outros</name><description><![CDATA[Espécie: Outros<br/>Poste: 861595<br/>Área: URBANO<br/>Altura: 4.5 m · DAP: 60 cm<br/>Dist. BT/MT/AT: 300/300/0 cm<br/>Equipe: Enecol Centro · 22/09/2026, 13:56:18<br/><a href="https://raw.githubusercontent.com/LGRSV/vera-vegetacao/main/fotos/Enecol-Centro/VER20260922135619079876189F1.jpg">Foto</a>]]></description><Point><coordinates>-48.6912182,-8.5760052,0</coordinates></Point></Placemark>
</Document></kml>
