<?xml version="1.0" encoding="UTF-8"?>
<kml xmlns="http://www.opengis.net/kml/2.2"><Document><name>Rota Rio dos Bois — pontos VERA</name>
<Placemark><name>V20260909102107391038535 — Outros</name><description><![CDATA[Espécie: Outros<br/>Poste: <br/>Área: URBANO<br/>Altura: 7.5 m · DAP: 60 cm<br/>Dist. BT/MT/AT: 250/300/0 cm<br/>Equipe: Enecol Centro · 09/09/2026, 10:21:06<br/><a href="https://raw.githubusercontent.com/LGRSV/vera-vegetacao/main/fotos/Enecol-Centro/VER20260909102107391038535F1.jpg">Foto</a>]]></description><Point><coordinates>-48.5352367,-9.3386983,0</coordinates></Point></Placemark>
<Placemark><name>V20260909102636374197330 — Outros</name><description><![CDATA[Espécie: Outros<br/>Poste: <br/>Área: URBANO<br/>Altura: 4 m · DAP: 35 cm<br/>Dist. BT/MT/AT: 50/300/0 cm<br/>Equipe: Enecol Centro · 09/09/2026, 10:26:35<br/><a href="https://raw.githubusercontent.com/LGRSV/vera-vegetacao/main/fotos/Enecol-Centro/VER20260909102636374197330F1.jpg">Foto</a>]]></description><Point><coordinates>-48.53553,-9.3405617,0</coordinates></Point></Placemark>
<Placemark><name>V20260909103040179363608 — Mangueira</name><description><![CDATA[Espécie: Mangueira<br/>Poste: <br/>Área: URBANO<br/>Altura: 8 m · DAP: 200 cm<br/>Dist. BT/MT/AT: 150/150/0 cm<br/>Equipe: Enecol Centro · 09/09/2026, 10:30:39<br/><a href="https://raw.githubusercontent.com/LGRSV/vera-vegetacao/main/fotos/Enecol-Centro/VER20260909103040179363608F1.jpg">Foto</a>]]></description><Point><coordinates>-48.5359967,-9.3422317,0</coordinates></Point></Placemark>
<Placemark><name>V20260909103358320539610 — Outros</name><description><![CDATA[Espécie: Outros<br/>Poste: <br/>Área: URBANO<br/>Altura: 3.5 m · DAP: 45 cm<br/>Dist. BT/MT/AT: 50/200/0 cm<br/>Equipe: Enecol Centro · 09/09/2026, 10:33:57<br/><a href="https://raw.githubusercontent.com/LGRSV/vera-vegetacao/main/fotos/Enecol-Centro/VER20260909103358320539610F1.jpg">Foto</a>]]></description><Point><coordinates>-48.5361517,-9.3424633,0</coordinates></Point></Placemark>
<Placemark><name>V20260909103733917672723 — Abacateiro</name><description><![CDATA[Espécie: Abacateiro<br/>Poste: <br/>Área: URBANO<br/>Altura: 7 m · DAP: 100 cm<br/>Dist. BT/MT/AT: 200/250/0 cm<br/>Equipe: Enecol Centro · 09/09/2026, 10:37:33<br/><a href="https://raw.githubusercontent.com/LGRSV/vera-vegetacao/main/fotos/Enecol-Centro/VER20260909103733917672723F1.jpg">Foto</a>]]></description><Point><coordinates>-48.5364417,-9.3422733,0</coordinates></Point></Placemark>
</Document></kml>
