<?xml version="1.0" encoding="UTF-8"?>
<kml xmlns="http://www.opengis.net/kml/2.2"><Document><name>Rota Guaraí — pontos VERA</name>
<Placemark><name>V20260724110546448170786 — Outros</name><description><![CDATA[Espécie: Outros<br/>Poste: 1774346<br/>Área: URBANO<br/>Altura: 8.5 m · DAP: 60 cm<br/>Dist. BT/MT/AT: /150/0 cm<br/>Equipe: Enecol Centro · 24/07/2026, 09:20:00<br/><a href="https://raw.githubusercontent.com/LGRSV/vera-vegetacao/main/fotos/Enecol-Centro/VER20260724110546448170786F1.jpg">Foto</a>]]></description><Point><coordinates>-48.517176,-8.823545,0</coordinates></Point></Placemark>
<Placemark><name>V20260724110549139884942 — Outros</name><description><![CDATA[Espécie: Outros<br/>Poste: 1774346<br/>Área: URBANO<br/>Altura: 8.5 m · DAP: 75 cm<br/>Dist. BT/MT/AT: /150/0 cm<br/>Equipe: Enecol Centro · 24/07/2026, 09:27:07<br/><a href="https://raw.githubusercontent.com/LGRSV/vera-vegetacao/main/fotos/Enecol-Centro/VER20260724110549139884942F1.jpg">Foto</a>]]></description><Point><coordinates>-48.5171174,-8.8235382,0</coordinates></Point></Placemark>
<Placemark><name>V20260724110555729898472 — Cajueiro</name><description><![CDATA[Espécie: Cajueiro<br/>Poste: 1774345<br/>Área: URBANO<br/>Altura: 6 m · DAP: 50 cm<br/>Dist. BT/MT/AT: //0 cm<br/>Equipe: Enecol Centro · 24/07/2026, 09:28:35<br/><a href="https://raw.githubusercontent.com/LGRSV/vera-vegetacao/main/fotos/Enecol-Centro/VER20260724110555729898472F1.jpg">Foto</a>]]></description><Point><coordinates>-48.5170073,-8.8234762,0</coordinates></Point></Placemark>
<Placemark><name>V20260724141739257577377 — Outros</name><description><![CDATA[Espécie: Outros<br/>Poste: 893890<br/>Área: URBANO<br/>Altura: 19 m · DAP: 200 cm<br/>Dist. BT/MT/AT: /50/0 cm<br/>Equipe: Enecol Centro · 24/07/2026, 14:17:38<br/><a href="https://raw.githubusercontent.com/LGRSV/vera-vegetacao/main/fotos/Enecol-Centro/VER20260724141739257577377F1.jpg">Foto</a>]]></description><Point><coordinates>-48.5126067,-8.82137,0</coordinates></Point></Placemark>
<Placemark><name>V20260724141957461088412 — Outros</name><description><![CDATA[Espécie: Outros<br/>Poste: 912533<br/>Área: URBANO<br/>Altura: 12 m · DAP: 140 cm<br/>Dist. BT/MT/AT: /50/0 cm<br/>Equipe: Enecol Centro · 24/07/2026, 14:19:56<br/><a href="https://raw.githubusercontent.com/LGRSV/vera-vegetacao/main/fotos/Enecol-Centro/VER20260724141957461088412F1.jpg">Foto</a>]]></description><Point><coordinates>-48.5126167,-8.82164,0</coordinates></Point></Placemark>
<Placemark><name>V20260724142104423749760 — Cajueiro</name><description><![CDATA[Espécie: Cajueiro<br/>Poste: 912533<br/>Área: URBANO<br/>Altura: 9 m · DAP:  cm<br/>Dist. BT/MT/AT: /300/0 cm<br/>Equipe: Enecol Centro · 24/07/2026, 14:21:03<br/><a href="https://raw.githubusercontent.com/LGRSV/vera-vegetacao/main/fotos/Enecol-Centro/VER20260724142104423749760F1.jpg">Foto</a>]]></description><Point><coordinates>-48.5125933,-8.821725,0</coordinates></Point></Placemark>
<Placemark><name>V20260724142300904459967 — Outros</name><description><![CDATA[Espécie: Outros<br/>Poste: 303262<br/>Área: URBANO<br/>Altura: 4.5 m · DAP: 40 cm<br/>Dist. BT/MT/AT: //0 cm<br/>Equipe: Enecol Centro · 24/07/2026, 14:22:59<br/><a href="https://raw.githubusercontent.com/LGRSV/vera-vegetacao/main/fotos/Enecol-Centro/VER20260724142300904459967F1.jpg">Foto</a>]]></description><Point><coordinates>-48.5127083,-8.82122,0</coordinates></Point></Placemark>
<Placemark><name>V20260724142356841781511 — Outros</name><description><![CDATA[Espécie: Outros<br/>Poste: 893891<br/>Área: URBANO<br/>Altura: 4.5 m · DAP: 40 cm<br/>Dist. BT/MT/AT: //0 cm<br/>Equipe: Enecol Centro · 24/07/2026, 14:23:55<br/><a href="https://raw.githubusercontent.com/LGRSV/vera-vegetacao/main/fotos/Enecol-Centro/VER20260724142356841781511F1.jpg">Foto</a>]]></description><Point><coordinates>-48.5126867,-8.8210633,0</coordinates></Point></Placemark>
<Placemark><name>V20260724143359551497538 — Oiti</name><description><![CDATA[Espécie: Oiti<br/>Poste: 914223<br/>Área: URBANO<br/>Altura: 9 m · DAP: 50 cm<br/>Dist. BT/MT/AT: 200/250/0 cm<br/>Equipe: Enecol Centro · 24/07/2026, 14:33:58<br/><a href="https://raw.githubusercontent.com/LGRSV/vera-vegetacao/main/fotos/Enecol-Centro/VER20260724143359551497538F1.jpg">Foto</a>]]></description><Point><coordinates>-48.514275,-8.8297817,0</coordinates></Point></Placemark>
<Placemark><name>V20260724143455441132558 — Oiti</name><description><![CDATA[Espécie: Oiti<br/>Poste: 914223<br/>Área: URBANO<br/>Altura: 9 m · DAP: 50 cm<br/>Dist. BT/MT/AT: 200/300/0 cm<br/>Equipe: Enecol Centro · 24/07/2026, 14:34:54<br/><a href="https://raw.githubusercontent.com/LGRSV/vera-vegetacao/main/fotos/Enecol-Centro/VER20260724143455441132558F1.jpg">Foto</a>]]></description><Point><coordinates>-48.5079183,-8.827095,0</coordinates></Point></Placemark>
<Placemark><name>V20260724143550215593304 — Oiti</name><description><![CDATA[Espécie: Oiti<br/>Poste: 914223<br/>Área: URBANO<br/>Altura: 10 m · DAP: 60 cm<br/>Dist. BT/MT/AT: 300/300/0 cm<br/>Equipe: Enecol Centro · 24/07/2026, 14:35:49<br/><a href="https://raw.githubusercontent.com/LGRSV/vera-vegetacao/main/fotos/Enecol-Centro/VER20260724143550215593304F1.jpg">Foto</a>]]></description><Point><coordinates>-48.514295,-8.829805,0</coordinates></Point></Placemark>
<Placemark><name>V20260724143942707144303 — Cajueiro</name><description><![CDATA[Espécie: Cajueiro<br/>Poste: 913039<br/>Área: URBANO<br/>Altura: 8.5 m · DAP: 70 cm<br/>Dist. BT/MT/AT: 250/300/0 cm<br/>Equipe: Enecol Centro · 24/07/2026, 14:39:41<br/><a href="https://raw.githubusercontent.com/LGRSV/vera-vegetacao/main/fotos/Enecol-Centro/VER20260724143942707144303F1.jpg">Foto</a>]]></description><Point><coordinates>-48.515645,-8.8305517,0</coordinates></Point></Placemark>
<Placemark><name>V20260724144040365479884 — Outros</name><description><![CDATA[Espécie: Outros<br/>Poste: 123243<br/>Área: URBANO<br/>Altura: 4 m · DAP: 25 cm<br/>Dist. BT/MT/AT: //0 cm<br/>Equipe: Enecol Centro · 24/07/2026, 14:40:39<br/><a href="https://raw.githubusercontent.com/LGRSV/vera-vegetacao/main/fotos/Enecol-Centro/VER20260724144040365479884F1.jpg">Foto</a>]]></description><Point><coordinates>-48.51571,-8.8305833,0</coordinates></Point></Placemark>
<Placemark><name>V20260724145103992563820 — Oiti</name><description><![CDATA[Espécie: Oiti<br/>Poste: 914006<br/>Área: URBANO<br/>Altura: 9 m · DAP: 80 cm<br/>Dist. BT/MT/AT: 0/150/0 cm<br/>Equipe: Enecol Centro · 24/07/2026, 14:51:03<br/><a href="https://raw.githubusercontent.com/LGRSV/vera-vegetacao/main/fotos/Enecol-Centro/VER20260724145103992563820F1.jpg">Foto</a>]]></description><Point><coordinates>-48.5184375,-8.8369475,0</coordinates></Point></Placemark>
<Placemark><name>V20260724145216914414687 — Oiti</name><description><![CDATA[Espécie: Oiti<br/>Poste: 911213<br/>Área: URBANO<br/>Altura: 6.5 m · DAP: 70 cm<br/>Dist. BT/MT/AT: 300/300/0 cm<br/>Equipe: Enecol Centro · 24/07/2026, 14:52:15<br/><a href="https://raw.githubusercontent.com/LGRSV/vera-vegetacao/main/fotos/Enecol-Centro/VER20260724145216914414687F1.jpg">Foto</a>]]></description><Point><coordinates>-48.5185295,-8.8369986,0</coordinates></Point></Placemark>
<Placemark><name>V20260724145317409908774 — Oiti</name><description><![CDATA[Espécie: Oiti<br/>Poste: 911213<br/>Área: URBANO<br/>Altura: 6 m · DAP: 40 cm<br/>Dist. BT/MT/AT: 300/300/0 cm<br/>Equipe: Enecol Centro · 24/07/2026, 14:53:16<br/><a href="https://raw.githubusercontent.com/LGRSV/vera-vegetacao/main/fotos/Enecol-Centro/VER20260724145317409908774F1.jpg">Foto</a>]]></description><Point><coordinates>-48.5185817,-8.8369759,0</coordinates></Point></Placemark>
<Placemark><name>V20260724145435702268417 — Oiti</name><description><![CDATA[Espécie: Oiti<br/>Poste: 911212<br/>Área: URBANO<br/>Altura: 6.5 m · DAP: 55 cm<br/>Dist. BT/MT/AT: 300/300/0 cm<br/>Equipe: Enecol Centro · 24/07/2026, 14:54:34<br/><a href="https://raw.githubusercontent.com/LGRSV/vera-vegetacao/main/fotos/Enecol-Centro/VER20260724145435702268417F1.jpg">Foto</a>]]></description><Point><coordinates>-48.5183707,-8.8369101,0</coordinates></Point></Placemark>
<Placemark><name>V20260724145735524079948 — Goiaba</name><description><![CDATA[Espécie: Goiaba<br/>Poste: 910938<br/>Área: URBANO<br/>Altura: 7 m · DAP: 70 cm<br/>Dist. BT/MT/AT: 300/300/0 cm<br/>Equipe: Enecol Centro · 24/07/2026, 14:57:34<br/><a href="https://raw.githubusercontent.com/LGRSV/vera-vegetacao/main/fotos/Enecol-Centro/VER20260724145735524079948F1.jpg">Foto</a>]]></description><Point><coordinates>-48.5173278,-8.8368803,0</coordinates></Point></Placemark>
<Placemark><name>V20260724150053043501637 — Outros</name><description><![CDATA[Espécie: Outros<br/>Poste: 914499<br/>Área: URBANO<br/>Altura: 7.5 m · DAP: 50 cm<br/>Dist. BT/MT/AT: 0/250/0 cm<br/>Equipe: Enecol Centro · 24/07/2026, 15:00:52<br/><a href="https://raw.githubusercontent.com/LGRSV/vera-vegetacao/main/fotos/Enecol-Centro/VER20260724150053043501637F1.jpg">Foto</a>]]></description><Point><coordinates>-48.5165856,-8.8370077,0</coordinates></Point></Placemark>
<Placemark><name>V20260724150416481789598 — Oiti</name><description><![CDATA[Espécie: Oiti<br/>Poste: 126889<br/>Área: URBANO<br/>Altura: 6.5 m · DAP: 70 cm<br/>Dist. BT/MT/AT: 200/300/0 cm<br/>Equipe: Enecol Centro · 24/07/2026, 15:04:15<br/><a href="https://raw.githubusercontent.com/LGRSV/vera-vegetacao/main/fotos/Enecol-Centro/VER20260724150416481789598F1.jpg">Foto</a>]]></description><Point><coordinates>-48.5166282,-8.8374105,0</coordinates></Point></Placemark>
<Placemark><name>V20260724150530185919318 — Oiti</name><description><![CDATA[Espécie: Oiti<br/>Poste: 126889<br/>Área: URBANO<br/>Altura: 6.5 m · DAP: 70 cm<br/>Dist. BT/MT/AT: 200/300/0 cm<br/>Equipe: Enecol Centro · 24/07/2026, 15:05:29<br/><a href="https://raw.githubusercontent.com/LGRSV/vera-vegetacao/main/fotos/Enecol-Centro/VER20260724150530185919318F1.jpg">Foto</a>]]></description><Point><coordinates>-48.5165538,-8.8373747,0</coordinates></Point></Placemark>
<Placemark><name>V20260724150630148521055 — Outros</name><description><![CDATA[Espécie: Outros<br/>Poste: 126889<br/>Área: URBANO<br/>Altura: 6.5 m · DAP: 50 cm<br/>Dist. BT/MT/AT: 50/300/0 cm<br/>Equipe: Enecol Centro · 24/07/2026, 15:06:29<br/><a href="https://raw.githubusercontent.com/LGRSV/vera-vegetacao/main/fotos/Enecol-Centro/VER20260724150630148521055F1.jpg">Foto</a>]]></description><Point><coordinates>-48.5165952,-8.837344,0</coordinates></Point></Placemark>
<Placemark><name>V20260724150728995756904 — Oiti</name><description><![CDATA[Espécie: Oiti<br/>Poste: 914499<br/>Área: URBANO<br/>Altura: 5 m · DAP: 60 cm<br/>Dist. BT/MT/AT: 50/300/0 cm<br/>Equipe: Enecol Centro · 24/07/2026, 15:07:28<br/><a href="https://raw.githubusercontent.com/LGRSV/vera-vegetacao/main/fotos/Enecol-Centro/VER20260724150728995756904F1.jpg">Foto</a>]]></description><Point><coordinates>-48.5165859,-8.8372556,0</coordinates></Point></Placemark>
<Placemark><name>V20260724150819513224937 — Outros</name><description><![CDATA[Espécie: Outros<br/>Poste: 914499<br/>Área: URBANO<br/>Altura: 4.5 m · DAP: 80 cm<br/>Dist. BT/MT/AT: 300/300/0 cm<br/>Equipe: Enecol Centro · 24/07/2026, 15:08:18<br/><a href="https://raw.githubusercontent.com/LGRSV/vera-vegetacao/main/fotos/Enecol-Centro/VER20260724150819513224937F1.jpg">Foto</a>]]></description><Point><coordinates>-48.5165739,-8.8372125,0</coordinates></Point></Placemark>
<Placemark><name>V20260724150919862113040 — Mangueira</name><description><![CDATA[Espécie: Mangueira<br/>Poste: 914499<br/>Área: URBANO<br/>Altura: 7.5 m · DAP: 50 cm<br/>Dist. BT/MT/AT: 100/300/0 cm<br/>Equipe: Enecol Centro · 24/07/2026, 15:09:18<br/><a href="https://raw.githubusercontent.com/LGRSV/vera-vegetacao/main/fotos/Enecol-Centro/VER20260724150919862113040F1.jpg">Foto</a>]]></description><Point><coordinates>-48.5165883,-8.8370583,0</coordinates></Point></Placemark>
<Placemark><name>V20260724152117879941865 — Oiti</name><description><![CDATA[Espécie: Oiti<br/>Poste: 862246<br/>Área: URBANO<br/>Altura: 7.5 m · DAP: 65 cm<br/>Dist. BT/MT/AT: 0/300/0 cm<br/>Equipe: Enecol Centro · 24/07/2026, 15:21:16<br/><a href="https://raw.githubusercontent.com/LGRSV/vera-vegetacao/main/fotos/Enecol-Centro/VER20260724152117879941865F1.jpg">Foto</a>]]></description><Point><coordinates>-48.51669,-8.8358317,0</coordinates></Point></Placemark>
<Placemark><name>V20260724154849233935579 — Oiti</name><description><![CDATA[Espécie: Oiti<br/>Poste: 911211<br/>Área: URBANO<br/>Altura: 8 m · DAP: 70 cm<br/>Dist. BT/MT/AT: 200/300/0 cm<br/>Equipe: Enecol Centro · 24/07/2026, 15:48:48<br/><a href="https://raw.githubusercontent.com/LGRSV/vera-vegetacao/main/fotos/Enecol-Centro/VER20260724154849233935579F1.jpg">Foto</a>]]></description><Point><coordinates>-48.516005,-8.8361383,0</coordinates></Point></Placemark>
<Placemark><name>V20260724155514564910808 — Oiti</name><description><![CDATA[Espécie: Oiti<br/>Poste: <br/>Área: URBANO<br/>Altura: 8 m · DAP: 65 cm<br/>Dist. BT/MT/AT: 50/300/0 cm<br/>Equipe: Enecol Centro · 24/07/2026, 15:55:13<br/><a href="https://raw.githubusercontent.com/LGRSV/vera-vegetacao/main/fotos/Enecol-Centro/VER20260724155514564910808F1.jpg">Foto</a>]]></description><Point><coordinates>-48.5167317,-8.8355083,0</coordinates></Point></Placemark>
<Placemark><name>V20260724155705236403895 — Outros</name><description><![CDATA[Espécie: Outros<br/>Poste: 126998<br/>Área: URBANO<br/>Altura: 9 m · DAP: 50 cm<br/>Dist. BT/MT/AT: 250/300/0 cm<br/>Equipe: Enecol Centro · 24/07/2026, 15:57:04<br/><a href="https://raw.githubusercontent.com/LGRSV/vera-vegetacao/main/fotos/Enecol-Centro/VER20260724155705236403895F1.jpg">Foto</a>]]></description><Point><coordinates>-48.5167506,-8.8352214,0</coordinates></Point></Placemark>
<Placemark><name>V20260724155813901925524 — Outros</name><description><![CDATA[Espécie: Outros<br/>Poste: 126998<br/>Área: URBANO<br/>Altura: 10.5 m · DAP: 80 cm<br/>Dist. BT/MT/AT: 0/150/0 cm<br/>Equipe: Enecol Centro · 24/07/2026, 15:58:12<br/><a href="https://raw.githubusercontent.com/LGRSV/vera-vegetacao/main/fotos/Enecol-Centro/VER20260724155813901925524F1.jpg">Foto</a>]]></description><Point><coordinates>-48.516727,-8.8351781,0</coordinates></Point></Placemark>
<Placemark><name>V20260724155944478844841 — Mogno</name><description><![CDATA[Espécie: Mogno<br/>Poste: 126998<br/>Área: URBANO<br/>Altura: 6.5 m · DAP: 50 cm<br/>Dist. BT/MT/AT: 150/300/0 cm<br/>Equipe: Enecol Centro · 24/07/2026, 15:59:43<br/><a href="https://raw.githubusercontent.com/LGRSV/vera-vegetacao/main/fotos/Enecol-Centro/VER20260724155944478844841F1.jpg">Foto</a>]]></description><Point><coordinates>-48.5167604,-8.8349537,0</coordinates></Point></Placemark>
<Placemark><name>V20260724160036844239540 — Outros</name><description><![CDATA[Espécie: Outros<br/>Poste: 126998<br/>Área: URBANO<br/>Altura: 2.5 m · DAP: 50 cm<br/>Dist. BT/MT/AT: //0 cm<br/>Equipe: Enecol Centro · 24/07/2026, 16:00:35<br/><a href="https://raw.githubusercontent.com/LGRSV/vera-vegetacao/main/fotos/Enecol-Centro/VER20260724160036844239540F1.jpg">Foto</a>]]></description><Point><coordinates>-48.5167853,-8.8349464,0</coordinates></Point></Placemark>
<Placemark><name>V20260724160440358593440 — Oiti</name><description><![CDATA[Espécie: Oiti<br/>Poste: 914496<br/>Área: URBANO<br/>Altura: 5.5 m · DAP: 50 cm<br/>Dist. BT/MT/AT: 300/300/0 cm<br/>Equipe: Enecol Centro · 24/07/2026, 16:04:39<br/><a href="https://raw.githubusercontent.com/LGRSV/vera-vegetacao/main/fotos/Enecol-Centro/VER20260724160440358593440F1.jpg">Foto</a>]]></description><Point><coordinates>-48.516475,-8.83424,0</coordinates></Point></Placemark>
<Placemark><name>V20260724160531234222164 — Outros</name><description><![CDATA[Espécie: Outros<br/>Poste: 914496<br/>Área: URBANO<br/>Altura: 4.5 m · DAP: 30 cm<br/>Dist. BT/MT/AT: //0 cm<br/>Equipe: Enecol Centro · 24/07/2026, 16:05:30<br/><a href="https://raw.githubusercontent.com/LGRSV/vera-vegetacao/main/fotos/Enecol-Centro/VER20260724160531234222164F1.jpg">Foto</a>]]></description><Point><coordinates>-48.51636,-8.834225,0</coordinates></Point></Placemark>
<Placemark><name>V20260724160806963665979 — Oiti</name><description><![CDATA[Espécie: Oiti<br/>Poste: 91682<br/>Área: URBANO<br/>Altura: 6 m · DAP: 50 cm<br/>Dist. BT/MT/AT: 300/300/0 cm<br/>Equipe: Enecol Centro · 24/07/2026, 16:08:06<br/><a href="https://raw.githubusercontent.com/LGRSV/vera-vegetacao/main/fotos/Enecol-Centro/VER20260724160806963665979F1.jpg">Foto</a>]]></description><Point><coordinates>-48.51455,-8.8340783,0</coordinates></Point></Placemark>
<Placemark><name>V20260724160928258824154 — Oiti</name><description><![CDATA[Espécie: Oiti<br/>Poste: 91682<br/>Área: URBANO<br/>Altura: 9.5 m · DAP: 80 cm<br/>Dist. BT/MT/AT: 0/150/0 cm<br/>Equipe: Enecol Centro · 24/07/2026, 16:09:27<br/><a href="https://raw.githubusercontent.com/LGRSV/vera-vegetacao/main/fotos/Enecol-Centro/VER20260724160928258824154F1.jpg">Foto</a>]]></description><Point><coordinates>-48.5144917,-8.8340217,0</coordinates></Point></Placemark>
<Placemark><name>V20260724161410050177404 — Oiti</name><description><![CDATA[Espécie: Oiti<br/>Poste: 911469<br/>Área: URBANO<br/>Altura: 7 m · DAP: 85 cm<br/>Dist. BT/MT/AT: 250/300/0 cm<br/>Equipe: Enecol Centro · 24/07/2026, 16:14:09<br/><a href="https://raw.githubusercontent.com/LGRSV/vera-vegetacao/main/fotos/Enecol-Centro/VER20260724161410050177404F1.jpg">Foto</a>]]></description><Point><coordinates>-48.5137633,-8.8339817,0</coordinates></Point></Placemark>
<Placemark><name>V20260724161556912405741 — Oiti</name><description><![CDATA[Espécie: Oiti<br/>Poste: 48277733<br/>Área: URBANO<br/>Altura: 8 m · DAP: 80 cm<br/>Dist. BT/MT/AT: 50/300/0 cm<br/>Equipe: Enecol Centro · 24/07/2026, 16:15:55<br/><a href="https://raw.githubusercontent.com/LGRSV/vera-vegetacao/main/fotos/Enecol-Centro/VER20260724161556912405741F1.jpg">Foto</a>]]></description><Point><coordinates>-48.5131933,-8.833855,0</coordinates></Point></Placemark>
<Placemark><name>V20260724161958038503890 — Outros</name><description><![CDATA[Espécie: Outros<br/>Poste: 91603<br/>Área: URBANO<br/>Altura: 10 m · DAP: 75 cm<br/>Dist. BT/MT/AT: /50/0 cm<br/>Equipe: Enecol Centro · 24/07/2026, 16:19:57<br/><a href="https://raw.githubusercontent.com/LGRSV/vera-vegetacao/main/fotos/Enecol-Centro/VER20260724161958038503890F1.jpg">Foto</a>]]></description><Point><coordinates>-48.5123664,-8.8337398,0</coordinates></Point></Placemark>
<Placemark><name>V20260724163926259291195 — Oiti</name><description><![CDATA[Espécie: Oiti<br/>Poste: 33433135<br/>Área: URBANO<br/>Altura: 7 m · DAP: 70 cm<br/>Dist. BT/MT/AT: 150/300/0 cm<br/>Equipe: Enecol Centro · 24/07/2026, 16:39:25<br/><a href="https://raw.githubusercontent.com/LGRSV/vera-vegetacao/main/fotos/Enecol-Centro/VER20260724163926259291195F1.jpg">Foto</a>]]></description><Point><coordinates>-48.5130133,-8.83941,0</coordinates></Point></Placemark>
<Placemark><name>V20260724164021744883325 — Oiti</name><description><![CDATA[Espécie: Oiti<br/>Poste: 33433118<br/>Área: URBANO<br/>Altura: 5 m · DAP: 60 cm<br/>Dist. BT/MT/AT: 300/300/0 cm<br/>Equipe: Enecol Centro · 24/07/2026, 16:40:20<br/><a href="https://raw.githubusercontent.com/LGRSV/vera-vegetacao/main/fotos/Enecol-Centro/VER20260724164021744883325F1.jpg">Foto</a>]]></description><Point><coordinates>-48.5130313,-8.8395123,0</coordinates></Point></Placemark>
<Placemark><name>V20260724164102424016139 — Oiti</name><description><![CDATA[Espécie: Oiti<br/>Poste: 33433118<br/>Área: URBANO<br/>Altura: 5 m · DAP: 60 cm<br/>Dist. BT/MT/AT: 300/300/0 cm<br/>Equipe: Enecol Centro · 24/07/2026, 16:41:01<br/><a href="https://raw.githubusercontent.com/LGRSV/vera-vegetacao/main/fotos/Enecol-Centro/VER20260724164102424016139F1.jpg">Foto</a>]]></description><Point><coordinates>-48.5130288,-8.8393454,0</coordinates></Point></Placemark>
<Placemark><name>V20260724164153086447763 — Oiti</name><description><![CDATA[Espécie: Oiti<br/>Poste: 33433118<br/>Área: URBANO<br/>Altura: 5 m · DAP: 60 cm<br/>Dist. BT/MT/AT: 300/300/0 cm<br/>Equipe: Enecol Centro · 24/07/2026, 16:41:52<br/><a href="https://raw.githubusercontent.com/LGRSV/vera-vegetacao/main/fotos/Enecol-Centro/VER20260724164153086447763F1.jpg">Foto</a>]]></description><Point><coordinates>-48.5130034,-8.8395686,0</coordinates></Point></Placemark>
<Placemark><name>V20260724164244842512735 — Oiti</name><description><![CDATA[Espécie: Oiti<br/>Poste: 33433118<br/>Área: URBANO<br/>Altura: 5 m · DAP: 60 cm<br/>Dist. BT/MT/AT: 300/300/0 cm<br/>Equipe: Enecol Centro · 24/07/2026, 16:42:43<br/><a href="https://raw.githubusercontent.com/LGRSV/vera-vegetacao/main/fotos/Enecol-Centro/VER20260724164244842512735F1.jpg">Foto</a>]]></description><Point><coordinates>-48.5129801,-8.839642,0</coordinates></Point></Placemark>
<Placemark><name>V20260724164415767769947 — Outros</name><description><![CDATA[Espécie: Outros<br/>Poste: 33433085<br/>Área: URBANO<br/>Altura: 8.5 m · DAP: 70 cm<br/>Dist. BT/MT/AT: 100/300/0 cm<br/>Equipe: Enecol Centro · 24/07/2026, 16:44:14<br/><a href="https://raw.githubusercontent.com/LGRSV/vera-vegetacao/main/fotos/Enecol-Centro/VER20260724164415767769947F1.jpg">Foto</a>]]></description><Point><coordinates>-48.5130003,-8.8398131,0</coordinates></Point></Placemark>
<Placemark><name>V20260724164537817311826 — Oiti</name><description><![CDATA[Espécie: Oiti<br/>Poste: 913724<br/>Área: URBANO<br/>Altura: 7.5 m · DAP: 50 cm<br/>Dist. BT/MT/AT: 250/300/0 cm<br/>Equipe: Enecol Centro · 24/07/2026, 16:45:36<br/><a href="https://raw.githubusercontent.com/LGRSV/vera-vegetacao/main/fotos/Enecol-Centro/VER20260724164537817311826F1.jpg">Foto</a>]]></description><Point><coordinates>-48.5128764,-8.8396472,0</coordinates></Point></Placemark>
<Placemark><name>V20260724164725418786828 — Oiti</name><description><![CDATA[Espécie: Oiti<br/>Poste: 910853<br/>Área: URBANO<br/>Altura: 7 m · DAP: 60 cm<br/>Dist. BT/MT/AT: 200/300/0 cm<br/>Equipe: Enecol Centro · 24/07/2026, 16:47:24<br/><a href="https://raw.githubusercontent.com/LGRSV/vera-vegetacao/main/fotos/Enecol-Centro/VER20260724164725418786828F1.jpg">Foto</a>]]></description><Point><coordinates>-48.5130982,-8.8396707,0</coordinates></Point></Placemark>
<Placemark><name>V20260724165352855376789 — Oiti</name><description><![CDATA[Espécie: Oiti<br/>Poste: 126993<br/>Área: URBANO<br/>Altura: 3.5 m · DAP: 30 cm<br/>Dist. BT/MT/AT: 300/300/0 cm<br/>Equipe: Enecol Centro · 24/07/2026, 16:53:51<br/><a href="https://raw.githubusercontent.com/LGRSV/vera-vegetacao/main/fotos/Enecol-Centro/VER20260724165352855376789F1.jpg">Foto</a>]]></description><Point><coordinates>-48.5147317,-8.8397883,0</coordinates></Point></Placemark>
<Placemark><name>V20260724165847319896379 — Oiti</name><description><![CDATA[Espécie: Oiti<br/>Poste: 912453<br/>Área: URBANO<br/>Altura: 4.5 m · DAP: 30 cm<br/>Dist. BT/MT/AT: 300/300/0 cm<br/>Equipe: Enecol Centro · 24/07/2026, 16:58:46<br/><a href="https://raw.githubusercontent.com/LGRSV/vera-vegetacao/main/fotos/Enecol-Centro/VER20260724165847319896379F1.jpg">Foto</a>]]></description><Point><coordinates>-48.514765,-8.83985,0</coordinates></Point></Placemark>
<Placemark><name>V20260724165957031632907 — Oiti</name><description><![CDATA[Espécie: Oiti<br/>Poste: 912453<br/>Área: URBANO<br/>Altura: 5 m · DAP: 30 cm<br/>Dist. BT/MT/AT: 300/300/0 cm<br/>Equipe: Enecol Centro · 24/07/2026, 16:59:56<br/><a href="https://raw.githubusercontent.com/LGRSV/vera-vegetacao/main/fotos/Enecol-Centro/VER20260724165957031632907F1.jpg">Foto</a>]]></description><Point><coordinates>-48.514815,-8.839775,0</coordinates></Point></Placemark>
<Placemark><name>V20260724170242009706209 — Oiti</name><description><![CDATA[Espécie: Oiti<br/>Poste: 912453<br/>Área: URBANO<br/>Altura: 4.5 m · DAP: 30 cm<br/>Dist. BT/MT/AT: 300/300/0 cm<br/>Equipe: Enecol Centro · 24/07/2026, 17:02:41<br/><a href="https://raw.githubusercontent.com/LGRSV/vera-vegetacao/main/fotos/Enecol-Centro/VER20260724170242009706209F1.jpg">Foto</a>]]></description><Point><coordinates>-48.5148483,-8.83982,0</coordinates></Point></Placemark>
<Placemark><name>V20260724170455508828943 — Outros</name><description><![CDATA[Espécie: Outros<br/>Poste: 912453<br/>Área: URBANO<br/>Altura: 5.5 m · DAP: 50 cm<br/>Dist. BT/MT/AT: 300/300/0 cm<br/>Equipe: Enecol Centro · 24/07/2026, 17:04:54<br/><a href="https://raw.githubusercontent.com/LGRSV/vera-vegetacao/main/fotos/Enecol-Centro/VER20260724170455508828943F1.jpg">Foto</a>]]></description><Point><coordinates>-48.5149116,-8.8397816,0</coordinates></Point></Placemark>
<Placemark><name>V20260724170826944379922 — Oiti</name><description><![CDATA[Espécie: Oiti<br/>Poste: <br/>Área: URBANO<br/>Altura: 5 m · DAP: 50 cm<br/>Dist. BT/MT/AT: 300/300/0 cm<br/>Equipe: Enecol Centro · 24/07/2026, 17:08:26<br/><a href="https://raw.githubusercontent.com/LGRSV/vera-vegetacao/main/fotos/Enecol-Centro/VER20260724170826944379922F1.jpg">Foto</a>]]></description><Point><coordinates>-48.5150886,-8.8397517,0</coordinates></Point></Placemark>
<Placemark><name>V20260724171956436472355 — Outros</name><description><![CDATA[Espécie: Outros<br/>Poste: 912212<br/>Área: URBANO<br/>Altura: 14 m · DAP: 80 cm<br/>Dist. BT/MT/AT: 300/300/0 cm<br/>Equipe: Enecol Centro · 24/07/2026, 17:19:55<br/><a href="https://raw.githubusercontent.com/LGRSV/vera-vegetacao/main/fotos/Enecol-Centro/VER20260724171956436472355F1.jpg">Foto</a>]]></description><Point><coordinates>-48.5154828,-8.839833,0</coordinates></Point></Placemark>
<Placemark><name>V20260724172747166602698 — Outros</name><description><![CDATA[Espécie: Outros<br/>Poste: 911119<br/>Área: URBANO<br/>Altura: 2.5 m · DAP: 35 cm<br/>Dist. BT/MT/AT: 300/300/0 cm<br/>Equipe: Enecol Centro · 24/07/2026, 17:27:46<br/><a href="https://raw.githubusercontent.com/LGRSV/vera-vegetacao/main/fotos/Enecol-Centro/VER20260724172747166602698F1.jpg">Foto</a>]]></description><Point><coordinates>-48.5163054,-8.8398711,0</coordinates></Point></Placemark>
<Placemark><name>V20260724172920697430129 — Outros</name><description><![CDATA[Espécie: Outros<br/>Poste: 1775656<br/>Área: URBANO<br/>Altura: 3.5 m · DAP: 50 cm<br/>Dist. BT/MT/AT: 300/300/0 cm<br/>Equipe: Enecol Centro · 24/07/2026, 17:29:19<br/><a href="https://raw.githubusercontent.com/LGRSV/vera-vegetacao/main/fotos/Enecol-Centro/VER20260724172920697430129F1.jpg">Foto</a>]]></description><Point><coordinates>-48.516437,-8.839857,0</coordinates></Point></Placemark>
<Placemark><name>V20260724173046042546990 — Outros</name><description><![CDATA[Espécie: Outros<br/>Poste: 911118<br/>Área: URBANO<br/>Altura: 6 m · DAP: 50 cm<br/>Dist. BT/MT/AT: 300/300/0 cm<br/>Equipe: Enecol Centro · 24/07/2026, 17:30:45<br/><a href="https://raw.githubusercontent.com/LGRSV/vera-vegetacao/main/fotos/Enecol-Centro/VER20260724173046042546990F1.jpg">Foto</a>]]></description><Point><coordinates>-48.51659,-8.83988,0</coordinates></Point></Placemark>
<Placemark><name>V20260724173149836156248 — Cajueiro</name><description><![CDATA[Espécie: Cajueiro<br/>Poste: 911118<br/>Área: URBANO<br/>Altura: 6 m · DAP: 50 cm<br/>Dist. BT/MT/AT: 300/300/0 cm<br/>Equipe: Enecol Centro · 24/07/2026, 17:31:48<br/><a href="https://raw.githubusercontent.com/LGRSV/vera-vegetacao/main/fotos/Enecol-Centro/VER20260724173149836156248F1.jpg">Foto</a>]]></description><Point><coordinates>-48.516645,-8.8398767,0</coordinates></Point></Placemark>
<Placemark><name>V20260724173354282465426 — Cajueiro</name><description><![CDATA[Espécie: Cajueiro<br/>Poste: 911118<br/>Área: URBANO<br/>Altura: 6.5 m · DAP: 50 cm<br/>Dist. BT/MT/AT: 300/300/0 cm<br/>Equipe: Enecol Centro · 24/07/2026, 17:33:53<br/><a href="https://raw.githubusercontent.com/LGRSV/vera-vegetacao/main/fotos/Enecol-Centro/VER20260724173354282465426F1.jpg">Foto</a>]]></description><Point><coordinates>-48.5166467,-8.8399183,0</coordinates></Point></Placemark>
<Placemark><name>V20260724173449978200966 — Cajueiro</name><description><![CDATA[Espécie: Cajueiro<br/>Poste: 911118<br/>Área: URBANO<br/>Altura: 5.5 m · DAP: 50 cm<br/>Dist. BT/MT/AT: 300/300/0 cm<br/>Equipe: Enecol Centro · 24/07/2026, 17:34:49<br/><a href="https://raw.githubusercontent.com/LGRSV/vera-vegetacao/main/fotos/Enecol-Centro/VER20260724173449978200966F1.jpg">Foto</a>]]></description><Point><coordinates>-48.5167367,-8.8398933,0</coordinates></Point></Placemark>
<Placemark><name>V20260724173600578441979 — Cajueiro</name><description><![CDATA[Espécie: Cajueiro<br/>Poste: 911118<br/>Área: URBANO<br/>Altura:  m · DAP: 40 cm<br/>Dist. BT/MT/AT: 300/300/0 cm<br/>Equipe: Enecol Centro · 24/07/2026, 17:35:59<br/><a href="https://raw.githubusercontent.com/LGRSV/vera-vegetacao/main/fotos/Enecol-Centro/VER20260724173600578441979F1.jpg">Foto</a>]]></description><Point><coordinates>-48.5166133,-8.8398867,0</coordinates></Point></Placemark>
</Document></kml>
