<?xml version="1.0" encoding="UTF-8"?>
<kml xmlns="http://www.opengis.net/kml/2.2"><Document><name>Rota Paraíso SE 2 — pontos VERA</name>
<Placemark><name>V20260723092934731508621 — Outros</name><description><![CDATA[Espécie: Outros<br/>Poste: 42261836<br/>Área: URBANO<br/>Altura: 12 m · DAP: 145 cm<br/>Dist. BT/MT/AT: /150/0 cm<br/>Equipe: Enecol Centro · 23/07/2026, 09:29:33<br/><a href="https://raw.githubusercontent.com/LGRSV/vera-vegetacao/main/fotos/Enecol-Centro/VER20260723092934731508621F1.jpg">Foto</a>]]></description><Point><coordinates>-48.8747983,-10.213,0</coordinates></Point></Placemark>
</Document></kml>
