<?xml version="1.0" encoding="UTF-8"?>
<kml xmlns="http://www.opengis.net/kml/2.2"><Document><name>Rota Goianorte — pontos VERA</name>
<Placemark><name>V20260826143040301849252 — Oiti</name><description><![CDATA[Espécie: Oiti<br/>Poste: 934275<br/>Área: URBANO<br/>Altura: 3.5 m · DAP: 40 cm<br/>Dist. BT/MT/AT: 300/300/0 cm<br/>Equipe: Enecol Centro · 26/08/2026, 14:30:20<br/><a href="https://raw.githubusercontent.com/LGRSV/vera-vegetacao/main/fotos/Enecol-Centro/VER20260826143040301849252F1.jpg">Foto</a>]]></description><Point><coordinates>-48.92844,-8.78384,0</coordinates></Point></Placemark>
<Placemark><name>V20260826143147690394950 — Outros</name><description><![CDATA[Espécie: Outros<br/>Poste: <br/>Área: URBANO<br/>Altura: 2.5 m · DAP: 30 cm<br/>Dist. BT/MT/AT: 300/300/0 cm<br/>Equipe: Enecol Centro · 26/08/2026, 14:31:46<br/><a href="https://raw.githubusercontent.com/LGRSV/vera-vegetacao/main/fotos/Enecol-Centro/VER20260826143147690394950F1.jpg">Foto</a>]]></description><Point><coordinates>-48.9284367,-8.7837917,0</coordinates></Point></Placemark>
<Placemark><name>V20260826143250999119609 — Oiti</name><description><![CDATA[Espécie: Oiti<br/>Poste: 934593<br/>Área: URBANO<br/>Altura: 3 m · DAP: 50 cm<br/>Dist. BT/MT/AT: 300/300/0 cm<br/>Equipe: Enecol Centro · 26/08/2026, 14:32:49<br/><a href="https://raw.githubusercontent.com/LGRSV/vera-vegetacao/main/fotos/Enecol-Centro/VER20260826143250999119609F1.jpg">Foto</a>]]></description><Point><coordinates>-48.928465,-8.7837433,0</coordinates></Point></Placemark>
<Placemark><name>V20260826143331162043355 — Oiti</name><description><![CDATA[Espécie: Oiti<br/>Poste: 934275<br/>Área: URBANO<br/>Altura: 3.5 m · DAP: 40 cm<br/>Dist. BT/MT/AT: 300/300/0 cm<br/>Equipe: Enecol Centro · 26/08/2026, 14:33:30<br/><a href="https://raw.githubusercontent.com/LGRSV/vera-vegetacao/main/fotos/Enecol-Centro/VER20260826143331162043355F1.jpg">Foto</a>]]></description><Point><coordinates>-48.9284483,-8.78369,0</coordinates></Point></Placemark>
<Placemark><name>V20260826143415583692286 — Oiti</name><description><![CDATA[Espécie: Oiti<br/>Poste: 934275<br/>Área: URBANO<br/>Altura: 4 m · DAP: 50 cm<br/>Dist. BT/MT/AT: 300/300/0 cm<br/>Equipe: Enecol Centro · 26/08/2026, 14:34:14<br/><a href="https://raw.githubusercontent.com/LGRSV/vera-vegetacao/main/fotos/Enecol-Centro/VER20260826143415583692286F1.jpg">Foto</a>]]></description><Point><coordinates>-48.9284767,-8.783615,0</coordinates></Point></Placemark>
<Placemark><name>V20260826143714184385700 — Oiti</name><description><![CDATA[Espécie: Oiti<br/>Poste: 1782423<br/>Área: URBANO<br/>Altura: 4.5 m · DAP: 50 cm<br/>Dist. BT/MT/AT: 300/300/0 cm<br/>Equipe: Enecol Centro · 26/08/2026, 14:37:13<br/><a href="https://raw.githubusercontent.com/LGRSV/vera-vegetacao/main/fotos/Enecol-Centro/VER20260826143714184385700F1.jpg">Foto</a>]]></description><Point><coordinates>-48.92955,-8.782515,0</coordinates></Point></Placemark>
<Placemark><name>V20260826143909418335041 — Outros</name><description><![CDATA[Espécie: Outros<br/>Poste: 220176<br/>Área: URBANO<br/>Altura: 3 m · DAP: 40 cm<br/>Dist. BT/MT/AT: 300/300/0 cm<br/>Equipe: Enecol Centro · 26/08/2026, 14:39:08<br/><a href="https://raw.githubusercontent.com/LGRSV/vera-vegetacao/main/fotos/Enecol-Centro/VER20260826143909418335041F1.jpg">Foto</a>]]></description><Point><coordinates>-48.9295691,-8.7829542,0</coordinates></Point></Placemark>
<Placemark><name>V20260826144457369598885 — Outros</name><description><![CDATA[Espécie: Outros<br/>Poste: 949258<br/>Área: URBANO<br/>Altura: 4.5 m · DAP: 40 cm<br/>Dist. BT/MT/AT: 300/300/0 cm<br/>Equipe: Enecol Centro · 26/08/2026, 14:44:56<br/><a href="https://raw.githubusercontent.com/LGRSV/vera-vegetacao/main/fotos/Enecol-Centro/VER20260826144457369598885F1.jpg">Foto</a>]]></description><Point><coordinates>-48.92882,-8.78152,0</coordinates></Point></Placemark>
<Placemark><name>V20260826144918070041606 — Oiti</name><description><![CDATA[Espécie: Oiti<br/>Poste: 1871752<br/>Área: URBANO<br/>Altura: 3 m · DAP: 40 cm<br/>Dist. BT/MT/AT: 300/300/0 cm<br/>Equipe: Enecol Centro · 26/08/2026, 14:49:16<br/><a href="https://raw.githubusercontent.com/LGRSV/vera-vegetacao/main/fotos/Enecol-Centro/VER20260826144918070041606F1.jpg">Foto</a>]]></description><Point><coordinates>-48.9298133,-8.7784533,0</coordinates></Point></Placemark>
<Placemark><name>V20260826145009277822225 — Oiti</name><description><![CDATA[Espécie: Oiti<br/>Poste: 1871752<br/>Área: URBANO<br/>Altura: 3.5 m · DAP: 40 cm<br/>Dist. BT/MT/AT: 300/300/0 cm<br/>Equipe: Enecol Centro · 26/08/2026, 14:50:08<br/><a href="https://raw.githubusercontent.com/LGRSV/vera-vegetacao/main/fotos/Enecol-Centro/VER20260826145009277822225F1.jpg">Foto</a>]]></description><Point><coordinates>-48.9298383,-8.7783767,0</coordinates></Point></Placemark>
<Placemark><name>V20260826145059584766259 — Oiti</name><description><![CDATA[Espécie: Oiti<br/>Poste: 932520<br/>Área: URBANO<br/>Altura: 3 m · DAP: 40 cm<br/>Dist. BT/MT/AT: 300/300/0 cm<br/>Equipe: Enecol Centro · 26/08/2026, 14:50:58<br/><a href="https://raw.githubusercontent.com/LGRSV/vera-vegetacao/main/fotos/Enecol-Centro/VER20260826145059584766259F1.jpg">Foto</a>]]></description><Point><coordinates>-48.92983,-8.7783667,0</coordinates></Point></Placemark>
<Placemark><name>V20260826145146183801403 — Mangueira</name><description><![CDATA[Espécie: Mangueira<br/>Poste: 932520<br/>Área: URBANO<br/>Altura: 3 m · DAP: 45 cm<br/>Dist. BT/MT/AT: 300/300/0 cm<br/>Equipe: Enecol Centro · 26/08/2026, 14:51:45<br/><a href="https://raw.githubusercontent.com/LGRSV/vera-vegetacao/main/fotos/Enecol-Centro/VER20260826145146183801403F1.jpg">Foto</a>]]></description><Point><coordinates>-48.92982,-8.778375,0</coordinates></Point></Placemark>
<Placemark><name>V20260826145956833079864 — Outros</name><description><![CDATA[Espécie: Outros<br/>Poste: 946605<br/>Área: URBANO<br/>Altura: 14 m · DAP: 80 cm<br/>Dist. BT/MT/AT: 100/150/0 cm<br/>Equipe: Enecol Centro · 26/08/2026, 14:59:55<br/><a href="https://raw.githubusercontent.com/LGRSV/vera-vegetacao/main/fotos/Enecol-Centro/VER20260826145956833079864F1.jpg">Foto</a>]]></description><Point><coordinates>-48.9332834,-8.7764661,0</coordinates></Point></Placemark>
<Placemark><name>V20260826150054943069284 — Oiti</name><description><![CDATA[Espécie: Oiti<br/>Poste: 946605<br/>Área: URBANO<br/>Altura: 13 m · DAP: 95 cm<br/>Dist. BT/MT/AT: 300/50/0 cm<br/>Equipe: Enecol Centro · 26/08/2026, 15:00:53<br/><a href="https://raw.githubusercontent.com/LGRSV/vera-vegetacao/main/fotos/Enecol-Centro/VER20260826150054943069284F1.jpg">Foto</a>]]></description><Point><coordinates>-48.933215,-8.7764317,0</coordinates></Point></Placemark>
<Placemark><name>V20260826150204286876500 — Mogno</name><description><![CDATA[Espécie: Mogno<br/>Poste: 927149<br/>Área: URBANO<br/>Altura: 9 m · DAP: 60 cm<br/>Dist. BT/MT/AT: 50/200/0 cm<br/>Equipe: Enecol Centro · 26/08/2026, 15:02:03<br/><a href="https://raw.githubusercontent.com/LGRSV/vera-vegetacao/main/fotos/Enecol-Centro/VER20260826150204286876500F1.jpg">Foto</a>]]></description><Point><coordinates>-48.93308,-8.7763517,0</coordinates></Point></Placemark>
<Placemark><name>V20260826150250954344939 — Outros</name><description><![CDATA[Espécie: Outros<br/>Poste: 927149<br/>Área: URBANO<br/>Altura: 9 m · DAP: 100 cm<br/>Dist. BT/MT/AT: 100/150/0 cm<br/>Equipe: Enecol Centro · 26/08/2026, 15:02:49<br/><a href="https://raw.githubusercontent.com/LGRSV/vera-vegetacao/main/fotos/Enecol-Centro/VER20260826150250954344939F1.jpg">Foto</a>]]></description><Point><coordinates>-48.933085,-8.7762967,0</coordinates></Point></Placemark>
<Placemark><name>V20260826150412065060793 — Mogno</name><description><![CDATA[Espécie: Mogno<br/>Poste: 927149<br/>Área: URBANO<br/>Altura: 9 m · DAP: 60 cm<br/>Dist. BT/MT/AT: 300/200/0 cm<br/>Equipe: Enecol Centro · 26/08/2026, 15:04:11<br/><a href="https://raw.githubusercontent.com/LGRSV/vera-vegetacao/main/fotos/Enecol-Centro/VER20260826150412065060793F1.jpg">Foto</a>]]></description><Point><coordinates>-48.9330517,-8.776175,0</coordinates></Point></Placemark>
<Placemark><name>V20260826150510319425879 — Oiti</name><description><![CDATA[Espécie: Oiti<br/>Poste: 31492436<br/>Área: URBANO<br/>Altura:  m · DAP: 70 cm<br/>Dist. BT/MT/AT: 200/300/0 cm<br/>Equipe: Enecol Centro · 26/08/2026, 15:05:09<br/><a href="https://raw.githubusercontent.com/LGRSV/vera-vegetacao/main/fotos/Enecol-Centro/VER20260826150510319425879F1.jpg">Foto</a>]]></description><Point><coordinates>-48.9330683,-8.7760767,0</coordinates></Point></Placemark>
<Placemark><name>V20260826150641253030082 — Mogno</name><description><![CDATA[Espécie: Mogno<br/>Poste: 55556155<br/>Área: URBANO<br/>Altura: 9 m · DAP: 85 cm<br/>Dist. BT/MT/AT: 50/100/0 cm<br/>Equipe: Enecol Centro · 26/08/2026, 15:06:40<br/><a href="https://raw.githubusercontent.com/LGRSV/vera-vegetacao/main/fotos/Enecol-Centro/VER20260826150641253030082F1.jpg">Foto</a>]]></description><Point><coordinates>-48.93368,-8.7759467,0</coordinates></Point></Placemark>
<Placemark><name>V20260826150727931249816 — Mogno</name><description><![CDATA[Espécie: Mogno<br/>Poste: 55556155<br/>Área: URBANO<br/>Altura: 11 m · DAP: 100 cm<br/>Dist. BT/MT/AT: 300/50/0 cm<br/>Equipe: Enecol Centro · 26/08/2026, 15:07:26<br/><a href="https://raw.githubusercontent.com/LGRSV/vera-vegetacao/main/fotos/Enecol-Centro/VER20260826150727931249816F1.jpg">Foto</a>]]></description><Point><coordinates>-48.9335983,-8.77596,0</coordinates></Point></Placemark>
<Placemark><name>V20260826150855216176276 — Mangueira</name><description><![CDATA[Espécie: Mangueira<br/>Poste: 932862<br/>Área: URBANO<br/>Altura: 13 m · DAP: 130 cm<br/>Dist. BT/MT/AT: 300/200/0 cm<br/>Equipe: Enecol Centro · 26/08/2026, 15:08:54<br/><a href="https://raw.githubusercontent.com/LGRSV/vera-vegetacao/main/fotos/Enecol-Centro/VER20260826150855216176276F1.jpg">Foto</a>]]></description><Point><coordinates>-48.9338327,-8.7758823,0</coordinates></Point></Placemark>
<Placemark><name>V20260826151006234242841 — Outros</name><description><![CDATA[Espécie: Outros<br/>Poste: 55556163<br/>Área: URBANO<br/>Altura: 7 m · DAP: 70 cm<br/>Dist. BT/MT/AT: 150/300/0 cm<br/>Equipe: Enecol Centro · 26/08/2026, 15:10:05<br/><a href="https://raw.githubusercontent.com/LGRSV/vera-vegetacao/main/fotos/Enecol-Centro/VER20260826151006234242841F1.jpg">Foto</a>]]></description><Point><coordinates>-48.9341124,-8.7756136,0</coordinates></Point></Placemark>
<Placemark><name>V20260826151329164946188 — Outros</name><description><![CDATA[Espécie: Outros<br/>Poste: 934272<br/>Área: URBANO<br/>Altura: 3.5 m · DAP: 50 cm<br/>Dist. BT/MT/AT: 300/300/0 cm<br/>Equipe: Enecol Centro · 26/08/2026, 15:13:28<br/><a href="https://raw.githubusercontent.com/LGRSV/vera-vegetacao/main/fotos/Enecol-Centro/VER20260826151329164946188F1.jpg">Foto</a>]]></description><Point><coordinates>-48.9343897,-8.7752045,0</coordinates></Point></Placemark>
<Placemark><name>V20260826152011338243383 — Outros</name><description><![CDATA[Espécie: Outros<br/>Poste: 35601860<br/>Área: URBANO<br/>Altura: 7 m · DAP: 70 cm<br/>Dist. BT/MT/AT: 100/300/0 cm<br/>Equipe: Enecol Centro · 26/08/2026, 15:20:10<br/><a href="https://raw.githubusercontent.com/LGRSV/vera-vegetacao/main/fotos/Enecol-Centro/VER20260826152011338243383F1.jpg">Foto</a>]]></description><Point><coordinates>-48.9348044,-8.7751773,0</coordinates></Point></Placemark>
<Placemark><name>V20260826162050412670192 — Outros</name><description><![CDATA[Espécie: Outros<br/>Poste: 927355<br/>Área: URBANO<br/>Altura: 6 m · DAP: 50 cm<br/>Dist. BT/MT/AT: 50/300/0 cm<br/>Equipe: Enecol Centro · 26/08/2026, 16:20:49<br/><a href="https://raw.githubusercontent.com/LGRSV/vera-vegetacao/main/fotos/Enecol-Centro/VER20260826162050412670192F1.jpg">Foto</a>]]></description><Point><coordinates>-48.9344563,-8.7733631,0</coordinates></Point></Placemark>
<Placemark><name>V20260826162336029772562 — Oiti</name><description><![CDATA[Espécie: Oiti<br/>Poste: 1785234<br/>Área: URBANO<br/>Altura: 1.5 m · DAP: 20 cm<br/>Dist. BT/MT/AT: 300/300/0 cm<br/>Equipe: Enecol Centro · 26/08/2026, 16:23:35<br/><a href="https://raw.githubusercontent.com/LGRSV/vera-vegetacao/main/fotos/Enecol-Centro/VER20260826162336029772562F1.jpg">Foto</a>]]></description><Point><coordinates>-48.9349716,-8.7743251,0</coordinates></Point></Placemark>
<Placemark><name>V20260826162656098543015 — Goiabeira</name><description><![CDATA[Espécie: Goiabeira<br/>Poste: 945853<br/>Área: URBANO<br/>Altura: 7 m · DAP: 60 cm<br/>Dist. BT/MT/AT: 200/300/0 cm<br/>Equipe: Enecol Centro · 26/08/2026, 16:26:55<br/><a href="https://raw.githubusercontent.com/LGRSV/vera-vegetacao/main/fotos/Enecol-Centro/VER20260826162656098543015F1.jpg">Foto</a>]]></description><Point><coordinates>-48.9364069,-8.7717548,0</coordinates></Point></Placemark>
<Placemark><name>V20260826162741007104591 — Babaçu</name><description><![CDATA[Espécie: Babaçu<br/>Poste: 945853<br/>Área: URBANO<br/>Altura: 12 m · DAP: 60 cm<br/>Dist. BT/MT/AT: 300/300/0 cm<br/>Equipe: Enecol Centro · 26/08/2026, 16:27:40<br/><a href="https://raw.githubusercontent.com/LGRSV/vera-vegetacao/main/fotos/Enecol-Centro/VER20260826162741007104591F1.jpg">Foto</a>]]></description><Point><coordinates>-48.936352,-8.771728,0</coordinates></Point></Placemark>
<Placemark><name>V20260826163036998244744 — Mogno</name><description><![CDATA[Espécie: Mogno<br/>Poste: 1437561<br/>Área: URBANO<br/>Altura: 7 m · DAP: 60 cm<br/>Dist. BT/MT/AT: 50/300/0 cm<br/>Equipe: Enecol Centro · 26/08/2026, 16:30:35<br/><a href="https://raw.githubusercontent.com/LGRSV/vera-vegetacao/main/fotos/Enecol-Centro/VER20260826163036998244744F1.jpg">Foto</a>]]></description><Point><coordinates>-48.937829,-8.7705689,0</coordinates></Point></Placemark>
<Placemark><name>V20260826163322536383397 — Mangueira</name><description><![CDATA[Espécie: Mangueira<br/>Poste: 945859<br/>Área: URBANO<br/>Altura: 12 m · DAP: 130 cm<br/>Dist. BT/MT/AT: 300/150/0 cm<br/>Equipe: Enecol Centro · 26/08/2026, 16:33:21<br/><a href="https://raw.githubusercontent.com/LGRSV/vera-vegetacao/main/fotos/Enecol-Centro/VER20260826163322536383397F1.jpg">Foto</a>]]></description><Point><coordinates>-48.9386927,-8.7719226,0</coordinates></Point></Placemark>
<Placemark><name>V20260826163510937767290 — Mogno</name><description><![CDATA[Espécie: Mogno<br/>Poste: 1782675<br/>Área: URBANO<br/>Altura: 10 m · DAP: 75 cm<br/>Dist. BT/MT/AT: 300/150/0 cm<br/>Equipe: Enecol Centro · 26/08/2026, 16:35:09<br/><a href="https://raw.githubusercontent.com/LGRSV/vera-vegetacao/main/fotos/Enecol-Centro/VER20260826163510937767290F1.jpg">Foto</a>]]></description><Point><coordinates>-48.93905,-8.7713268,0</coordinates></Point></Placemark>
<Placemark><name>V20260826163608417711300 — Outros</name><description><![CDATA[Espécie: Outros<br/>Poste: 945337<br/>Área: URBANO<br/>Altura: 8 m · DAP: 100 cm<br/>Dist. BT/MT/AT: 300/300/0 cm<br/>Equipe: Enecol Centro · 26/08/2026, 16:36:07<br/><a href="https://raw.githubusercontent.com/LGRSV/vera-vegetacao/main/fotos/Enecol-Centro/VER20260826163608417711300F1.jpg">Foto</a>]]></description><Point><coordinates>-48.9390004,-8.7712021,0</coordinates></Point></Placemark>
<Placemark><name>V20260826163959609566322 — Outros</name><description><![CDATA[Espécie: Outros<br/>Poste: 945087<br/>Área: URBANO<br/>Altura: 5 m · DAP: 40 cm<br/>Dist. BT/MT/AT: 300/300/0 cm<br/>Equipe: Enecol Centro · 26/08/2026, 16:39:58<br/><a href="https://raw.githubusercontent.com/LGRSV/vera-vegetacao/main/fotos/Enecol-Centro/VER20260826163959609566322F1.jpg">Foto</a>]]></description><Point><coordinates>-48.9383573,-8.7700911,0</coordinates></Point></Placemark>
<Placemark><name>V20260826164044640916107 — Cajueiro</name><description><![CDATA[Espécie: Cajueiro<br/>Poste: 945624<br/>Área: URBANO<br/>Altura: 7 m · DAP: 50 cm<br/>Dist. BT/MT/AT: 300/300/0 cm<br/>Equipe: Enecol Centro · 26/08/2026, 16:40:43<br/><a href="https://raw.githubusercontent.com/LGRSV/vera-vegetacao/main/fotos/Enecol-Centro/VER20260826164044640916107F1.jpg">Foto</a>]]></description><Point><coordinates>-48.938174,-8.7700725,0</coordinates></Point></Placemark>
<Placemark><name>V20260826164126785391536 — Outros</name><description><![CDATA[Espécie: Outros<br/>Poste: 945624<br/>Área: URBANO<br/>Altura: 8.5 m · DAP: 55 cm<br/>Dist. BT/MT/AT: 300/200/0 cm<br/>Equipe: Enecol Centro · 26/08/2026, 16:41:25<br/><a href="https://raw.githubusercontent.com/LGRSV/vera-vegetacao/main/fotos/Enecol-Centro/VER20260826164126785391536F1.jpg">Foto</a>]]></description><Point><coordinates>-48.9381216,-8.769993,0</coordinates></Point></Placemark>
<Placemark><name>V20260827104928739443544 — Oiti</name><description><![CDATA[Espécie: Oiti<br/>Poste: 945623<br/>Área: URBANO<br/>Altura: 4.5 m · DAP: 50 cm<br/>Dist. BT/MT/AT: 300/300/0 cm<br/>Equipe: Enecol Centro · 27/08/2026, 10:49:27<br/><a href="https://raw.githubusercontent.com/LGRSV/vera-vegetacao/main/fotos/Enecol-Centro/VER20260827104928739443544F1.jpg">Foto</a>]]></description><Point><coordinates>-48.9381017,-8.7698517,0</coordinates></Point></Placemark>
<Placemark><name>V20260827105008428026868 — Oiti</name><description><![CDATA[Espécie: Oiti<br/>Poste: 73685099<br/>Área: URBANO<br/>Altura: 5.5 m · DAP: 70 cm<br/>Dist. BT/MT/AT: 100/300/0 cm<br/>Equipe: Enecol Centro · 27/08/2026, 10:50:07<br/><a href="https://raw.githubusercontent.com/LGRSV/vera-vegetacao/main/fotos/Enecol-Centro/VER20260827105008428026868F1.jpg">Foto</a>]]></description><Point><coordinates>-48.938035,-8.7698733,0</coordinates></Point></Placemark>
<Placemark><name>V20260827105231981198233 — Outros</name><description><![CDATA[Espécie: Outros<br/>Poste: 946119<br/>Área: URBANO<br/>Altura: 7.5 m · DAP: 50 cm<br/>Dist. BT/MT/AT: 150/300/0 cm<br/>Equipe: Enecol Centro · 27/08/2026, 10:52:31<br/><a href="https://raw.githubusercontent.com/LGRSV/vera-vegetacao/main/fotos/Enecol-Centro/VER20260827105231981198233F1.jpg">Foto</a>]]></description><Point><coordinates>-48.9373254,-8.770303,0</coordinates></Point></Placemark>
<Placemark><name>V20260827105323988901476 — Outros</name><description><![CDATA[Espécie: Outros<br/>Poste: 946115<br/>Área: URBANO<br/>Altura: 7 m · DAP: 55 cm<br/>Dist. BT/MT/AT: 300/300/0 cm<br/>Equipe: Enecol Centro · 27/08/2026, 10:53:23<br/><a href="https://raw.githubusercontent.com/LGRSV/vera-vegetacao/main/fotos/Enecol-Centro/VER20260827105323988901476F1.jpg">Foto</a>]]></description><Point><coordinates>-48.9370822,-8.770441,0</coordinates></Point></Placemark>
<Placemark><name>V20260827105418796996001 — Oiti</name><description><![CDATA[Espécie: Oiti<br/>Poste: 945850<br/>Área: URBANO<br/>Altura: 7.5 m · DAP: 60 cm<br/>Dist. BT/MT/AT: 200/300/0 cm<br/>Equipe: Enecol Centro · 27/08/2026, 10:54:17<br/><a href="https://raw.githubusercontent.com/LGRSV/vera-vegetacao/main/fotos/Enecol-Centro/VER20260827105418796996001F1.jpg">Foto</a>]]></description><Point><coordinates>-48.9369532,-8.7705324,0</coordinates></Point></Placemark>
<Placemark><name>V20260827105609366029437 — Mogno</name><description><![CDATA[Espécie: Mogno<br/>Poste: 943964<br/>Área: URBANO<br/>Altura: 6 m · DAP: 55 cm<br/>Dist. BT/MT/AT: 300/300/0 cm<br/>Equipe: Enecol Centro · 27/08/2026, 10:56:08<br/><a href="https://raw.githubusercontent.com/LGRSV/vera-vegetacao/main/fotos/Enecol-Centro/VER20260827105609366029437F1.jpg">Foto</a>]]></description><Point><coordinates>-48.9364051,-8.7709162,0</coordinates></Point></Placemark>
<Placemark><name>V20260827105742006928517 — Mangueira</name><description><![CDATA[Espécie: Mangueira<br/>Poste: 943970<br/>Área: URBANO<br/>Altura: 11 m · DAP: 130 cm<br/>Dist. BT/MT/AT: 300/150/0 cm<br/>Equipe: Enecol Centro · 27/08/2026, 10:57:41<br/><a href="https://raw.githubusercontent.com/LGRSV/vera-vegetacao/main/fotos/Enecol-Centro/VER20260827105742006928517F1.jpg">Foto</a>]]></description><Point><coordinates>-48.9348787,-8.7719586,0</coordinates></Point></Placemark>
<Placemark><name>V20260827105920791719567 — Outros</name><description><![CDATA[Espécie: Outros<br/>Poste: 1784687<br/>Área: URBANO<br/>Altura: 7.5 m · DAP: 60 cm<br/>Dist. BT/MT/AT: 50/300/0 cm<br/>Equipe: Enecol Centro · 27/08/2026, 10:59:19<br/><a href="https://raw.githubusercontent.com/LGRSV/vera-vegetacao/main/fotos/Enecol-Centro/VER20260827105920791719567F1.jpg">Foto</a>]]></description><Point><coordinates>-48.9344351,-8.7722618,0</coordinates></Point></Placemark>
<Placemark><name>V20260827110211735510230 — Outros</name><description><![CDATA[Espécie: Outros<br/>Poste: 139284<br/>Área: URBANO<br/>Altura: 1.5 m · DAP: 20 cm<br/>Dist. BT/MT/AT: 300/300/0 cm<br/>Equipe: Enecol Centro · 27/08/2026, 11:02:10<br/><a href="https://raw.githubusercontent.com/LGRSV/vera-vegetacao/main/fotos/Enecol-Centro/VER20260827110211735510230F1.jpg">Foto</a>]]></description><Point><coordinates>-48.9326845,-8.7734506,0</coordinates></Point></Placemark>
<Placemark><name>V20260827110414129847041 — Oiti</name><description><![CDATA[Espécie: Oiti<br/>Poste: 933235<br/>Área: URBANO<br/>Altura: 10 m · DAP: 70 cm<br/>Dist. BT/MT/AT: 150/100/0 cm<br/>Equipe: Enecol Centro · 27/08/2026, 11:04:13<br/><a href="https://raw.githubusercontent.com/LGRSV/vera-vegetacao/main/fotos/Enecol-Centro/VER20260827110414129847041F1.jpg">Foto</a>]]></description><Point><coordinates>-48.9318833,-8.7740433,0</coordinates></Point></Placemark>
<Placemark><name>V20260827110457012438235 — Oiti</name><description><![CDATA[Espécie: Oiti<br/>Poste: 933235<br/>Área: URBANO<br/>Altura: 10 m · DAP: 70 cm<br/>Dist. BT/MT/AT: 150/150/0 cm<br/>Equipe: Enecol Centro · 27/08/2026, 11:04:55<br/><a href="https://raw.githubusercontent.com/LGRSV/vera-vegetacao/main/fotos/Enecol-Centro/VER20260827110457012438235F1.jpg">Foto</a>]]></description><Point><coordinates>-48.932085,-8.774195,0</coordinates></Point></Placemark>
<Placemark><name>V20260827110652866941378 — Outros</name><description><![CDATA[Espécie: Outros<br/>Poste: 138826<br/>Área: URBANO<br/>Altura: 7 m · DAP: 50 cm<br/>Dist. BT/MT/AT: 150/300/0 cm<br/>Equipe: Enecol Centro · 27/08/2026, 11:06:51<br/><a href="https://raw.githubusercontent.com/LGRSV/vera-vegetacao/main/fotos/Enecol-Centro/VER20260827110652866941378F1.jpg">Foto</a>]]></description><Point><coordinates>-48.9310367,-8.7745483,0</coordinates></Point></Placemark>
<Placemark><name>V20260827110731895712125 — Outros</name><description><![CDATA[Espécie: Outros<br/>Poste: 138826<br/>Área: URBANO<br/>Altura: 3 m · DAP: 25 cm<br/>Dist. BT/MT/AT: 300/300/0 cm<br/>Equipe: Enecol Centro · 27/08/2026, 11:07:30<br/><a href="https://raw.githubusercontent.com/LGRSV/vera-vegetacao/main/fotos/Enecol-Centro/VER20260827110731895712125F1.jpg">Foto</a>]]></description><Point><coordinates>-48.9309583,-8.774625,0</coordinates></Point></Placemark>
<Placemark><name>V20260827110937461589419 — Cajueiro</name><description><![CDATA[Espécie: Cajueiro<br/>Poste: 933562<br/>Área: URBANO<br/>Altura: 7 m · DAP: 50 cm<br/>Dist. BT/MT/AT: 0/300/0 cm<br/>Equipe: Enecol Centro · 27/08/2026, 11:09:36<br/><a href="https://raw.githubusercontent.com/LGRSV/vera-vegetacao/main/fotos/Enecol-Centro/VER20260827110937461589419F1.jpg">Foto</a>]]></description><Point><coordinates>-48.9304678,-8.7748878,0</coordinates></Point></Placemark>
<Placemark><name>V20260827111035733985097 — Outros</name><description><![CDATA[Espécie: Outros<br/>Poste: 1790647<br/>Área: URBANO<br/>Altura: 2.5 m · DAP: 40 cm<br/>Dist. BT/MT/AT: 300/300/0 cm<br/>Equipe: Enecol Centro · 27/08/2026, 11:10:34<br/><a href="https://raw.githubusercontent.com/LGRSV/vera-vegetacao/main/fotos/Enecol-Centro/VER20260827111035733985097F1.jpg">Foto</a>]]></description><Point><coordinates>-48.930665,-8.7747453,0</coordinates></Point></Placemark>
<Placemark><name>V20260827111425977628193 — Mogno</name><description><![CDATA[Espécie: Mogno<br/>Poste: 27301328<br/>Área: URBANO<br/>Altura: 7 m · DAP: 50 cm<br/>Dist. BT/MT/AT: 50/250/0 cm<br/>Equipe: Enecol Centro · 27/08/2026, 11:14:24<br/><a href="https://raw.githubusercontent.com/LGRSV/vera-vegetacao/main/fotos/Enecol-Centro/VER20260827111425977628193F1.jpg">Foto</a>]]></description><Point><coordinates>-48.9323186,-8.7730353,0</coordinates></Point></Placemark>
<Placemark><name>V20260827111511846251178 — Mogno</name><description><![CDATA[Espécie: Mogno<br/>Poste: 27301328<br/>Área: URBANO<br/>Altura: 7 m · DAP: 50 cm<br/>Dist. BT/MT/AT: 50/200/0 cm<br/>Equipe: Enecol Centro · 27/08/2026, 11:15:10<br/><a href="https://raw.githubusercontent.com/LGRSV/vera-vegetacao/main/fotos/Enecol-Centro/VER20260827111511846251178F1.jpg">Foto</a>]]></description><Point><coordinates>-48.9323615,-8.7731109,0</coordinates></Point></Placemark>
<Placemark><name>V20260827111718351695777 — Mogno</name><description><![CDATA[Espécie: Mogno<br/>Poste: 525314<br/>Área: URBANO<br/>Altura: 9 m · DAP: 50 cm<br/>Dist. BT/MT/AT: 250/250/0 cm<br/>Equipe: Enecol Centro · 27/08/2026, 11:17:17<br/><a href="https://raw.githubusercontent.com/LGRSV/vera-vegetacao/main/fotos/Enecol-Centro/VER20260827111718351695777F1.jpg">Foto</a>]]></description><Point><coordinates>-48.9317098,-8.7720105,0</coordinates></Point></Placemark>
<Placemark><name>V20260827111926947917376 — Outros</name><description><![CDATA[Espécie: Outros<br/>Poste: 950837<br/>Área: URBANO<br/>Altura: 4.5 m · DAP: 40 cm<br/>Dist. BT/MT/AT: 300/300/0 cm<br/>Equipe: Enecol Centro · 27/08/2026, 11:19:26<br/><a href="https://raw.githubusercontent.com/LGRSV/vera-vegetacao/main/fotos/Enecol-Centro/VER20260827111926947917376F1.jpg">Foto</a>]]></description><Point><coordinates>-48.9313824,-8.7714809,0</coordinates></Point></Placemark>
<Placemark><name>V20260827112027409324811 — Mogno</name><description><![CDATA[Espécie: Mogno<br/>Poste: 950838<br/>Área: URBANO<br/>Altura: 6 m · DAP: 45 cm<br/>Dist. BT/MT/AT: 300/300/0 cm<br/>Equipe: Enecol Centro · 27/08/2026, 11:20:26<br/><a href="https://raw.githubusercontent.com/LGRSV/vera-vegetacao/main/fotos/Enecol-Centro/VER20260827112027409324811F1.jpg">Foto</a>]]></description><Point><coordinates>-48.9311926,-8.7711804,0</coordinates></Point></Placemark>
<Placemark><name>V20260827112105932302027 — Mogno</name><description><![CDATA[Espécie: Mogno<br/>Poste: 138825<br/>Área: URBANO<br/>Altura: 4 m · DAP: 40 cm<br/>Dist. BT/MT/AT: 300/300/0 cm<br/>Equipe: Enecol Centro · 27/08/2026, 11:21:04<br/><a href="https://raw.githubusercontent.com/LGRSV/vera-vegetacao/main/fotos/Enecol-Centro/VER20260827112105932302027F1.jpg">Foto</a>]]></description><Point><coordinates>-48.9311825,-8.7711308,0</coordinates></Point></Placemark>
<Placemark><name>V20260827112435795807013 — Goiabeira</name><description><![CDATA[Espécie: Goiabeira<br/>Poste: 28233209<br/>Área: URBANO<br/>Altura: 6.5 m · DAP: 60 cm<br/>Dist. BT/MT/AT: 100/300/0 cm<br/>Equipe: Enecol Centro · 27/08/2026, 11:24:34<br/><a href="https://raw.githubusercontent.com/LGRSV/vera-vegetacao/main/fotos/Enecol-Centro/VER20260827112435795807013F1.jpg">Foto</a>]]></description><Point><coordinates>-48.9324953,-8.7698425,0</coordinates></Point></Placemark>
<Placemark><name>V20260827112711932134042 — Oiti</name><description><![CDATA[Espécie: Oiti<br/>Poste: 28233165<br/>Área: URBANO<br/>Altura: 9.5 m · DAP: 60 cm<br/>Dist. BT/MT/AT: 50/100/0 cm<br/>Equipe: Enecol Centro · 27/08/2026, 11:27:10<br/><a href="https://raw.githubusercontent.com/LGRSV/vera-vegetacao/main/fotos/Enecol-Centro/VER20260827112711932134042F1.jpg">Foto</a>]]></description><Point><coordinates>-48.932352,-8.7692923,0</coordinates></Point></Placemark>
<Placemark><name>V20260827112801264697087 — Outros</name><description><![CDATA[Espécie: Outros<br/>Poste: 28233165<br/>Área: URBANO<br/>Altura: 2 m · DAP: 25 cm<br/>Dist. BT/MT/AT: 300/300/0 cm<br/>Equipe: Enecol Centro · 27/08/2026, 11:28:00<br/><a href="https://raw.githubusercontent.com/LGRSV/vera-vegetacao/main/fotos/Enecol-Centro/VER20260827112801264697087F1.jpg">Foto</a>]]></description><Point><coordinates>-48.9324285,-8.7694928,0</coordinates></Point></Placemark>
<Placemark><name>V20260827140229371056204 — Pequi</name><description><![CDATA[Espécie: Pequi<br/>Poste: 28233739<br/>Área: URBANO<br/>Altura: 11 m · DAP: 120 cm<br/>Dist. BT/MT/AT: 200/50/0 cm<br/>Equipe: Enecol Centro · 27/08/2026, 14:02:28<br/><a href="https://raw.githubusercontent.com/LGRSV/vera-vegetacao/main/fotos/Enecol-Centro/VER20260827140229371056204F1.jpg">Foto</a>]]></description><Point><coordinates>-48.937835,-8.7671933,0</coordinates></Point></Placemark>
<Placemark><name>V20260827140549477062057 — Oiti</name><description><![CDATA[Espécie: Oiti<br/>Poste: 945849<br/>Área: URBANO<br/>Altura: 5.5 m · DAP: 55 cm<br/>Dist. BT/MT/AT: 300/300/0 cm<br/>Equipe: Enecol Centro · 27/08/2026, 14:05:48<br/><a href="https://raw.githubusercontent.com/LGRSV/vera-vegetacao/main/fotos/Enecol-Centro/VER20260827140549477062057F1.jpg">Foto</a>]]></description><Point><coordinates>-48.9369326,-8.7680993,0</coordinates></Point></Placemark>
<Placemark><name>V20260827140636880410139 — Oiti</name><description><![CDATA[Espécie: Oiti<br/>Poste: 945851<br/>Área: URBANO<br/>Altura: 8 m · DAP: 65 cm<br/>Dist. BT/MT/AT: 300/300/0 cm<br/>Equipe: Enecol Centro · 27/08/2026, 14:06:35<br/><a href="https://raw.githubusercontent.com/LGRSV/vera-vegetacao/main/fotos/Enecol-Centro/VER20260827140636880410139F1.jpg">Foto</a>]]></description><Point><coordinates>-48.9368205,-8.7681614,0</coordinates></Point></Placemark>
<Placemark><name>V20260827140724159716579 — Outros</name><description><![CDATA[Espécie: Outros<br/>Poste: 945848<br/>Área: URBANO<br/>Altura: 2 m · DAP: 50 cm<br/>Dist. BT/MT/AT: 300/300/0 cm<br/>Equipe: Enecol Centro · 27/08/2026, 14:07:23<br/><a href="https://raw.githubusercontent.com/LGRSV/vera-vegetacao/main/fotos/Enecol-Centro/VER20260827140724159716579F1.jpg">Foto</a>]]></description><Point><coordinates>-48.9366724,-8.7682688,0</coordinates></Point></Placemark>
<Placemark><name>V20260827140903244456647 — Outros</name><description><![CDATA[Espécie: Outros<br/>Poste: 945324<br/>Área: URBANO<br/>Altura: 7 m · DAP: 120 cm<br/>Dist. BT/MT/AT: 300/300/0 cm<br/>Equipe: Enecol Centro · 27/08/2026, 14:09:02<br/><a href="https://raw.githubusercontent.com/LGRSV/vera-vegetacao/main/fotos/Enecol-Centro/VER20260827140903244456647F1.jpg">Foto</a>]]></description><Point><coordinates>-48.9360408,-8.7687121,0</coordinates></Point></Placemark>
<Placemark><name>V20260827140951224005552 — Mangueira</name><description><![CDATA[Espécie: Mangueira<br/>Poste: 1782729<br/>Área: URBANO<br/>Altura: 8 m · DAP: 115 cm<br/>Dist. BT/MT/AT: 300/150/0 cm<br/>Equipe: Enecol Centro · 27/08/2026, 14:09:50<br/><a href="https://raw.githubusercontent.com/LGRSV/vera-vegetacao/main/fotos/Enecol-Centro/VER20260827140951224005552F1.jpg">Foto</a>]]></description><Point><coordinates>-48.9359496,-8.7688066,0</coordinates></Point></Placemark>
<Placemark><name>V20260827141135650793062 — Outros</name><description><![CDATA[Espécie: Outros<br/>Poste: <br/>Área: URBANO<br/>Altura: 7.5 m · DAP: 50 cm<br/>Dist. BT/MT/AT: 300/300/0 cm<br/>Equipe: Enecol Centro · 27/08/2026, 14:11:34<br/><a href="https://raw.githubusercontent.com/LGRSV/vera-vegetacao/main/fotos/Enecol-Centro/VER20260827141135650793062F1.jpg">Foto</a>]]></description><Point><coordinates>-48.9352361,-8.7693508,0</coordinates></Point></Placemark>
</Document></kml>
