<?xml version="1.0" encoding="UTF-8"?>
<kml xmlns="http://www.opengis.net/kml/2.2"><Document><name>Rota Bom Jesus do Tocantins — pontos VERA</name>
<Placemark><name>V20260820105019148402027 — Mangueira</name><description><![CDATA[Espécie: Mangueira<br/>Poste: 963561<br/>Área: URBANO<br/>Altura: 16 m · DAP:  cm<br/>Dist. BT/MT/AT: 300/100/0 cm<br/>Equipe: Enecol Centro · 20/08/2026, 10:50:18<br/><a href="https://raw.githubusercontent.com/LGRSV/vera-vegetacao/main/fotos/Enecol-Centro/VER20260820105019148402027F1.jpg">Foto</a>]]></description><Point><coordinates>-48.166989,-8.9671178,0</coordinates></Point></Placemark>
<Placemark><name>V20260820105137893125058 — Coqueiro</name><description><![CDATA[Espécie: Coqueiro<br/>Poste: 136128<br/>Área: URBANO<br/>Altura: 1 m · DAP: 25 cm<br/>Dist. BT/MT/AT: 300/300/0 cm<br/>Equipe: Enecol Centro · 20/08/2026, 10:51:36<br/><a href="https://raw.githubusercontent.com/LGRSV/vera-vegetacao/main/fotos/Enecol-Centro/VER20260820105137893125058F1.jpg">Foto</a>]]></description><Point><coordinates>-48.166758,-8.9669258,0</coordinates></Point></Placemark>
<Placemark><name>V20260820105236035986796 — Coqueiro</name><description><![CDATA[Espécie: Coqueiro<br/>Poste: 136128<br/>Área: URBANO<br/>Altura: 2 m · DAP: 30 cm<br/>Dist. BT/MT/AT: 300/300/0 cm<br/>Equipe: Enecol Centro · 20/08/2026, 10:52:35<br/><a href="https://raw.githubusercontent.com/LGRSV/vera-vegetacao/main/fotos/Enecol-Centro/VER20260820105236035986796F1.jpg">Foto</a>]]></description><Point><coordinates>-48.166697,-8.9668662,0</coordinates></Point></Placemark>
</Document></kml>
