<?xml version="1.0" encoding="UTF-8"?>
<kml xmlns="http://www.opengis.net/kml/2.2"><Document><name>SE Paraíso I — pontos VERA</name>
<Placemark><name>V20260714090231959507904 — Outros</name><description><![CDATA[Espécie: Outros<br/>Poste: 1105694<br/>Área: URBANO<br/>Altura: 7 m · DAP: 50 cm<br/>Dist. BT/MT/AT: 50/300/0 cm<br/>Equipe: Enecol Centro · 14/07/2026, 09:02:30<br/><a href="https://raw.githubusercontent.com/LGRSV/vera-vegetacao/main/fotos/Enecol-Centro/VER20260714090231959507904F1.jpg">Foto</a>]]></description><Point><coordinates>-48.9201847,-10.1973348,0</coordinates></Point></Placemark>
</Document></kml>
