<?xml version="1.0" encoding="UTF-8"?>
<kml xmlns="http://www.opengis.net/kml/2.2"><Document><name>Rota Itacajá — pontos VERA</name>
<Placemark><name>V20260902075956764593127 — Outros</name><description><![CDATA[Espécie: Outros<br/>Poste: 1250356<br/>Área: URBANO<br/>Altura: 12 m · DAP: 70 cm<br/>Dist. BT/MT/AT: 300/50/0 cm<br/>Equipe: Enecol Centro · 01/09/2026, 13:42:28<br/><a href="https://raw.githubusercontent.com/LGRSV/vera-vegetacao/main/fotos/Enecol-Centro/VER20260902075956764593127F1.jpg">Foto</a>]]></description><Point><coordinates>-47.7727783,-8.3974368,0</coordinates></Point></Placemark>
<Placemark><name>V20260902080031168354178 — Oiti</name><description><![CDATA[Espécie: Oiti<br/>Poste: 844331<br/>Área: URBANO<br/>Altura: 8 m · DAP: 60 cm<br/>Dist. BT/MT/AT: 50/300/0 cm<br/>Equipe: Enecol Centro · 01/09/2026, 13:45:46<br/><a href="https://raw.githubusercontent.com/LGRSV/vera-vegetacao/main/fotos/Enecol-Centro/VER20260902080031168354178F1.jpg">Foto</a>]]></description><Point><coordinates>-47.77247,-8.396865,0</coordinates></Point></Placemark>
<Placemark><name>V20260902080105019809861 — Oiti</name><description><![CDATA[Espécie: Oiti<br/>Poste: 844330<br/>Área: URBANO<br/>Altura: 5 m · DAP: 55 cm<br/>Dist. BT/MT/AT: 50/300/0 cm<br/>Equipe: Enecol Centro · 01/09/2026, 13:47:07<br/><a href="https://raw.githubusercontent.com/LGRSV/vera-vegetacao/main/fotos/Enecol-Centro/VER20260902080105019809861F1.jpg">Foto</a>]]></description><Point><coordinates>-47.772305,-8.3964467,0</coordinates></Point></Placemark>
<Placemark><name>V20260902083904092675394 — Oiti</name><description><![CDATA[Espécie: Oiti<br/>Poste: 844326<br/>Área: URBANO<br/>Altura: 7 m · DAP: 65 cm<br/>Dist. BT/MT/AT: 200/300/0 cm<br/>Equipe: Enecol Centro · 01/09/2026, 13:57:02<br/><a href="https://raw.githubusercontent.com/LGRSV/vera-vegetacao/main/fotos/Enecol-Centro/VER20260902083904092675394F1.jpg">Foto</a>]]></description><Point><coordinates>-47.7717983,-8.3954267,0</coordinates></Point></Placemark>
<Placemark><name>V20260902083935456450064 — Oiti</name><description><![CDATA[Espécie: Oiti<br/>Poste: 844326<br/>Área: URBANO<br/>Altura: 5.5 m · DAP: 70 cm<br/>Dist. BT/MT/AT: 300/300/0 cm<br/>Equipe: Enecol Centro · 01/09/2026, 13:57:53<br/><a href="https://raw.githubusercontent.com/LGRSV/vera-vegetacao/main/fotos/Enecol-Centro/VER20260902083935456450064F1.jpg">Foto</a>]]></description><Point><coordinates>-47.7718267,-8.3955583,0</coordinates></Point></Placemark>
<Placemark><name>V20260902084005921654151 — Oiti</name><description><![CDATA[Espécie: Oiti<br/>Poste: 844326<br/>Área: URBANO<br/>Altura: 5.5 m · DAP: 55 cm<br/>Dist. BT/MT/AT: 300/300/0 cm<br/>Equipe: Enecol Centro · 01/09/2026, 13:58:40<br/><a href="https://raw.githubusercontent.com/LGRSV/vera-vegetacao/main/fotos/Enecol-Centro/VER20260902084005921654151F1.jpg">Foto</a>]]></description><Point><coordinates>-47.7718583,-8.3955917,0</coordinates></Point></Placemark>
<Placemark><name>V20260902084100619328587 — Oiti</name><description><![CDATA[Espécie: Oiti<br/>Poste: 844327<br/>Área: URBANO<br/>Altura: 5 m · DAP: 60 cm<br/>Dist. BT/MT/AT: 300/300/0 cm<br/>Equipe: Enecol Centro · 01/09/2026, 14:01:55<br/><a href="https://raw.githubusercontent.com/LGRSV/vera-vegetacao/main/fotos/Enecol-Centro/VER20260902084100619328587F1.jpg">Foto</a>]]></description><Point><coordinates>-47.7716597,-8.3951404,0</coordinates></Point></Placemark>
<Placemark><name>V20260902084108141166779 — Oiti</name><description><![CDATA[Espécie: Oiti<br/>Poste: 844327<br/>Área: URBANO<br/>Altura: 5.5 m · DAP: 55 cm<br/>Dist. BT/MT/AT: 300/300/0 cm<br/>Equipe: Enecol Centro · 01/09/2026, 14:02:40<br/><a href="https://raw.githubusercontent.com/LGRSV/vera-vegetacao/main/fotos/Enecol-Centro/VER20260902084108141166779F1.jpg">Foto</a>]]></description><Point><coordinates>-47.7716154,-8.3950792,0</coordinates></Point></Placemark>
<Placemark><name>V20260902084118381510639 — Oiti</name><description><![CDATA[Espécie: Oiti<br/>Poste: 844327<br/>Área: URBANO<br/>Altura: 4.5 m · DAP: 70 cm<br/>Dist. BT/MT/AT: 300/300/0 cm<br/>Equipe: Enecol Centro · 01/09/2026, 14:03:24<br/><a href="https://raw.githubusercontent.com/LGRSV/vera-vegetacao/main/fotos/Enecol-Centro/VER20260902084118381510639F1.jpg">Foto</a>]]></description><Point><coordinates>-47.7715844,-8.3950664,0</coordinates></Point></Placemark>
<Placemark><name>V20260902084125656603368 — Oiti</name><description><![CDATA[Espécie: Oiti<br/>Poste: 844328<br/>Área: URBANO<br/>Altura: 6.5 m · DAP: 70 cm<br/>Dist. BT/MT/AT: 200/300/0 cm<br/>Equipe: Enecol Centro · 01/09/2026, 14:04:22<br/><a href="https://raw.githubusercontent.com/LGRSV/vera-vegetacao/main/fotos/Enecol-Centro/VER20260902084125656603368F1.jpg">Foto</a>]]></description><Point><coordinates>-47.7715601,-8.3949317,0</coordinates></Point></Placemark>
<Placemark><name>V20260902084132511711009 — Oiti</name><description><![CDATA[Espécie: Oiti<br/>Poste: 844328<br/>Área: URBANO<br/>Altura: 3.5 m · DAP: 50 cm<br/>Dist. BT/MT/AT: 300/300/0 cm<br/>Equipe: Enecol Centro · 01/09/2026, 14:05:09<br/><a href="https://raw.githubusercontent.com/LGRSV/vera-vegetacao/main/fotos/Enecol-Centro/VER20260902084132511711009F1.jpg">Foto</a>]]></description><Point><coordinates>-47.7714959,-8.3948457,0</coordinates></Point></Placemark>
<Placemark><name>V20260902084144601386202 — Oiti</name><description><![CDATA[Espécie: Oiti<br/>Poste: 844328<br/>Área: URBANO<br/>Altura: 3.5 m · DAP: 50 cm<br/>Dist. BT/MT/AT: 300/300/0 cm<br/>Equipe: Enecol Centro · 01/09/2026, 14:05:59<br/><a href="https://raw.githubusercontent.com/LGRSV/vera-vegetacao/main/fotos/Enecol-Centro/VER20260902084144601386202F1.jpg">Foto</a>]]></description><Point><coordinates>-47.7714439,-8.3947845,0</coordinates></Point></Placemark>
<Placemark><name>V20260902084154133688675 — Oiti</name><description><![CDATA[Espécie: Oiti<br/>Poste: 844328<br/>Área: URBANO<br/>Altura: 5 m · DAP: 65 cm<br/>Dist. BT/MT/AT: 300/300/0 cm<br/>Equipe: Enecol Centro · 01/09/2026, 14:06:52<br/><a href="https://raw.githubusercontent.com/LGRSV/vera-vegetacao/main/fotos/Enecol-Centro/VER20260902084154133688675F1.jpg">Foto</a>]]></description><Point><coordinates>-47.7714465,-8.3947659,0</coordinates></Point></Placemark>
<Placemark><name>V20260902084202306044823 — Mogno</name><description><![CDATA[Espécie: Mogno<br/>Poste: 137665<br/>Área: URBANO<br/>Altura: 3.5 m · DAP: 60 cm<br/>Dist. BT/MT/AT: 300/300/0 cm<br/>Equipe: Enecol Centro · 01/09/2026, 14:07:46<br/><a href="https://raw.githubusercontent.com/LGRSV/vera-vegetacao/main/fotos/Enecol-Centro/VER20260902084202306044823F1.jpg">Foto</a>]]></description><Point><coordinates>-47.771415,-8.3946617,0</coordinates></Point></Placemark>
<Placemark><name>V20260902084209230732470 — Outros</name><description><![CDATA[Espécie: Outros<br/>Poste: 28675524<br/>Área: URBANO<br/>Altura: 3 m · DAP: 50 cm<br/>Dist. BT/MT/AT: 300/300/0 cm<br/>Equipe: Enecol Centro · 01/09/2026, 14:09:52<br/><a href="https://raw.githubusercontent.com/LGRSV/vera-vegetacao/main/fotos/Enecol-Centro/VER20260902084209230732470F1.jpg">Foto</a>]]></description><Point><coordinates>-47.7711967,-8.394175,0</coordinates></Point></Placemark>
<Placemark><name>V20260902084320960404486 — Oiti</name><description><![CDATA[Espécie: Oiti<br/>Poste: 844330<br/>Área: URBANO<br/>Altura: 5 m · DAP: 70 cm<br/>Dist. BT/MT/AT: 50/300/0 cm<br/>Equipe: Enecol Centro · 01/09/2026, 13:47:57<br/><a href="https://raw.githubusercontent.com/LGRSV/vera-vegetacao/main/fotos/Enecol-Centro/VER20260902084320960404486F1.jpg">Foto</a>]]></description><Point><coordinates>-47.7722783,-8.39639,0</coordinates></Point></Placemark>
<Placemark><name>V20260902084330117218575 — Oiti</name><description><![CDATA[Espécie: Oiti<br/>Poste: 1251650<br/>Área: URBANO<br/>Altura: 4.5 m · DAP: 50 cm<br/>Dist. BT/MT/AT: 300/300/0 cm<br/>Equipe: Enecol Centro · 01/09/2026, 14:11:20<br/><a href="https://raw.githubusercontent.com/LGRSV/vera-vegetacao/main/fotos/Enecol-Centro/VER20260902084330117218575F1.jpg">Foto</a>]]></description><Point><coordinates>-47.77094,-8.3937267,0</coordinates></Point></Placemark>
<Placemark><name>V20260902084341640680459 — Oiti</name><description><![CDATA[Espécie: Oiti<br/>Poste: 843890<br/>Área: URBANO<br/>Altura: 3.5 m · DAP: 50 cm<br/>Dist. BT/MT/AT: 300/300/0 cm<br/>Equipe: Enecol Centro · 01/09/2026, 14:15:20<br/><a href="https://raw.githubusercontent.com/LGRSV/vera-vegetacao/main/fotos/Enecol-Centro/VER20260902084341640680459F1.jpg">Foto</a>]]></description><Point><coordinates>-47.7701751,-8.3921863,0</coordinates></Point></Placemark>
<Placemark><name>V20260902084352543794903 — Mogno</name><description><![CDATA[Espécie: Mogno<br/>Poste: 843891<br/>Área: URBANO<br/>Altura: 9 m · DAP: 140 cm<br/>Dist. BT/MT/AT: 50/300/0 cm<br/>Equipe: Enecol Centro · 01/09/2026, 14:16:42<br/><a href="https://raw.githubusercontent.com/LGRSV/vera-vegetacao/main/fotos/Enecol-Centro/VER20260902084352543794903F1.jpg">Foto</a>]]></description><Point><coordinates>-47.7700334,-8.3918522,0</coordinates></Point></Placemark>
<Placemark><name>V20260902084359407997623 — Oiti</name><description><![CDATA[Espécie: Oiti<br/>Poste: 843541<br/>Área: URBANO<br/>Altura: 5 m · DAP: 50 cm<br/>Dist. BT/MT/AT: 300/300/0 cm<br/>Equipe: Enecol Centro · 01/09/2026, 14:21:51<br/><a href="https://raw.githubusercontent.com/LGRSV/vera-vegetacao/main/fotos/Enecol-Centro/VER20260902084359407997623F1.jpg">Foto</a>]]></description><Point><coordinates>-47.7690677,-8.3896381,0</coordinates></Point></Placemark>
<Placemark><name>V20260902084403362109365 — Oiti</name><description><![CDATA[Espécie: Oiti<br/>Poste: 137666<br/>Área: URBANO<br/>Altura: 4 m · DAP: 55 cm<br/>Dist. BT/MT/AT: 200/300/0 cm<br/>Equipe: Enecol Centro · 01/09/2026, 14:25:48<br/><a href="https://raw.githubusercontent.com/LGRSV/vera-vegetacao/main/fotos/Enecol-Centro/VER20260902084403362109365F1.jpg">Foto</a>]]></description><Point><coordinates>-47.769625,-8.39113,0</coordinates></Point></Placemark>
<Placemark><name>V20260902084413200677931 — Oiti</name><description><![CDATA[Espécie: Oiti<br/>Poste: 843893<br/>Área: URBANO<br/>Altura: 4 m · DAP: 55 cm<br/>Dist. BT/MT/AT: 200/300/0 cm<br/>Equipe: Enecol Centro · 01/09/2026, 14:26:30<br/><a href="https://raw.githubusercontent.com/LGRSV/vera-vegetacao/main/fotos/Enecol-Centro/VER20260902084413200677931F1.jpg">Foto</a>]]></description><Point><coordinates>-47.7696033,-8.39109,0</coordinates></Point></Placemark>
<Placemark><name>V20260902084421490092331 — Oiti</name><description><![CDATA[Espécie: Oiti<br/>Poste: 843893<br/>Área: URBANO<br/>Altura: 4.5 m · DAP: 55 cm<br/>Dist. BT/MT/AT: 200/300/0 cm<br/>Equipe: Enecol Centro · 01/09/2026, 14:27:14<br/><a href="https://raw.githubusercontent.com/LGRSV/vera-vegetacao/main/fotos/Enecol-Centro/VER20260902084421490092331F1.jpg">Foto</a>]]></description><Point><coordinates>-47.7696067,-8.3910167,0</coordinates></Point></Placemark>
<Placemark><name>V20260902084433471515713 — Oiti</name><description><![CDATA[Espécie: Oiti<br/>Poste: 843893<br/>Área: URBANO<br/>Altura: 4.5 m · DAP: 60 cm<br/>Dist. BT/MT/AT: 200/300/0 cm<br/>Equipe: Enecol Centro · 01/09/2026, 14:27:54<br/><a href="https://raw.githubusercontent.com/LGRSV/vera-vegetacao/main/fotos/Enecol-Centro/VER20260902084433471515713F1.jpg">Foto</a>]]></description><Point><coordinates>-47.7695667,-8.3909867,0</coordinates></Point></Placemark>
<Placemark><name>V20260902084443952675488 — Oiti</name><description><![CDATA[Espécie: Oiti<br/>Poste: 843893<br/>Área: URBANO<br/>Altura: 5 m · DAP: 55 cm<br/>Dist. BT/MT/AT: 200/300/0 cm<br/>Equipe: Enecol Centro · 01/09/2026, 14:28:37<br/><a href="https://raw.githubusercontent.com/LGRSV/vera-vegetacao/main/fotos/Enecol-Centro/VER20260902084443952675488F1.jpg">Foto</a>]]></description><Point><coordinates>-47.7694983,-8.3909767,0</coordinates></Point></Placemark>
<Placemark><name>V20260902084451297387058 — Outros</name><description><![CDATA[Espécie: Outros<br/>Poste: 843893<br/>Área: URBANO<br/>Altura: 2 m · DAP: 20 cm<br/>Dist. BT/MT/AT: 300/300/0 cm<br/>Equipe: Enecol Centro · 01/09/2026, 14:29:21<br/><a href="https://raw.githubusercontent.com/LGRSV/vera-vegetacao/main/fotos/Enecol-Centro/VER20260902084451297387058F1.jpg">Foto</a>]]></description><Point><coordinates>-47.7695,-8.3908667,0</coordinates></Point></Placemark>
<Placemark><name>V20260902084503773740198 — Oiti</name><description><![CDATA[Espécie: Oiti<br/>Poste: 843893<br/>Área: URBANO<br/>Altura: 3 m · DAP: 50 cm<br/>Dist. BT/MT/AT: 300/300/0 cm<br/>Equipe: Enecol Centro · 01/09/2026, 14:30:01<br/><a href="https://raw.githubusercontent.com/LGRSV/vera-vegetacao/main/fotos/Enecol-Centro/VER20260902084503773740198F1.jpg">Foto</a>]]></description><Point><coordinates>-47.7694867,-8.39081,0</coordinates></Point></Placemark>
<Placemark><name>V20260902084513266484222 — Oiti</name><description><![CDATA[Espécie: Oiti<br/>Poste: 843536<br/>Área: URBANO<br/>Altura: 5 m · DAP: 70 cm<br/>Dist. BT/MT/AT: 300/300/0 cm<br/>Equipe: Enecol Centro · 01/09/2026, 14:31:46<br/><a href="https://raw.githubusercontent.com/LGRSV/vera-vegetacao/main/fotos/Enecol-Centro/VER20260902084513266484222F1.jpg">Foto</a>]]></description><Point><coordinates>-47.7693183,-8.3904667,0</coordinates></Point></Placemark>
<Placemark><name>V20260902084523392842340 — Oiti</name><description><![CDATA[Espécie: Oiti<br/>Poste: 843536<br/>Área: URBANO<br/>Altura: 5 m · DAP: 55 cm<br/>Dist. BT/MT/AT: 300/300/0 cm<br/>Equipe: Enecol Centro · 01/09/2026, 14:32:33<br/><a href="https://raw.githubusercontent.com/LGRSV/vera-vegetacao/main/fotos/Enecol-Centro/VER20260902084523392842340F1.jpg">Foto</a>]]></description><Point><coordinates>-47.7692683,-8.390375,0</coordinates></Point></Placemark>
<Placemark><name>V20260902084534979115980 — Oiti</name><description><![CDATA[Espécie: Oiti<br/>Poste: 843536<br/>Área: URBANO<br/>Altura: 5.5 m · DAP: 55 cm<br/>Dist. BT/MT/AT: 300/300/0 cm<br/>Equipe: Enecol Centro · 01/09/2026, 14:33:48<br/><a href="https://raw.githubusercontent.com/LGRSV/vera-vegetacao/main/fotos/Enecol-Centro/VER20260902084534979115980F1.jpg">Foto</a>]]></description><Point><coordinates>-47.7692667,-8.3903433,0</coordinates></Point></Placemark>
<Placemark><name>V20260902084544806886068 — Oiti</name><description><![CDATA[Espécie: Oiti<br/>Poste: 137670<br/>Área: URBANO<br/>Altura: 5.5 m · DAP: 70 cm<br/>Dist. BT/MT/AT: 300/300/0 cm<br/>Equipe: Enecol Centro · 01/09/2026, 14:34:52<br/><a href="https://raw.githubusercontent.com/LGRSV/vera-vegetacao/main/fotos/Enecol-Centro/VER20260902084544806886068F1.jpg">Foto</a>]]></description><Point><coordinates>-47.7692483,-8.3902967,0</coordinates></Point></Placemark>
<Placemark><name>V20260902084552722009306 — Oiti</name><description><![CDATA[Espécie: Oiti<br/>Poste: 843540<br/>Área: URBANO<br/>Altura: 5 m · DAP: 65 cm<br/>Dist. BT/MT/AT: 300/300/0 cm<br/>Equipe: Enecol Centro · 01/09/2026, 14:36:25<br/><a href="https://raw.githubusercontent.com/LGRSV/vera-vegetacao/main/fotos/Enecol-Centro/VER20260902084552722009306F1.jpg">Foto</a>]]></description><Point><coordinates>-47.7690517,-8.3900033,0</coordinates></Point></Placemark>
<Placemark><name>V20260902084602113697274 — Oiti</name><description><![CDATA[Espécie: Oiti<br/>Poste: 843540<br/>Área: URBANO<br/>Altura: 6.5 m · DAP: 65 cm<br/>Dist. BT/MT/AT: 200/300/0 cm<br/>Equipe: Enecol Centro · 01/09/2026, 14:37:12<br/><a href="https://raw.githubusercontent.com/LGRSV/vera-vegetacao/main/fotos/Enecol-Centro/VER20260902084602113697274F1.jpg">Foto</a>]]></description><Point><coordinates>-47.7690567,-8.3899683,0</coordinates></Point></Placemark>
<Placemark><name>V20260902084613391194374 — Oiti</name><description><![CDATA[Espécie: Oiti<br/>Poste: 843540<br/>Área: URBANO<br/>Altura: 5.5 m · DAP: 70 cm<br/>Dist. BT/MT/AT: 250/300/0 cm<br/>Equipe: Enecol Centro · 01/09/2026, 14:38:20<br/><a href="https://raw.githubusercontent.com/LGRSV/vera-vegetacao/main/fotos/Enecol-Centro/VER20260902084613391194374F1.jpg">Foto</a>]]></description><Point><coordinates>-47.76897,-8.389755,0</coordinates></Point></Placemark>
<Placemark><name>V20260902084620745544674 — Oiti</name><description><![CDATA[Espécie: Oiti<br/>Poste: 843541<br/>Área: URBANO<br/>Altura: 5.5 m · DAP: 55 cm<br/>Dist. BT/MT/AT: 300/300/0 cm<br/>Equipe: Enecol Centro · 01/09/2026, 14:39:21<br/><a href="https://raw.githubusercontent.com/LGRSV/vera-vegetacao/main/fotos/Enecol-Centro/VER20260902084620745544674F1.jpg">Foto</a>]]></description><Point><coordinates>-47.7689317,-8.389625,0</coordinates></Point></Placemark>
<Placemark><name>V20260902084627529707999 — Outros</name><description><![CDATA[Espécie: Outros<br/>Poste: 841590<br/>Área: URBANO<br/>Altura: 8.5 m · DAP: 50 cm<br/>Dist. BT/MT/AT: 250/250/0 cm<br/>Equipe: Enecol Centro · 01/09/2026, 14:42:11<br/><a href="https://raw.githubusercontent.com/LGRSV/vera-vegetacao/main/fotos/Enecol-Centro/VER20260902084627529707999F1.jpg">Foto</a>]]></description><Point><coordinates>-47.7684335,-8.3899545,0</coordinates></Point></Placemark>
<Placemark><name>V20260902084640130178245 — Oiti</name><description><![CDATA[Espécie: Oiti<br/>Poste: 841590<br/>Área: URBANO<br/>Altura: 8 m · DAP: 55 cm<br/>Dist. BT/MT/AT: 50/250/0 cm<br/>Equipe: Enecol Centro · 01/09/2026, 14:43:17<br/><a href="https://raw.githubusercontent.com/LGRSV/vera-vegetacao/main/fotos/Enecol-Centro/VER20260902084640130178245F1.jpg">Foto</a>]]></description><Point><coordinates>-47.768355,-8.3899967,0</coordinates></Point></Placemark>
<Placemark><name>V20260902084651987312935 — Oiti</name><description><![CDATA[Espécie: Oiti<br/>Poste: 843538<br/>Área: URBANO<br/>Altura: 8.5 m · DAP: 50 cm<br/>Dist. BT/MT/AT: 50/200/0 cm<br/>Equipe: Enecol Centro · 01/09/2026, 14:44:01<br/><a href="https://raw.githubusercontent.com/LGRSV/vera-vegetacao/main/fotos/Enecol-Centro/VER20260902084651987312935F1.jpg">Foto</a>]]></description><Point><coordinates>-47.7683333,-8.3900117,0</coordinates></Point></Placemark>
<Placemark><name>V20260902084707048786200 — Oiti</name><description><![CDATA[Espécie: Oiti<br/>Poste: 843538<br/>Área: URBANO<br/>Altura: 8 m · DAP: 55 cm<br/>Dist. BT/MT/AT: 50/300/0 cm<br/>Equipe: Enecol Centro · 01/09/2026, 14:45:05<br/><a href="https://raw.githubusercontent.com/LGRSV/vera-vegetacao/main/fotos/Enecol-Centro/VER20260902084707048786200F1.jpg">Foto</a>]]></description><Point><coordinates>-47.76821,-8.39005,0</coordinates></Point></Placemark>
<Placemark><name>V20260902084714742519304 — Oiti</name><description><![CDATA[Espécie: Oiti<br/>Poste: 843538<br/>Área: URBANO<br/>Altura: 9.5 m · DAP: 65 cm<br/>Dist. BT/MT/AT: 100/250/0 cm<br/>Equipe: Enecol Centro · 01/09/2026, 14:45:52<br/><a href="https://raw.githubusercontent.com/LGRSV/vera-vegetacao/main/fotos/Enecol-Centro/VER20260902084714742519304F1.jpg">Foto</a>]]></description><Point><coordinates>-47.7682033,-8.3900917,0</coordinates></Point></Placemark>
<Placemark><name>V20260902084719993599304 — Oiti</name><description><![CDATA[Espécie: Oiti<br/>Poste: 843538<br/>Área: URBANO<br/>Altura: 5 m · DAP: 65 cm<br/>Dist. BT/MT/AT: 300/300/0 cm<br/>Equipe: Enecol Centro · 01/09/2026, 14:46:56<br/><a href="https://raw.githubusercontent.com/LGRSV/vera-vegetacao/main/fotos/Enecol-Centro/VER20260902084719993599304F1.jpg">Foto</a>]]></description><Point><coordinates>-47.7682233,-8.3902383,0</coordinates></Point></Placemark>
<Placemark><name>V20260902084731304173666 — Oiti</name><description><![CDATA[Espécie: Oiti<br/>Poste: 840222<br/>Área: URBANO<br/>Altura: 9 m · DAP: 55 cm<br/>Dist. BT/MT/AT: 0/50/0 cm<br/>Equipe: Enecol Centro · 01/09/2026, 15:01:29<br/><a href="https://raw.githubusercontent.com/LGRSV/vera-vegetacao/main/fotos/Enecol-Centro/VER20260902084731304173666F1.jpg">Foto</a>]]></description><Point><coordinates>-47.7699474,-8.3891054,0</coordinates></Point></Placemark>
<Placemark><name>V20260902084735610042528 — Oiti</name><description><![CDATA[Espécie: Oiti<br/>Poste: 840222<br/>Área: URBANO<br/>Altura: 9.5 m · DAP: 65 cm<br/>Dist. BT/MT/AT: 0/250/0 cm<br/>Equipe: Enecol Centro · 01/09/2026, 15:02:31<br/><a href="https://raw.githubusercontent.com/LGRSV/vera-vegetacao/main/fotos/Enecol-Centro/VER20260902084735610042528F1.jpg">Foto</a>]]></description><Point><coordinates>-47.7699917,-8.3892333,0</coordinates></Point></Placemark>
<Placemark><name>V20260902084744565097449 — Oiti</name><description><![CDATA[Espécie: Oiti<br/>Poste: 839889<br/>Área: URBANO<br/>Altura: 8.5 m · DAP: 65 cm<br/>Dist. BT/MT/AT: 0/100/0 cm<br/>Equipe: Enecol Centro · 01/09/2026, 15:03:22<br/><a href="https://raw.githubusercontent.com/LGRSV/vera-vegetacao/main/fotos/Enecol-Centro/VER20260902084744565097449F1.jpg">Foto</a>]]></description><Point><coordinates>-47.7699933,-8.3893083,0</coordinates></Point></Placemark>
<Placemark><name>V20260902084756609722931 — Cajueiro</name><description><![CDATA[Espécie: Cajueiro<br/>Poste: 839888<br/>Área: URBANO<br/>Altura: 9.5 m · DAP: 55 cm<br/>Dist. BT/MT/AT: 0/100/0 cm<br/>Equipe: Enecol Centro · 01/09/2026, 15:04:41<br/><a href="https://raw.githubusercontent.com/LGRSV/vera-vegetacao/main/fotos/Enecol-Centro/VER20260902084756609722931F1.jpg">Foto</a>]]></description><Point><coordinates>-47.7701933,-8.38914,0</coordinates></Point></Placemark>
<Placemark><name>V20260902084804397042672 — Oiti</name><description><![CDATA[Espécie: Oiti<br/>Poste: 288723<br/>Área: URBANO<br/>Altura: 7.5 m · DAP: 75 cm<br/>Dist. BT/MT/AT: 50/300/0 cm<br/>Equipe: Enecol Centro · 01/09/2026, 15:09:26<br/><a href="https://raw.githubusercontent.com/LGRSV/vera-vegetacao/main/fotos/Enecol-Centro/VER20260902084804397042672F1.jpg">Foto</a>]]></description><Point><coordinates>-47.77227,-8.3885667,0</coordinates></Point></Placemark>
<Placemark><name>V20260902084811565069969 — Outros</name><description><![CDATA[Espécie: Outros<br/>Poste: 841951<br/>Área: URBANO<br/>Altura: 7.5 m · DAP: 50 cm<br/>Dist. BT/MT/AT: 200/300/0 cm<br/>Equipe: Enecol Centro · 01/09/2026, 15:11:15<br/><a href="https://raw.githubusercontent.com/LGRSV/vera-vegetacao/main/fotos/Enecol-Centro/VER20260902084811565069969F1.jpg">Foto</a>]]></description><Point><coordinates>-47.7728167,-8.389595,0</coordinates></Point></Placemark>
<Placemark><name>V20260902084818725937350 — Mangueira</name><description><![CDATA[Espécie: Mangueira<br/>Poste: 842274<br/>Área: URBANO<br/>Altura: 14 m · DAP: 120 cm<br/>Dist. BT/MT/AT: 300/100/0 cm<br/>Equipe: Enecol Centro · 01/09/2026, 15:23:32<br/><a href="https://raw.githubusercontent.com/LGRSV/vera-vegetacao/main/fotos/Enecol-Centro/VER20260902084818725937350F1.jpg">Foto</a>]]></description><Point><coordinates>-47.7733483,-8.3907483,0</coordinates></Point></Placemark>
<Placemark><name>V20260902084828190207263 — Oiti</name><description><![CDATA[Espécie: Oiti<br/>Poste: 1741627<br/>Área: URBANO<br/>Altura: 8.5 m · DAP: 60 cm<br/>Dist. BT/MT/AT: 100/150/0 cm<br/>Equipe: Enecol Centro · 01/09/2026, 15:26:11<br/><a href="https://raw.githubusercontent.com/LGRSV/vera-vegetacao/main/fotos/Enecol-Centro/VER20260902084828190207263F1.jpg">Foto</a>]]></description><Point><coordinates>-47.7724643,-8.3908518,0</coordinates></Point></Placemark>
<Placemark><name>V20260902084842416673919 — Cajueiro</name><description><![CDATA[Espécie: Cajueiro<br/>Poste: 137671<br/>Área: URBANO<br/>Altura: 5.5 m · DAP: 40 cm<br/>Dist. BT/MT/AT: 300/300/0 cm<br/>Equipe: Enecol Centro · 01/09/2026, 15:34:16<br/><a href="https://raw.githubusercontent.com/LGRSV/vera-vegetacao/main/fotos/Enecol-Centro/VER20260902084842416673919F1.jpg">Foto</a>]]></description><Point><coordinates>-47.7768101,-8.3955352,0</coordinates></Point></Placemark>
<Placemark><name>V20260902084851762427641 — Mogno</name><description><![CDATA[Espécie: Mogno<br/>Poste: 842343<br/>Área: URBANO<br/>Altura: 7.5 m · DAP: 65 cm<br/>Dist. BT/MT/AT: 300/300/0 cm<br/>Equipe: Enecol Centro · 01/09/2026, 15:35:40<br/><a href="https://raw.githubusercontent.com/LGRSV/vera-vegetacao/main/fotos/Enecol-Centro/VER20260902084851762427641F1.jpg">Foto</a>]]></description><Point><coordinates>-47.776228,-8.3955236,0</coordinates></Point></Placemark>
<Placemark><name>V20260902084906650952101 — Mangueira</name><description><![CDATA[Espécie: Mangueira<br/>Poste: 842343<br/>Área: URBANO<br/>Altura: 12 m · DAP: 140 cm<br/>Dist. BT/MT/AT: 300/100/0 cm<br/>Equipe: Enecol Centro · 01/09/2026, 15:36:58<br/><a href="https://raw.githubusercontent.com/LGRSV/vera-vegetacao/main/fotos/Enecol-Centro/VER20260902084906650952101F1.jpg">Foto</a>]]></description><Point><coordinates>-47.7760797,-8.3955346,0</coordinates></Point></Placemark>
<Placemark><name>V20260902084916886185534 — Mogno</name><description><![CDATA[Espécie: Mogno<br/>Poste: 839973<br/>Área: URBANO<br/>Altura: 8 m · DAP: 70 cm<br/>Dist. BT/MT/AT: 250/300/0 cm<br/>Equipe: Enecol Centro · 01/09/2026, 15:38:15<br/><a href="https://raw.githubusercontent.com/LGRSV/vera-vegetacao/main/fotos/Enecol-Centro/VER20260902084916886185534F1.jpg">Foto</a>]]></description><Point><coordinates>-47.7756274,-8.3955345,0</coordinates></Point></Placemark>
<Placemark><name>V20260902084925672778135 — Oiti</name><description><![CDATA[Espécie: Oiti<br/>Poste: 839969<br/>Área: URBANO<br/>Altura: 10 m · DAP: 90 cm<br/>Dist. BT/MT/AT: 300/300/0 cm<br/>Equipe: Enecol Centro · 01/09/2026, 15:45:59<br/><a href="https://raw.githubusercontent.com/LGRSV/vera-vegetacao/main/fotos/Enecol-Centro/VER20260902084925672778135F1.jpg">Foto</a>]]></description><Point><coordinates>-47.7751812,-8.3958922,0</coordinates></Point></Placemark>
<Placemark><name>V20260902084933004418167 — Oiti</name><description><![CDATA[Espécie: Oiti<br/>Poste: 839969<br/>Área: URBANO<br/>Altura: 7 m · DAP: 70 cm<br/>Dist. BT/MT/AT: 150/300/0 cm<br/>Equipe: Enecol Centro · 01/09/2026, 15:46:42<br/><a href="https://raw.githubusercontent.com/LGRSV/vera-vegetacao/main/fotos/Enecol-Centro/VER20260902084933004418167F1.jpg">Foto</a>]]></description><Point><coordinates>-47.7751696,-8.395853,0</coordinates></Point></Placemark>
<Placemark><name>V20260902084942286776396 — Oiti</name><description><![CDATA[Espécie: Oiti<br/>Poste: 839969<br/>Área: URBANO<br/>Altura: 7.5 m · DAP: 75 cm<br/>Dist. BT/MT/AT: 100/250/0 cm<br/>Equipe: Enecol Centro · 01/09/2026, 15:47:28<br/><a href="https://raw.githubusercontent.com/LGRSV/vera-vegetacao/main/fotos/Enecol-Centro/VER20260902084942286776396F1.jpg">Foto</a>]]></description><Point><coordinates>-47.775175,-8.3957983,0</coordinates></Point></Placemark>
<Placemark><name>V20260902084954202935275 — Oiti</name><description><![CDATA[Espécie: Oiti<br/>Poste: 839973<br/>Área: URBANO<br/>Altura: 8 m · DAP: 75 cm<br/>Dist. BT/MT/AT: 200/300/0 cm<br/>Equipe: Enecol Centro · 01/09/2026, 15:48:23<br/><a href="https://raw.githubusercontent.com/LGRSV/vera-vegetacao/main/fotos/Enecol-Centro/VER20260902084954202935275F1.jpg">Foto</a>]]></description><Point><coordinates>-47.7751467,-8.395655,0</coordinates></Point></Placemark>
<Placemark><name>V20260902085009950298809 — Oiti</name><description><![CDATA[Espécie: Oiti<br/>Poste: 839971<br/>Área: URBANO<br/>Altura: 3 m · DAP: 40 cm<br/>Dist. BT/MT/AT: 300/300/0 cm<br/>Equipe: Enecol Centro · 01/09/2026, 15:49:08<br/><a href="https://raw.githubusercontent.com/LGRSV/vera-vegetacao/main/fotos/Enecol-Centro/VER20260902085009950298809F1.jpg">Foto</a>]]></description><Point><coordinates>-47.77513,-8.3955717,0</coordinates></Point></Placemark>
<Placemark><name>V20260902085017510913605 — Oiti</name><description><![CDATA[Espécie: Oiti<br/>Poste: 839971<br/>Área: URBANO<br/>Altura: 5 m · DAP: 65 cm<br/>Dist. BT/MT/AT: 300/300/0 cm<br/>Equipe: Enecol Centro · 01/09/2026, 15:50:01<br/><a href="https://raw.githubusercontent.com/LGRSV/vera-vegetacao/main/fotos/Enecol-Centro/VER20260902085017510913605F1.jpg">Foto</a>]]></description><Point><coordinates>-47.774985,-8.3955767,0</coordinates></Point></Placemark>
<Placemark><name>V20260902085025207823034 — Outros</name><description><![CDATA[Espécie: Outros<br/>Poste: 839972<br/>Área: URBANO<br/>Altura: 8.5 m · DAP: 50 cm<br/>Dist. BT/MT/AT: 150/300/0 cm<br/>Equipe: Enecol Centro · 01/09/2026, 15:50:49<br/><a href="https://raw.githubusercontent.com/LGRSV/vera-vegetacao/main/fotos/Enecol-Centro/VER20260902085025207823034F1.jpg">Foto</a>]]></description><Point><coordinates>-47.7748833,-8.3955583,0</coordinates></Point></Placemark>
<Placemark><name>V20260902085033430735437 — Outros</name><description><![CDATA[Espécie: Outros<br/>Poste: 135404<br/>Área: URBANO<br/>Altura: 4 m · DAP: 55 cm<br/>Dist. BT/MT/AT: 300/300/0 cm<br/>Equipe: Enecol Centro · 01/09/2026, 15:53:23<br/><a href="https://raw.githubusercontent.com/LGRSV/vera-vegetacao/main/fotos/Enecol-Centro/VER20260902085033430735437F1.jpg">Foto</a>]]></description><Point><coordinates>-47.7747194,-8.3948367,0</coordinates></Point></Placemark>
<Placemark><name>V20260902085043030603015 — Oiti</name><description><![CDATA[Espécie: Oiti<br/>Poste: 840638<br/>Área: URBANO<br/>Altura: 3.5 m · DAP: 55 cm<br/>Dist. BT/MT/AT: 300/300/0 cm<br/>Equipe: Enecol Centro · 01/09/2026, 15:54:32<br/><a href="https://raw.githubusercontent.com/LGRSV/vera-vegetacao/main/fotos/Enecol-Centro/VER20260902085043030603015F1.jpg">Foto</a>]]></description><Point><coordinates>-47.7746866,-8.3951626,0</coordinates></Point></Placemark>
<Placemark><name>V20260902085112113616747 — Mogno</name><description><![CDATA[Espécie: Mogno<br/>Poste: 843965<br/>Área: URBANO<br/>Altura: 6.5 m · DAP: 60 cm<br/>Dist. BT/MT/AT: 50/300/0 cm<br/>Equipe: Enecol Centro · 01/09/2026, 15:59:33<br/><a href="https://raw.githubusercontent.com/LGRSV/vera-vegetacao/main/fotos/Enecol-Centro/VER20260902085112113616747F1.jpg">Foto</a>]]></description><Point><coordinates>-47.7699694,-8.3959445,0</coordinates></Point></Placemark>
<Placemark><name>V20260902085115812601003 — Mogno</name><description><![CDATA[Espécie: Mogno<br/>Poste: 843965<br/>Área: URBANO<br/>Altura: 6.5 m · DAP: 70 cm<br/>Dist. BT/MT/AT: 50/300/0 cm<br/>Equipe: Enecol Centro · 01/09/2026, 16:00:15<br/><a href="https://raw.githubusercontent.com/LGRSV/vera-vegetacao/main/fotos/Enecol-Centro/VER20260902085115812601003F1.jpg">Foto</a>]]></description><Point><coordinates>-47.7699562,-8.3960474,0</coordinates></Point></Placemark>
<Placemark><name>V20260902085123710284432 — Mogno</name><description><![CDATA[Espécie: Mogno<br/>Poste: 843964<br/>Área: URBANO<br/>Altura: 4.5 m · DAP: 65 cm<br/>Dist. BT/MT/AT: 300/300/0 cm<br/>Equipe: Enecol Centro · 01/09/2026, 16:01:49<br/><a href="https://raw.githubusercontent.com/LGRSV/vera-vegetacao/main/fotos/Enecol-Centro/VER20260902085123710284432F1.jpg">Foto</a>]]></description><Point><coordinates>-47.76993,-8.3963733,0</coordinates></Point></Placemark>
<Placemark><name>V20260902085134525719085 — Mogno</name><description><![CDATA[Espécie: Mogno<br/>Poste: 140310<br/>Área: URBANO<br/>Altura: 4 m · DAP: 50 cm<br/>Dist. BT/MT/AT: 300/300/0 cm<br/>Equipe: Enecol Centro · 01/09/2026, 16:05:18<br/><a href="https://raw.githubusercontent.com/LGRSV/vera-vegetacao/main/fotos/Enecol-Centro/VER20260902085134525719085F1.jpg">Foto</a>]]></description><Point><coordinates>-47.767336,-8.3978568,0</coordinates></Point></Placemark>
<Placemark><name>V20260902085143882544132 — Oiti</name><description><![CDATA[Espécie: Oiti<br/>Poste: 140310<br/>Área: URBANO<br/>Altura: 4.5 m · DAP: 50 cm<br/>Dist. BT/MT/AT: 300/300/0 cm<br/>Equipe: Enecol Centro · 01/09/2026, 16:06:05<br/><a href="https://raw.githubusercontent.com/LGRSV/vera-vegetacao/main/fotos/Enecol-Centro/VER20260902085143882544132F1.jpg">Foto</a>]]></description><Point><coordinates>-47.7671586,-8.3979199,0</coordinates></Point></Placemark>
<Placemark><name>V20260902085150878264825 — Oiti</name><description><![CDATA[Espécie: Oiti<br/>Poste: 842031<br/>Área: URBANO<br/>Altura: 5.5 m · DAP: 45 cm<br/>Dist. BT/MT/AT: 100/300/0 cm<br/>Equipe: Enecol Centro · 01/09/2026, 16:07:05<br/><a href="https://raw.githubusercontent.com/LGRSV/vera-vegetacao/main/fotos/Enecol-Centro/VER20260902085150878264825F1.jpg">Foto</a>]]></description><Point><coordinates>-47.7668914,-8.3979723,0</coordinates></Point></Placemark>
<Placemark><name>V20260902085158602845407 — Mangueira</name><description><![CDATA[Espécie: Mangueira<br/>Poste: 140348<br/>Área: URBANO<br/>Altura: 9.5 m · DAP: 75 cm<br/>Dist. BT/MT/AT: 0/100/0 cm<br/>Equipe: Enecol Centro · 01/09/2026, 16:09:06<br/><a href="https://raw.githubusercontent.com/LGRSV/vera-vegetacao/main/fotos/Enecol-Centro/VER20260902085158602845407F1.jpg">Foto</a>]]></description><Point><coordinates>-47.7665302,-8.3974374,0</coordinates></Point></Placemark>
<Placemark><name>V20260902085205617862836 — Outros</name><description><![CDATA[Espécie: Outros<br/>Poste: 140348<br/>Área: URBANO<br/>Altura: 14 m · DAP: 125 cm<br/>Dist. BT/MT/AT: 300/50/0 cm<br/>Equipe: Enecol Centro · 01/09/2026, 16:09:56<br/><a href="https://raw.githubusercontent.com/LGRSV/vera-vegetacao/main/fotos/Enecol-Centro/VER20260902085205617862836F1.jpg">Foto</a>]]></description><Point><coordinates>-47.7664917,-8.39743,0</coordinates></Point></Placemark>
</Document></kml>
