<?xml version="1.0" encoding="UTF-8"?>
<kml xmlns="http://www.opengis.net/kml/2.2"><Document><name>Rota Colméia — pontos VERA</name>
<Placemark><name>V20260813111120194739372 — Oiti</name><description><![CDATA[Espécie: Oiti<br/>Poste: 1299742<br/>Área: URBANO<br/>Altura: 5 m · DAP:  cm<br/>Dist. BT/MT/AT: 200/300/0 cm<br/>Equipe: Enecol Centro · 13/08/2026, 11:11:19<br/><a href="https://raw.githubusercontent.com/LGRSV/vera-vegetacao/main/fotos/Enecol-Centro/VER20260813111120194739372F1.jpg">Foto</a>]]></description><Point><coordinates>-48.7488804,-8.7459858,0</coordinates></Point></Placemark>
<Placemark><name>V20260813111231183133560 — Oiti</name><description><![CDATA[Espécie: Oiti<br/>Poste: 1299742<br/>Área: URBANO<br/>Altura: 5 m · DAP: 60 cm<br/>Dist. BT/MT/AT: 200/300/0 cm<br/>Equipe: Enecol Centro · 13/08/2026, 11:12:30<br/><a href="https://raw.githubusercontent.com/LGRSV/vera-vegetacao/main/fotos/Enecol-Centro/VER20260813111231183133560F1.jpg">Foto</a>]]></description><Point><coordinates>-48.7489,-8.7459433,0</coordinates></Point></Placemark>
<Placemark><name>V20260813111635098284391 — Mogno</name><description><![CDATA[Espécie: Mogno<br/>Poste: 1299743<br/>Área: URBANO<br/>Altura:  m · DAP: 50 cm<br/>Dist. BT/MT/AT: 300/300/0 cm<br/>Equipe: Enecol Centro · 13/08/2026, 11:16:34<br/><a href="https://raw.githubusercontent.com/LGRSV/vera-vegetacao/main/fotos/Enecol-Centro/VER20260813111635098284391F1.jpg">Foto</a>]]></description><Point><coordinates>-48.7482179,-8.7457701,0</coordinates></Point></Placemark>
<Placemark><name>V20260813111724302324861 — Mogno</name><description><![CDATA[Espécie: Mogno<br/>Poste: 1299743<br/>Área: URBANO<br/>Altura: 6 m · DAP: 45 cm<br/>Dist. BT/MT/AT: 300/300/0 cm<br/>Equipe: Enecol Centro · 13/08/2026, 11:17:23<br/><a href="https://raw.githubusercontent.com/LGRSV/vera-vegetacao/main/fotos/Enecol-Centro/VER20260813111724302324861F1.jpg">Foto</a>]]></description><Point><coordinates>-48.7481428,-8.7457193,0</coordinates></Point></Placemark>
<Placemark><name>V20260813111819507199649 — Cajueiro</name><description><![CDATA[Espécie: Cajueiro<br/>Poste: 1299741<br/>Área: URBANO<br/>Altura: 6 m · DAP: 60 cm<br/>Dist. BT/MT/AT: 300/300/ cm<br/>Equipe: Enecol Centro · 13/08/2026, 11:18:18<br/><a href="https://raw.githubusercontent.com/LGRSV/vera-vegetacao/main/fotos/Enecol-Centro/VER20260813111819507199649F1.jpg">Foto</a>]]></description><Point><coordinates>-48.7480662,-8.7457196,0</coordinates></Point></Placemark>
<Placemark><name>V20260813111937773452218 — Mangueira</name><description><![CDATA[Espécie: Mangueira<br/>Poste: 1299741<br/>Área: URBANO<br/>Altura: 8 m · DAP: 60 cm<br/>Dist. BT/MT/AT: 50/300/0 cm<br/>Equipe: Enecol Centro · 13/08/2026, 11:19:36<br/><a href="https://raw.githubusercontent.com/LGRSV/vera-vegetacao/main/fotos/Enecol-Centro/VER20260813111937773452218F1.jpg">Foto</a>]]></description><Point><coordinates>-48.7477322,-8.7456244,0</coordinates></Point></Placemark>
</Document></kml>
