<?xml version="1.0" encoding="UTF-8"?>
<kml xmlns="http://www.opengis.net/kml/2.2"><Document><name>Rota Miranorte — pontos VERA</name>
<Placemark><name>V20260916143209827814075 — Outros</name><description><![CDATA[Espécie: Outros<br/>Poste: 298903<br/>Área: URBANO<br/>Altura: 8.5 m · DAP: 175 cm<br/>Dist. BT/MT/AT: 0/50/0 cm<br/>Equipe: Enecol Centro · 16/09/2026, 14:32:08<br/><a href="https://raw.githubusercontent.com/LGRSV/vera-vegetacao/main/fotos/Enecol-Centro/VER20260916143209827814075F1.jpg">Foto</a>]]></description><Point><coordinates>-48.585435,-9.5332683,0</coordinates></Point></Placemark>
<Placemark><name>V20260916143842712765842 — Outros</name><description><![CDATA[Espécie: Outros<br/>Poste: 28314869<br/>Área: URBANO<br/>Altura: 7 m · DAP: 120 cm<br/>Dist. BT/MT/AT: 50/300/0 cm<br/>Equipe: Enecol Centro · 16/09/2026, 14:38:41<br/><a href="https://raw.githubusercontent.com/LGRSV/vera-vegetacao/main/fotos/Enecol-Centro/VER20260916143842712765842F1.jpg">Foto</a>]]></description><Point><coordinates>-48.5867567,-9.53281,0</coordinates></Point></Placemark>
<Placemark><name>V20260916144116984783593 — Coqueiro</name><description><![CDATA[Espécie: Coqueiro<br/>Poste: 136603<br/>Área: URBANO<br/>Altura: 6 m · DAP: 55 cm<br/>Dist. BT/MT/AT: 100/300/0 cm<br/>Equipe: Enecol Centro · 16/09/2026, 14:41:16<br/><a href="https://raw.githubusercontent.com/LGRSV/vera-vegetacao/main/fotos/Enecol-Centro/VER20260916144116984783593F1.jpg">Foto</a>]]></description><Point><coordinates>-48.5870017,-9.5327617,0</coordinates></Point></Placemark>
<Placemark><name>V20260916144531080683396 — Mangueira</name><description><![CDATA[Espécie: Mangueira<br/>Poste: 1239998<br/>Área: URBANO<br/>Altura: 9 m · DAP: 200 cm<br/>Dist. BT/MT/AT: /300/0 cm<br/>Equipe: Enecol Centro · 16/09/2026, 14:45:30<br/><a href="https://raw.githubusercontent.com/LGRSV/vera-vegetacao/main/fotos/Enecol-Centro/VER20260916144531080683396F1.jpg">Foto</a>]]></description><Point><coordinates>-48.5918083,-9.5316483,0</coordinates></Point></Placemark>
<Placemark><name>V20260916145624535419650 — Outros</name><description><![CDATA[Espécie: Outros<br/>Poste: 1454876<br/>Área: URBANO<br/>Altura: 13.5 m · DAP: 190 cm<br/>Dist. BT/MT/AT: /250/0 cm<br/>Equipe: Enecol Centro · 16/09/2026, 14:56:23<br/><a href="https://raw.githubusercontent.com/LGRSV/vera-vegetacao/main/fotos/Enecol-Centro/VER20260916145624535419650F1.jpg">Foto</a>]]></description><Point><coordinates>-48.5999183,-9.5510717,0</coordinates></Point></Placemark>
<Placemark><name>V20260916145812084573599 — Outros</name><description><![CDATA[Espécie: Outros<br/>Poste: 1454876<br/>Área: URBANO<br/>Altura: 13.5 m · DAP: 175 cm<br/>Dist. BT/MT/AT: /300/0 cm<br/>Equipe: Enecol Centro · 16/09/2026, 14:57:32<br/><a href="https://raw.githubusercontent.com/LGRSV/vera-vegetacao/main/fotos/Enecol-Centro/VER20260916145812084573599F1.jpg">Foto</a>]]></description><Point><coordinates>-48.59974,-9.550755,0</coordinates></Point></Placemark>
<Placemark><name>V20260916150219496321210 — Taboca</name><description><![CDATA[Espécie: Taboca<br/>Poste: 1216434<br/>Área: URBANO<br/>Altura: 6.5 m · DAP: 55 cm<br/>Dist. BT/MT/AT: 150/300/0 cm<br/>Equipe: Enecol Centro · 16/09/2026, 15:00:46<br/><a href="https://raw.githubusercontent.com/LGRSV/vera-vegetacao/main/fotos/Enecol-Centro/VER20260916150219496321210F1.jpg">Foto</a>]]></description><Point><coordinates>-48.5982867,-9.5484683,0</coordinates></Point></Placemark>
<Placemark><name>V20260916150306146266233 — Outros</name><description><![CDATA[Espécie: Outros<br/>Poste: 1350471<br/>Área: URBANO<br/>Altura: 6 m · DAP: 30 cm<br/>Dist. BT/MT/AT: 50/300/0 cm<br/>Equipe: Enecol Centro · 16/09/2026, 15:03:03<br/><a href="https://raw.githubusercontent.com/LGRSV/vera-vegetacao/main/fotos/Enecol-Centro/VER20260916150306146266233F1.jpg">Foto</a>]]></description><Point><coordinates>-48.597715,-9.5476467,0</coordinates></Point></Placemark>
<Placemark><name>V20260916150530999317918 — Outros</name><description><![CDATA[Espécie: Outros<br/>Poste: 144264<br/>Área: URBANO<br/>Altura: 8 m · DAP: 120 cm<br/>Dist. BT/MT/AT: /50/0 cm<br/>Equipe: Enecol Centro · 16/09/2026, 15:05:30<br/><a href="https://raw.githubusercontent.com/LGRSV/vera-vegetacao/main/fotos/Enecol-Centro/VER20260916150530999317918F1.jpg">Foto</a>]]></description><Point><coordinates>-48.5968633,-9.5463717,0</coordinates></Point></Placemark>
<Placemark><name>V20260916150811090115659 — Outros</name><description><![CDATA[Espécie: Outros<br/>Poste: 1299086<br/>Área: URBANO<br/>Altura: 8.5 m · DAP: 70 cm<br/>Dist. BT/MT/AT: /0/0 cm<br/>Equipe: Enecol Centro · 16/09/2026, 15:08:10<br/><a href="https://raw.githubusercontent.com/LGRSV/vera-vegetacao/main/fotos/Enecol-Centro/VER20260916150811090115659F1.jpg">Foto</a>]]></description><Point><coordinates>-48.5961917,-9.5453967,0</coordinates></Point></Placemark>
<Placemark><name>V20260916150949696463886 — Mangueira</name><description><![CDATA[Espécie: Mangueira<br/>Poste: 1478960<br/>Área: URBANO<br/>Altura: 13.5 m · DAP: 200 cm<br/>Dist. BT/MT/AT: /100/0 cm<br/>Equipe: Enecol Centro · 16/09/2026, 15:09:48<br/><a href="https://raw.githubusercontent.com/LGRSV/vera-vegetacao/main/fotos/Enecol-Centro/VER20260916150949696463886F1.jpg">Foto</a>]]></description><Point><coordinates>-48.596095,-9.54525,0</coordinates></Point></Placemark>
<Placemark><name>V20260916151424604933402 — Outros</name><description><![CDATA[Espécie: Outros<br/>Poste: 46302546<br/>Área: URBANO<br/>Altura: 10 m · DAP: 105 cm<br/>Dist. BT/MT/AT: /0/0 cm<br/>Equipe: Enecol Centro · 16/09/2026, 15:14:23<br/><a href="https://raw.githubusercontent.com/LGRSV/vera-vegetacao/main/fotos/Enecol-Centro/VER20260916151424604933402F1.jpg">Foto</a>]]></description><Point><coordinates>-48.5954367,-9.5444367,0</coordinates></Point></Placemark>
<Placemark><name>V20260916151822684459623 — Outros</name><description><![CDATA[Espécie: Outros<br/>Poste: 1437852<br/>Área: URBANO<br/>Altura: 7 m · DAP: 125 cm<br/>Dist. BT/MT/AT: 50/300/0 cm<br/>Equipe: Enecol Centro · 16/09/2026, 15:18:21<br/><a href="https://raw.githubusercontent.com/LGRSV/vera-vegetacao/main/fotos/Enecol-Centro/VER20260916151822684459623F1.jpg">Foto</a>]]></description><Point><coordinates>-48.59471,-9.54284,0</coordinates></Point></Placemark>
</Document></kml>
