<?xml version="1.0" encoding="UTF-8"?>
<kml xmlns="http://www.opengis.net/kml/2.2"><Document>
<name>SE-2PDA — Bom Jesus do Tocantins: perimetro urbano + T1/T2</name>
<Style id="stLim"><LineStyle><color>ff00d6ff</color><width>3</width></LineStyle><PolyStyle><fill>0</fill></PolyStyle></Style>
<Style id="stPoste"><IconStyle><scale>0.5</scale><color>ffff0000</color><Icon><href>http://maps.google.com/mapfiles/kml/paddle/wht-circle.png</href></Icon></IconStyle><LabelStyle><scale>0</scale></LabelStyle></Style>
<Style id="stChave"><IconStyle><scale>0.7</scale><Icon><href>http://maps.google.com/mapfiles/kml/paddle/red-circle.png</href></Icon></IconStyle></Style>
<Style id="stTr"><LineStyle><color>ff808040</color><width>2.4</width></LineStyle></Style>
<Folder><name>Limite municipal — Bom Jesus do Tocantins (IBGE 1703305)</name>
<Placemark><styleUrl>#stLim</styleUrl><LineString><tessellate>1</tessellate><coordinates>-48.178600,-8.955000,0 -48.176300,-8.958600,0 -48.172800,-8.964500,0 -48.170600,-8.967300,0 -48.168800,-8.968500,0 -48.164600,-8.973200,0 -48.163800,-8.974600,0 -48.162800,-8.977600,0 -48.160200,-8.982400,0 -48.157100,-8.984500,0 -48.154400,-8.984900,0 -48.149400,-8.983600,0 -48.147400,-8.983400,0 -48.145600,-8.983800,0 -48.142700,-8.985800,0 -48.141600,-8.987400,0 -48.140300,-8.990600,0 -48.139200,-8.996200,0 -48.139000,-9.000000,0 -48.139400,-9.004700,0 -48.138600,-9.006600,0 -48.134800,-9.012300,0 -48.131400,-9.016900,0 -48.127700,-9.021000,0 -48.126200,-9.022900,0 -48.120500,-9.032300,0 -48.118400,-9.036600,0 -48.114600,-9.047200,0 -48.113600,-9.049000,0 -48.110100,-9.051700,0 -48.107400,-9.054600,0 -48.105900,-9.056800,0 -48.105000,-9.059100,0 -48.104000,-9.059700,0 -48.102200,-9.059900,0 -48.100800,-9.058700,0 -48.100900,-9.056700,0 -48.102400,-9.055700,0 -48.102300,-9.054000,0 -48.100000,-9.053300,0 -48.097700,-9.054100,0 -48.095600,-9.053700,0 -48.094800,-9.054400,0 -48.095800,-9.058700,0 -48.096000,-9.063300,0 -48.093600,-9.065000,0 -48.088400,-9.063500,0 -48.085300,-9.063600,0 -48.084400,-9.064300,0 -48.084200,-9.065800,0 -48.085300,-9.067700,0 -48.084600,-9.069000,0 -48.082700,-9.070800,0 -48.079000,-9.072700,0 -48.078700,-9.074200,0 -48.079900,-9.074800,0 -48.081000,-9.076700,0 -48.078600,-9.075700,0 -48.076400,-9.076200,0 -48.075400,-9.075400,0 -48.075100,-9.072700,0 -48.072200,-9.074000,0 -48.072200,-9.074800,0 -48.073600,-9.076500,0 -48.070800,-9.079000,0 -48.069400,-9.079300,0 -48.070000,-9.081600,0 -48.066400,-9.080900,0 -48.064100,-9.080800,0 -48.063400,-9.082700,0 -48.062500,-9.083700,0 -48.060700,-9.080800,0 -48.056900,-9.080900,0 -48.057100,-9.082800,0 -48.055700,-9.084300,0 -48.055300,-9.082200,0 -48.050600,-9.080400,0 -48.049700,-9.081900,0 -48.050300,-9.084100,0 -48.049900,-9.085300,0 -48.048200,-9.086000,0 -48.046900,-9.085400,0 -48.044500,-9.085200,0 -48.042900,-9.086700,0 -48.041100,-9.087300,0 -48.042000,-9.089500,0 -48.040200,-9.092300,0 -48.038800,-9.093000,0 -48.038900,-9.094400,0 -48.036900,-9.094400,0 -48.036200,-9.096900,0 -48.035000,-9.096700,0 -48.033200,-9.097500,0 -48.033800,-9.099000,0 -48.033600,-9.101100,0 -48.033000,-9.101800,0 -48.032800,-9.104000,0 -48.030600,-9.104200,0 -48.030600,-9.102100,0 -48.028000,-9.102000,0 -48.025900,-9.104000,0 -48.025400,-9.105200,0 -48.023900,-9.105200,0 -48.024300,-9.106600,0 -48.025500,-9.107500,0 -48.025700,-9.109400,0 -48.024400,-9.111200,0 -48.022600,-9.111700,0 -48.020300,-9.113100,0 -48.020800,-9.113900,0 -48.019600,-9.116400,0 -48.018700,-9.116600,0 -48.015800,-9.115800,0 -48.014600,-9.116500,0 -48.014300,-9.117900,0 -48.012300,-9.118200,0 -48.010000,-9.117200,0 -48.007500,-9.120000,0 -48.006900,-9.121700,0 -48.005000,-9.121500,0 -48.004800,-9.122500,0 -48.006000,-9.123400,0 -48.004100,-9.127300,0 -48.001900,-9.125600,0 -48.000000,-9.127300,0 -48.000400,-9.128600,0 -47.998000,-9.130700,0 -47.995500,-9.129100,0 -47.994100,-9.129300,0 -47.993400,-9.127800,0 -47.994200,-9.126300,0 -47.996400,-9.126400,0 -47.998500,-9.123800,0 -47.998100,-9.122400,0 -47.996700,-9.121500,0 -47.995400,-9.122000,0 -47.994300,-9.121500,0 -47.993700,-9.118800,0 -47.992100,-9.117300,0 -47.991000,-9.117400,0 -47.988500,-9.118900,0 -47.988700,-9.117600,0 -47.986600,-9.117500,0 -47.987000,-9.119400,0 -47.985300,-9.119000,0 -47.983700,-9.119800,0 -47.982400,-9.119600,0 -47.981100,-9.118000,0 -47.979800,-9.118300,0 -47.979200,-9.119200,0 -47.976900,-9.120800,0 -47.977000,-9.122200,0 -47.974300,-9.121300,0 -47.974400,-9.119300,0 -47.973600,-9.117800,0 -47.971000,-9.118500,0 -47.969200,-9.116100,0 -47.967100,-9.116400,0 -47.963900,-9.116300,0 -47.961900,-9.115400,0 -47.961700,-9.116800,0 -47.959600,-9.115400,0 -47.957900,-9.115000,0 -47.957100,-9.116400,0 -47.955300,-9.115700,0 -47.954700,-9.117700,0 -47.952800,-9.117300,0 -47.952700,-9.119400,0 -47.951800,-9.120000,0 -47.951600,-9.121500,0 -47.950100,-9.123300,0 -47.948300,-9.123800,0 -47.946800,-9.123600,0 -47.945000,-9.122400,0 -47.944400,-9.123700,0 -47.942000,-9.124300,0 -47.940500,-9.125800,0 -47.939100,-9.126400,0 -47.938000,-9.126200,0 -47.935300,-9.127200,0 -47.933900,-9.126800,0 -47.933200,-9.127700,0 -47.933400,-9.129400,0 -47.931800,-9.130800,0 -47.931700,-9.132300,0 -47.929800,-9.136700,0 -47.928700,-9.137100,0 -47.927800,-9.136100,0 -47.926200,-9.136800,0 -47.924600,-9.135300,0 -47.923400,-9.136500,0 -47.922600,-9.136100,0 -47.921500,-9.137500,0 -47.920400,-9.137200,0 -47.919000,-9.137700,0 -47.918700,-9.136200,0 -47.917700,-9.135500,0 -47.916000,-9.136600,0 -47.915200,-9.135200,0 -47.913800,-9.136100,0 -47.911900,-9.135100,0 -47.910500,-9.136000,0 -47.908700,-9.135000,0 -47.906900,-9.134700,0 -47.904800,-9.135200,0 -47.904600,-9.136400,0 -47.903400,-9.137300,0 -47.902000,-9.136100,0 -47.898300,-9.135700,0 -47.896300,-9.136000,0 -47.894900,-9.134300,0 -47.890600,-9.134800,0 -47.888800,-9.133600,0 -47.887800,-9.130800,0 -47.886000,-9.130800,0 -47.885000,-9.130200,0 -47.885100,-9.128700,0 -47.884400,-9.127700,0 -47.884400,-9.126300,0 -47.883200,-9.125200,0 -47.884200,-9.124100,0 -47.881000,-9.122900,0 -47.879100,-9.122800,0 -47.879300,-9.121600,0 -47.877500,-9.121700,0 -47.877300,-9.120700,0 -47.874800,-9.120600,0 -47.874600,-9.118200,0 -47.873300,-9.117300,0 -47.871800,-9.115500,0 -47.870400,-9.115400,0 -47.869300,-9.116500,0 -47.868200,-9.116600,0 -47.865400,-9.115800,0 -47.864400,-9.114800,0 -47.862700,-9.114700,0 -47.860200,-9.113200,0 -47.857300,-9.113600,0 -47.854900,-9.112900,0 -47.853200,-9.113600,0 -47.852200,-9.114800,0 -47.852600,-9.116100,0 -47.851300,-9.116900,0 -47.849400,-9.116100,0 -47.849100,-9.114800,0 -47.847100,-9.115500,0 -47.845300,-9.115500,0 -47.844400,-9.114600,0 -47.842500,-9.117400,0 -47.841000,-9.117300,0 -47.840400,-9.118700,0 -47.839300,-9.118600,0 -47.837600,-9.117500,0 -47.834800,-9.117700,0 -47.833600,-9.117000,0 -47.831800,-9.117600,0 -47.830700,-9.116500,0 -47.829500,-9.118400,0 -47.827500,-9.118800,0 -47.825100,-9.116100,0 -47.823400,-9.116100,0 -47.821300,-9.115500,0 -47.818400,-9.115300,0 -47.817500,-9.114500,0 -47.815600,-9.115600,0 -47.813800,-9.114600,0 -47.812300,-9.112700,0 -47.809400,-9.113100,0 -47.808100,-9.114300,0 -47.806400,-9.113300,0 -47.803900,-9.113600,0 -47.802600,-9.112500,0 -47.801200,-9.112300,0 -47.798300,-9.115100,0 -47.796700,-9.115900,0 -47.794600,-9.118800,0 -47.793100,-9.119900,0 -47.790500,-9.119700,0 -47.789000,-9.120400,0 -47.786500,-9.120500,0 -47.783800,-9.120300,0 -47.780600,-9.118600,0 -47.778400,-9.119000,0 -47.777500,-9.120100,0 -47.774700,-9.120800,0 -47.772400,-9.120500,0 -47.771900,-9.119400,0 -47.770100,-9.118100,0 -47.768200,-9.118100,0 -47.765500,-9.117100,0 -47.765100,-9.116400,0 -47.762000,-9.114200,0 -47.759200,-9.113200,0 -47.758500,-9.111900,0 -47.756800,-9.110400,0 -47.755000,-9.110100,0 -47.753200,-9.107600,0 -47.752000,-9.107200,0 -47.748900,-9.105300,0 -47.745900,-9.105500,0 -47.743600,-9.104300,0 -47.741600,-9.102000,0 -47.740700,-9.101700,0 -47.737300,-9.101900,0 -47.736000,-9.101000,0 -47.734900,-9.099300,0 -47.733000,-9.098500,0 -47.729500,-9.096000,0 -47.727700,-9.093700,0 -47.725000,-9.091800,0 -47.725000,-9.088300,0 -47.722000,-9.086600,0 -47.718300,-9.083700,0 -47.713700,-9.094600,0 -47.712000,-9.096500,0 -47.710600,-9.098600,0 -47.710400,-9.099600,0 -47.707800,-9.102100,0 -47.707200,-9.102400,0 -47.708300,-9.108400,0 -47.707800,-9.110900,0 -47.706700,-9.111800,0 -47.706000,-9.113400,0 -47.705900,-9.116800,0 -47.704800,-9.118800,0 -47.706400,-9.122000,0 -47.708200,-9.123000,0 -47.709900,-9.125700,0 -47.712900,-9.127000,0 -47.715400,-9.127500,0 -47.719000,-9.133900,0 -47.718200,-9.135400,0 -47.718600,-9.138200,0 -47.717000,-9.141500,0 -47.718700,-9.142300,0 -47.719300,-9.144100,0 -47.720900,-9.144900,0 -47.721800,-9.146500,0 -47.721000,-9.148700,0 -47.721900,-9.151400,0 -47.720900,-9.151800,0 -47.720500,-9.153700,0 -47.721200,-9.155000,0 -47.719900,-9.156400,0 -47.719300,-9.158200,0 -47.718200,-9.158700,0 -47.718600,-9.161500,0 -47.716300,-9.162400,0 -47.716600,-9.163900,0 -47.715900,-9.165300,0 -47.714500,-9.166400,0 -47.713000,-9.169200,0 -47.711100,-9.168300,0 -47.709900,-9.168800,0 -47.709600,-9.170600,0 -47.707400,-9.170800,0 -47.705400,-9.171800,0 -47.704700,-9.171000,0 -47.702700,-9.174200,0 -47.700400,-9.173000,0 -47.699000,-9.174500,0 -47.696900,-9.174000,0 -47.695800,-9.175400,0 -47.694500,-9.175900,0 -47.693500,-9.175600,0 -47.692100,-9.177300,0 -47.691900,-9.178600,0 -47.689000,-9.178100,0 -47.689100,-9.179400,0 -47.686500,-9.181300,0 -47.685100,-9.183600,0 -47.683300,-9.183000,0 -47.683000,-9.176500,0 -47.682200,-9.175000,0 -47.682800,-9.173400,0 -47.682200,-9.172200,0 -47.678800,-9.174000,0 -47.678700,-9.175000,0 -47.679700,-9.176700,0 -47.678700,-9.177100,0 -47.676900,-9.176500,0 -47.674500,-9.174800,0 -47.672500,-9.174400,0 -47.670900,-9.173000,0 -47.669400,-9.173200,0 -47.668100,-9.172700,0 -47.666400,-9.173800,0 -47.665800,-9.173500,0 -47.666100,-9.171300,0 -47.663000,-9.171700,0 -47.662900,-9.169800,0 -47.662000,-9.169400,0 -47.659500,-9.171700,0 -47.659200,-9.170000,0 -47.656200,-9.170700,0 -47.654800,-9.170400,0 -47.653100,-9.172900,0 -47.651100,-9.172100,0 -47.650900,-9.173500,0 -47.649400,-9.173300,0 -47.648900,-9.171100,0 -47.648300,-9.170300,0 -47.648700,-9.168100,0 -47.647200,-9.167700,0 -47.646000,-9.169200,0 -47.644800,-9.169200,0 -47.642000,-9.168300,0 -47.641400,-9.167000,0 -47.638700,-9.165900,0 -47.637900,-9.164500,0 -47.637000,-9.161400,0 -47.636400,-9.161100,0 -47.634200,-9.161900,0 -47.632900,-9.160300,0 -47.632100,-9.158300,0 -47.627900,-9.156400,0 -47.626800,-9.156300,0 -47.626000,-9.154400,0 -47.626700,-9.152400,0 -47.625900,-9.151000,0 -47.626800,-9.149000,0 -47.625800,-9.146700,0 -47.621900,-9.142100,0 -47.619300,-9.142200,0 -47.617300,-9.140400,0 -47.618200,-9.138500,0 -47.618000,-9.136000,0 -47.618700,-9.134500,0 -47.618200,-9.132900,0 -47.618700,-9.129900,0 -47.620500,-9.127500,0 -47.620700,-9.123100,0 -47.619700,-9.121300,0 -47.619600,-9.119100,0 -47.620200,-9.118300,0 -47.620100,-9.114700,0 -47.620500,-9.111400,0 -47.619000,-9.108200,0 -47.618500,-9.106000,0 -47.618700,-9.104300,0 -47.619800,-9.103400,0 -47.620300,-9.101300,0 -47.618700,-9.098000,0 -47.619300,-9.096400,0 -47.618700,-9.094000,0 -47.619300,-9.092200,0 -47.622600,-9.089700,0 -47.623900,-9.087000,0 -47.624600,-9.084700,0 -47.624100,-9.082900,0 -47.624600,-9.080900,0 -47.623200,-9.077500,0 -47.622000,-9.076800,0 -47.620800,-9.074500,0 -47.620800,-9.073100,0 -47.619700,-9.071300,0 -47.619200,-9.067900,0 -47.617300,-9.066600,0 -47.616800,-9.065700,0 -47.613800,-9.063000,0 -47.613100,-9.060400,0 -47.610200,-9.057700,0 -47.609700,-9.055800,0 -47.608400,-9.054500,0 -47.608200,-9.053400,0 -47.605900,-9.049400,0 -47.606100,-9.047200,0 -47.605400,-9.046300,0 -47.607600,-9.045200,0 -47.607900,-9.043100,0 -47.609300,-9.041800,0 -47.609300,-9.038300,0 -47.609000,-9.037200,0 -47.610200,-9.035500,0 -47.611300,-9.032600,0 -47.611100,-9.027800,0 -47.602200,-9.016200,0 -47.555600,-8.954800,0 -47.542600,-8.937600,0 -47.545000,-8.934900,0 -47.544600,-8.932600,0 -47.544900,-8.931000,0 -47.546700,-8.928800,0 -47.547800,-8.928000,0 -47.549300,-8.926000,0 -47.551200,-8.924500,0 -47.552300,-8.923100,0 -47.554600,-8.921000,0 -47.555200,-8.920100,0 -47.557500,-8.917900,0 -47.558300,-8.916400,0 -47.560600,-8.916700,0 -47.561300,-8.918200,0 -47.562300,-8.918100,0 -47.563600,-8.916900,0 -47.564700,-8.917700,0 -47.566300,-8.916700,0 -47.567300,-8.914500,0 -47.566000,-8.912800,0 -47.566700,-8.911500,0 -47.565400,-8.909900,0 -47.565100,-8.908500,0 -47.567300,-8.906900,0 -47.567900,-8.905600,0 -47.569200,-8.905300,0 -47.570400,-8.903900,0 -47.570600,-8.901700,0 -47.571600,-8.899300,0 -47.570900,-8.897400,0 -47.571100,-8.895300,0 -47.570500,-8.893500,0 -47.571600,-8.892400,0 -47.571500,-8.891500,0 -47.572900,-8.890300,0 -47.571800,-8.888600,0 -47.572000,-8.887400,0 -47.573300,-8.886500,0 -47.574700,-8.886400,0 -47.576600,-8.886900,0 -47.577700,-8.886600,0 -47.578300,-8.885300,0 -47.580400,-8.886100,0 -47.582900,-8.885200,0 -47.584300,-8.886000,0 -47.586400,-8.885600,0 -47.587400,-8.884400,0 -47.589500,-8.886100,0 -47.588900,-8.888000,0 -47.591600,-8.890700,0 -47.592400,-8.892700,0 -47.592100,-8.894100,0 -47.592800,-8.896400,0 -47.592500,-8.897600,0 -47.594200,-8.899200,0 -47.594600,-8.902200,0 -47.595900,-8.904000,0 -47.597000,-8.904100,0 -47.597500,-8.906000,0 -47.598700,-8.908000,0 -47.601100,-8.910000,0 -47.601500,-8.910700,0 -47.601300,-8.913100,0 -47.600500,-8.913900,0 -47.600800,-8.915200,0 -47.601800,-8.916200,0 -47.601300,-8.917700,0 -47.601300,-8.920200,0 -47.602200,-8.922400,0 -47.603600,-8.923600,0 -47.603500,-8.925400,0 -47.606600,-8.930800,0 -47.608500,-8.932600,0 -47.607100,-8.934400,0 -47.609200,-8.936700,0 -47.609000,-8.938500,0 -47.608200,-8.940000,0 -47.610000,-8.941300,0 -47.610600,-8.942900,0 -47.614200,-8.942400,0 -47.615000,-8.943600,0 -47.617000,-8.944300,0 -47.617500,-8.947300,0 -47.618500,-8.948100,0 -47.618200,-8.949500,0 -47.618700,-8.951100,0 -47.620500,-8.951900,0 -47.621800,-8.951800,0 -47.625000,-8.950400,0 -47.626100,-8.952200,0 -47.629400,-8.951900,0 -47.631700,-8.952500,0 -47.633800,-8.951000,0 -47.636800,-8.950900,0 -47.638800,-8.949600,0 -47.638800,-8.951300,0 -47.639800,-8.952900,0 -47.642400,-8.953800,0 -47.644200,-8.952500,0 -47.646300,-8.953100,0 -47.647100,-8.951400,0 -47.648000,-8.952500,0 -47.648000,-8.953900,0 -47.649300,-8.955400,0 -47.650200,-8.955700,0 -47.654300,-8.954600,0 -47.656900,-8.955400,0 -47.657300,-8.956300,0 -47.655200,-8.956500,0 -47.655600,-8.957600,0 -47.654100,-8.959900,0 -47.656000,-8.960100,0 -47.658400,-8.958600,0 -47.658200,-8.957800,0 -47.659700,-8.955700,0 -47.664200,-8.954300,0 -47.669000,-8.954700,0 -47.671100,-8.954500,0 -47.672800,-8.955000,0 -47.674400,-8.953300,0 -47.676400,-8.952900,0 -47.677100,-8.953800,0 -47.676600,-8.956900,0 -47.678500,-8.956400,0 -47.680400,-8.955100,0 -47.681100,-8.956200,0 -47.682600,-8.955800,0 -47.683100,-8.954100,0 -47.685900,-8.951900,0 -47.688800,-8.951500,0 -47.690700,-8.952700,0 -47.692300,-8.952400,0 -47.692600,-8.953700,0 -47.695000,-8.956000,0 -47.696400,-8.955800,0 -47.697500,-8.957000,0 -47.698800,-8.957100,0 -47.701000,-8.963000,0 -47.703100,-8.964800,0 -47.705100,-8.965200,0 -47.706500,-8.964300,0 -47.708000,-8.965400,0 -47.708800,-8.965100,0 -47.710000,-8.962900,0 -47.711800,-8.962900,0 -47.713800,-8.961700,0 -47.714300,-8.960600,0 -47.714000,-8.958600,0 -47.714900,-8.957400,0 -47.716100,-8.957100,0 -47.716600,-8.955800,0 -47.718200,-8.956800,0 -47.718700,-8.955600,0 -47.719900,-8.956300,0 -47.721200,-8.955600,0 -47.722600,-8.955800,0 -47.724400,-8.959000,0 -47.726000,-8.959600,0 -47.728100,-8.961300,0 -47.729000,-8.961000,0 -47.730300,-8.962400,0 -47.731600,-8.962400,0 -47.733700,-8.963700,0 -47.734900,-8.965100,0 -47.736300,-8.967600,0 -47.740300,-8.967900,0 -47.740800,-8.968600,0 -47.743800,-8.968900,0 -47.744900,-8.968100,0 -47.746500,-8.968700,0 -47.748700,-8.966900,0 -47.750000,-8.967100,0 -47.751700,-8.965900,0 -47.753100,-8.965600,0 -47.754600,-8.966100,0 -47.756100,-8.965400,0 -47.757900,-8.966200,0 -47.760300,-8.964500,0 -47.762500,-8.961500,0 -47.764600,-8.961800,0 -47.766600,-8.961400,0 -47.768300,-8.959900,0 -47.769600,-8.959700,0 -47.773400,-8.960900,0 -47.775100,-8.959700,0 -47.774500,-8.958700,0 -47.776200,-8.958100,0 -47.778600,-8.956300,0 -47.781100,-8.956500,0 -47.781400,-8.957400,0 -47.784300,-8.956900,0 -47.784700,-8.955700,0 -47.786800,-8.955500,0 -47.787800,-8.953100,0 -47.788100,-8.951200,0 -47.788700,-8.950300,0 -47.790800,-8.949300,0 -47.793300,-8.946800,0 -47.794400,-8.947400,0 -47.796000,-8.947200,0 -47.798000,-8.946200,0 -47.799000,-8.948000,0 -47.799700,-8.952500,0 -47.803100,-8.951200,0 -47.803500,-8.950000,0 -47.805700,-8.946800,0 -47.806600,-8.947700,0 -47.808100,-8.947500,0 -47.808600,-8.948700,0 -47.810700,-8.949100,0 -47.812000,-8.948900,0 -47.812900,-8.953000,0 -47.812800,-8.954800,0 -47.814000,-8.954600,0 -47.814500,-8.956400,0 -47.815800,-8.954700,0 -47.816900,-8.954300,0 -47.818400,-8.952800,0 -47.819700,-8.952600,0 -47.821500,-8.954000,0 -47.823500,-8.954000,0 -47.824300,-8.955200,0 -47.827100,-8.953300,0 -47.828700,-8.953000,0 -47.828400,-8.954900,0 -47.829200,-8.955200,0 -47.829700,-8.956800,0 -47.831300,-8.955300,0 -47.833300,-8.957000,0 -47.834700,-8.957700,0 -47.838400,-8.956200,0 -47.839100,-8.958600,0 -47.841800,-8.959100,0 -47.843500,-8.957300,0 -47.843400,-8.955000,0 -47.848400,-8.955400,0 -47.848000,-8.952200,0 -47.851500,-8.949000,0 -47.852600,-8.949800,0 -47.854100,-8.952200,0 -47.856200,-8.952300,0 -47.858400,-8.951600,0 -47.860100,-8.949700,0 -47.862900,-8.952000,0 -47.863600,-8.951200,0 -47.865700,-8.950200,0 -47.868600,-8.949500,0 -47.868900,-8.952300,0 -47.871900,-8.954400,0 -47.873700,-8.952700,0 -47.873500,-8.951400,0 -47.876500,-8.952300,0 -47.876300,-8.955200,0 -47.877800,-8.954800,0 -47.879100,-8.955400,0 -47.881300,-8.959100,0 -47.882100,-8.959700,0 -47.884500,-8.957800,0 -47.885300,-8.956600,0 -47.886400,-8.956500,0 -47.890100,-8.955200,0 -47.891400,-8.955300,0 -47.893100,-8.956100,0 -47.893500,-8.957100,0 -47.892900,-8.960900,0 -47.896600,-8.959800,0 -47.896700,-8.957800,0 -47.898100,-8.957300,0 -47.900300,-8.958500,0 -47.902900,-8.955200,0 -47.903900,-8.955100,0 -47.904600,-8.956500,0 -47.905900,-8.957700,0 -47.908800,-8.959100,0 -47.911900,-8.959400,0 -47.913100,-8.957200,0 -47.914600,-8.957300,0 -47.916600,-8.958000,0 -47.917700,-8.956500,0 -47.920900,-8.955600,0 -47.920900,-8.953800,0 -47.919000,-8.953400,0 -47.920800,-8.951800,0 -47.921300,-8.949800,0 -47.919400,-8.947300,0 -47.921300,-8.946900,0 -47.921900,-8.944000,0 -47.926200,-8.943200,0 -47.925600,-8.940000,0 -47.924000,-8.939200,0 -47.925100,-8.938100,0 -47.925600,-8.936800,0 -47.926800,-8.936700,0 -47.928100,-8.937500,0 -47.930300,-8.936400,0 -47.930300,-8.932900,0 -47.932000,-8.931600,0 -47.934100,-8.932500,0 -47.936200,-8.932200,0 -47.937000,-8.928700,0 -47.938200,-8.928400,0 -47.939400,-8.927000,0 -47.939400,-8.926000,0 -47.941000,-8.924900,0 -47.941400,-8.923700,0 -47.940900,-8.922400,0 -47.942000,-8.922000,0 -47.942800,-8.924100,0 -47.943700,-8.924400,0 -47.944600,-8.922200,0 -47.946700,-8.918700,0 -47.949800,-8.919900,0 -47.954100,-8.918200,0 -47.956700,-8.919700,0 -47.958300,-8.919200,0 -47.957300,-8.917900,0 -47.955100,-8.916900,0 -47.954800,-8.915700,0 -47.956100,-8.913900,0 -47.962100,-8.912700,0 -47.964000,-8.911500,0 -47.963400,-8.910400,0 -47.960800,-8.910700,0 -47.959700,-8.907600,0 -47.958700,-8.906600,0 -47.957400,-8.906200,0 -47.960000,-8.903500,0 -47.961200,-8.904000,0 -47.963500,-8.903400,0 -47.963100,-8.901500,0 -47.964300,-8.901500,0 -47.966000,-8.902300,0 -47.967900,-8.902000,0 -47.967700,-8.899800,0 -47.966000,-8.898800,0 -47.965900,-8.897800,0 -47.969400,-8.896600,0 -47.971800,-8.896200,0 -47.973500,-8.897400,0 -47.974400,-8.897300,0 -47.974600,-8.893700,0 -47.976400,-8.893500,0 -47.977100,-8.894800,0 -47.978300,-8.894200,0 -47.979200,-8.892200,0 -47.981000,-8.890300,0 -47.981200,-8.888900,0 -47.979000,-8.885700,0 -47.979300,-8.884600,0 -47.979000,-8.881500,0 -47.980100,-8.880000,0 -47.981200,-8.880500,0 -47.982900,-8.880500,0 -47.983100,-8.881400,0 -47.984600,-8.881700,0 -47.986200,-8.883600,0 -47.988000,-8.882800,0 -47.989500,-8.883200,0 -47.989200,-8.878900,0 -47.987800,-8.873900,0 -47.988800,-8.873100,0 -47.991500,-8.874800,0 -47.993400,-8.877300,0 -47.993700,-8.879400,0 -47.995500,-8.883200,0 -47.996400,-8.883500,0 -47.997200,-8.882500,0 -47.999700,-8.881100,0 -48.001100,-8.881800,0 -48.003100,-8.884500,0 -48.004400,-8.886900,0 -48.005100,-8.887400,0 -48.006100,-8.885400,0 -48.007300,-8.880400,0 -48.009100,-8.881800,0 -48.008800,-8.886400,0 -48.009100,-8.887600,0 -48.011200,-8.889400,0 -48.014600,-8.890000,0 -48.015200,-8.889000,0 -48.014000,-8.886200,0 -48.014800,-8.884800,0 -48.018600,-8.884700,0 -48.018900,-8.884100,0 -48.018300,-8.878700,0 -48.020900,-8.878200,0 -48.023800,-8.877200,0 -48.026600,-8.877100,0 -48.028200,-8.879000,0 -48.031200,-8.881200,0 -48.032600,-8.880400,0 -48.032700,-8.878900,0 -48.036800,-8.878200,0 -48.038400,-8.878900,0 -48.040000,-8.881200,0 -48.042300,-8.880600,0 -48.042400,-8.878600,0 -48.043000,-8.878300,0 -48.049700,-8.882100,0 -48.052000,-8.880300,0 -48.053000,-8.878600,0 -48.057500,-8.878300,0 -48.058000,-8.876800,0 -48.058200,-8.874300,0 -48.057000,-8.872100,0 -48.058600,-8.870200,0 -48.060200,-8.870500,0 -48.062300,-8.870300,0 -48.064700,-8.870500,0 -48.066400,-8.869200,0 -48.069500,-8.871300,0 -48.070900,-8.873200,0 -48.072600,-8.873500,0 -48.075300,-8.870900,0 -48.075500,-8.868300,0 -48.074300,-8.866900,0 -48.075400,-8.865600,0 -48.077000,-8.865100,0 -48.079300,-8.865600,0 -48.081200,-8.865000,0 -48.083300,-8.865300,0 -48.084400,-8.866000,0 -48.087600,-8.865400,0 -48.088600,-8.869400,0 -48.086300,-8.870700,0 -48.086700,-8.872600,0 -48.087800,-8.874500,0 -48.089500,-8.874200,0 -48.090500,-8.872400,0 -48.092400,-8.872000,0 -48.094100,-8.872400,0 -48.093600,-8.870200,0 -48.094000,-8.868600,0 -48.093500,-8.866200,0 -48.094500,-8.865400,0 -48.094300,-8.863200,0 -48.095800,-8.862300,0 -48.098000,-8.863700,0 -48.101000,-8.866300,0 -48.103300,-8.865900,0 -48.103100,-8.868400,0 -48.105100,-8.868100,0 -48.107100,-8.868900,0 -48.109800,-8.867500,0 -48.110300,-8.865800,0 -48.109400,-8.864500,0 -48.105800,-8.862000,0 -48.105200,-8.860700,0 -48.105400,-8.858400,0 -48.104800,-8.857300,0 -48.105700,-8.852100,0 -48.108900,-8.848900,0 -48.110400,-8.847000,0 -48.111500,-8.846600,0 -48.114300,-8.847200,0 -48.114900,-8.846200,0 -48.113600,-8.845200,0 -48.114200,-8.843200,0 -48.115200,-8.841600,0 -48.117200,-8.840000,0 -48.117100,-8.838800,0 -48.115600,-8.837200,0 -48.114600,-8.834900,0 -48.114700,-8.834200,0 -48.116700,-8.832800,0 -48.117200,-8.831000,0 -48.118000,-8.830000,0 -48.120600,-8.830600,0 -48.121000,-8.832700,0 -48.122300,-8.832700,0 -48.122100,-8.835100,0 -48.120700,-8.835900,0 -48.120600,-8.838500,0 -48.122100,-8.837700,0 -48.122400,-8.836500,0 -48.123900,-8.835900,0 -48.123800,-8.834800,0 -48.125000,-8.833900,0 -48.125300,-8.832100,0 -48.124900,-8.829600,0 -48.125500,-8.827700,0 -48.125100,-8.824700,0 -48.125600,-8.821200,0 -48.129300,-8.825800,0 -48.130500,-8.826900,0 -48.132600,-8.828000,0 -48.136000,-8.830800,0 -48.139100,-8.834900,0 -48.142200,-8.841000,0 -48.144100,-8.845500,0 -48.145900,-8.848700,0 -48.148800,-8.852900,0 -48.151300,-8.858300,0 -48.153600,-8.862000,0 -48.156800,-8.869900,0 -48.159200,-8.875000,0 -48.160600,-8.877500,0 -48.162100,-8.881400,0 -48.166800,-8.890500,0 -48.169300,-8.894500,0 -48.170500,-8.897100,0 -48.171300,-8.899800,0 -48.171900,-8.903500,0 -48.172800,-8.911100,0 -48.172900,-8.913400,0 -48.172400,-8.920800,0 -48.172400,-8.924800,0 -48.172700,-8.928300,0 -48.173300,-8.930900,0 -48.174800,-8.940000,0 -48.176200,-8.945600,0 -48.177900,-8.951000,0 -48.178600,-8.955000,0</coordinates></LineString></Placemark>
</Folder>
<Folder><name>Circ_AL02065015 — Bom Jesus (74 trechos · 3.8 km · 3 chaves)</name>
<Folder><name>Chave</name>
<Placemark><name>8800253018</name><styleUrl>#stChave</styleUrl><Point><coordinates>-48.163456,-8.966469,0</coordinates></Point></Placemark>
<Placemark><name>7931906018</name><styleUrl>#stChave</styleUrl><Point><coordinates>-48.162956,-8.966693,0</coordinates></Point></Placemark>
<Placemark><name>8031906018</name><styleUrl>#stChave</styleUrl><Point><coordinates>-48.162931,-8.966657,0</coordinates></Point></Placemark>
</Folder><Folder><name>Trecho</name>
<Placemark><name>T1</name><styleUrl>#stTr</styleUrl><LineString><tessellate>1</tessellate><coordinates>-48.167871,-8.967757,0 -48.167892,-8.967724,0</coordinates></LineString></Placemark>
<Placemark><name>T1</name><styleUrl>#stTr</styleUrl><LineString><tessellate>1</tessellate><coordinates>-48.167892,-8.967724,0 -48.167951,-8.967530,0</coordinates></LineString></Placemark>
<Placemark><name>T1</name><styleUrl>#stTr</styleUrl><LineString><tessellate>1</tessellate><coordinates>-48.167871,-8.967757,0 -48.167553,-8.967508,0</coordinates></LineString></Placemark>
<Placemark><name>T1</name><styleUrl>#stTr</styleUrl><LineString><tessellate>1</tessellate><coordinates>-48.168109,-8.967912,0 -48.167871,-8.967757,0</coordinates></LineString></Placemark>
<Placemark><name>T1</name><styleUrl>#stTr</styleUrl><LineString><tessellate>1</tessellate><coordinates>-48.167553,-8.967508,0 -48.167528,-8.967510,0</coordinates></LineString></Placemark>
<Placemark><name>T1</name><styleUrl>#stTr</styleUrl><LineString><tessellate>1</tessellate><coordinates>-48.168136,-8.967932,0 -48.168109,-8.967912,0</coordinates></LineString></Placemark>
<Placemark><name>T1</name><styleUrl>#stTr</styleUrl><LineString><tessellate>1</tessellate><coordinates>-48.168109,-8.967912,0 -48.168098,-8.967951,0</coordinates></LineString></Placemark>
<Placemark><name>T1</name><styleUrl>#stTr</styleUrl><LineString><tessellate>1</tessellate><coordinates>-48.167528,-8.967510,0 -48.167489,-8.967556,0</coordinates></LineString></Placemark>
<Placemark><name>T1</name><styleUrl>#stTr</styleUrl><LineString><tessellate>1</tessellate><coordinates>-48.167489,-8.967556,0 -48.167421,-8.967497,0</coordinates></LineString></Placemark>
<Placemark><name>T1</name><styleUrl>#stTr</styleUrl><LineString><tessellate>1</tessellate><coordinates>-48.167421,-8.967497,0 -48.167250,-8.967351,0</coordinates></LineString></Placemark>
<Placemark><name>T1</name><styleUrl>#stTr</styleUrl><LineString><tessellate>1</tessellate><coordinates>-48.167250,-8.967351,0 -48.167237,-8.967368,0</coordinates></LineString></Placemark>
<Placemark><name>T1</name><styleUrl>#stTr</styleUrl><LineString><tessellate>1</tessellate><coordinates>-48.167250,-8.967351,0 -48.166740,-8.966915,0</coordinates></LineString></Placemark>
<Placemark><name>T1</name><styleUrl>#stTr</styleUrl><LineString><tessellate>1</tessellate><coordinates>-48.167237,-8.967368,0 -48.167028,-8.967691,0</coordinates></LineString></Placemark>
<Placemark><name>T1</name><styleUrl>#stTr</styleUrl><LineString><tessellate>1</tessellate><coordinates>-48.166740,-8.966915,0 -48.166422,-8.966642,0</coordinates></LineString></Placemark>
<Placemark><name>T1</name><styleUrl>#stTr</styleUrl><LineString><tessellate>1</tessellate><coordinates>-48.166422,-8.966642,0 -48.166307,-8.966543,0</coordinates></LineString></Placemark>
<Placemark><name>T1</name><styleUrl>#stTr</styleUrl><LineString><tessellate>1</tessellate><coordinates>-48.166422,-8.966642,0 -48.166550,-8.966500,0</coordinates></LineString></Placemark>
<Placemark><name>T1</name><styleUrl>#stTr</styleUrl><LineString><tessellate>1</tessellate><coordinates>-48.166422,-8.966642,0 -48.166160,-8.966932,0</coordinates></LineString></Placemark>
<Placemark><name>T1</name><styleUrl>#stTr</styleUrl><LineString><tessellate>1</tessellate><coordinates>-48.164018,-8.966067,0 -48.163399,-8.965546,0</coordinates></LineString></Placemark>
<Placemark><name>T1</name><styleUrl>#stTr</styleUrl><LineString><tessellate>1</tessellate><coordinates>-48.164143,-8.966168,0 -48.164018,-8.966067,0</coordinates></LineString></Placemark>
<Placemark><name>T1</name><styleUrl>#stTr</styleUrl><LineString><tessellate>1</tessellate><coordinates>-48.164018,-8.966067,0 -48.164050,-8.966028,0</coordinates></LineString></Placemark>
<Placemark><name>T1</name><styleUrl>#stTr</styleUrl><LineString><tessellate>1</tessellate><coordinates>-48.164018,-8.966067,0 -48.163470,-8.966463,0</coordinates></LineString></Placemark>
<Placemark><name>T1</name><styleUrl>#stTr</styleUrl><LineString><tessellate>1</tessellate><coordinates>-48.164170,-8.966189,0 -48.164143,-8.966168,0</coordinates></LineString></Placemark>
<Placemark><name>T1</name><styleUrl>#stTr</styleUrl><LineString><tessellate>1</tessellate><coordinates>-48.164696,-8.966608,0 -48.164170,-8.966189,0</coordinates></LineString></Placemark>
<Placemark><name>T1</name><styleUrl>#stTr</styleUrl><LineString><tessellate>1</tessellate><coordinates>-48.164696,-8.966608,0 -48.164585,-8.966744,0</coordinates></LineString></Placemark>
<Placemark><name>T1</name><styleUrl>#stTr</styleUrl><LineString><tessellate>1</tessellate><coordinates>-48.165666,-8.967424,0 -48.164696,-8.966608,0</coordinates></LineString></Placemark>
<Placemark><name>T1</name><styleUrl>#stTr</styleUrl><LineString><tessellate>1</tessellate><coordinates>-48.164696,-8.966608,0 -48.165595,-8.965507,0</coordinates></LineString></Placemark>
<Placemark><name>T1</name><styleUrl>#stTr</styleUrl><LineString><tessellate>1</tessellate><coordinates>-48.165690,-8.967423,0 -48.165666,-8.967424,0</coordinates></LineString></Placemark>
<Placemark><name>T1</name><styleUrl>#stTr</styleUrl><LineString><tessellate>1</tessellate><coordinates>-48.165595,-8.965507,0 -48.165784,-8.965276,0</coordinates></LineString></Placemark>
<Placemark><name>T1</name><styleUrl>#stTr</styleUrl><LineString><tessellate>1</tessellate><coordinates>-48.166134,-8.966960,0 -48.165690,-8.967423,0</coordinates></LineString></Placemark>
<Placemark><name>T1</name><styleUrl>#stTr</styleUrl><LineString><tessellate>1</tessellate><coordinates>-48.165784,-8.965276,0 -48.165807,-8.965250,0</coordinates></LineString></Placemark>
<Placemark><name>T1</name><styleUrl>#stTr</styleUrl><LineString><tessellate>1</tessellate><coordinates>-48.165807,-8.965250,0 -48.167329,-8.963092,0</coordinates></LineString></Placemark>
<Placemark><name>T1</name><styleUrl>#stTr</styleUrl><LineString><tessellate>1</tessellate><coordinates>-48.167329,-8.963092,0 -48.167518,-8.962799,0</coordinates></LineString></Placemark>
<Placemark><name>T1</name><styleUrl>#stTr</styleUrl><LineString><tessellate>1</tessellate><coordinates>-48.162973,-8.966671,0 -48.162931,-8.966654,0</coordinates></LineString></Placemark>
<Placemark><name>T1</name><styleUrl>#stTr</styleUrl><LineString><tessellate>1</tessellate><coordinates>-48.163441,-8.966475,0 -48.162973,-8.966671,0</coordinates></LineString></Placemark>
<Placemark><name>T1</name><styleUrl>#stTr</styleUrl><LineString><tessellate>1</tessellate><coordinates>-48.164826,-8.963720,0 -48.165922,-8.962293,0</coordinates></LineString></Placemark>
<Placemark><name>T1</name><styleUrl>#stTr</styleUrl><LineString><tessellate>1</tessellate><coordinates>-48.163420,-8.965519,0 -48.164826,-8.963720,0</coordinates></LineString></Placemark>
<Placemark><name>T1</name><styleUrl>#stTr</styleUrl><LineString><tessellate>1</tessellate><coordinates>-48.162972,-8.966674,0 -48.162956,-8.966693,0</coordinates></LineString></Placemark>
<Placemark><name>T1</name><styleUrl>#stTr</styleUrl><LineString><tessellate>1</tessellate><coordinates>-48.162955,-8.966694,0 -48.162940,-8.966700,0</coordinates></LineString></Placemark>
<Placemark><name>T1</name><styleUrl>#stTr</styleUrl><LineString><tessellate>1</tessellate><coordinates>-48.162914,-8.966696,0 -48.162595,-8.966829,0</coordinates></LineString></Placemark>
<Placemark><name>T1</name><styleUrl>#stTr</styleUrl><LineString><tessellate>1</tessellate><coordinates>-48.162938,-8.966700,0 -48.162914,-8.966696,0</coordinates></LineString></Placemark>
<Placemark><name>T1</name><styleUrl>#stTr</styleUrl><LineString><tessellate>1</tessellate><coordinates>-48.162914,-8.966696,0 -48.162930,-8.966659,0</coordinates></LineString></Placemark>
<Placemark><name>T1</name><styleUrl>#stTr</styleUrl><LineString><tessellate>1</tessellate><coordinates>-48.162595,-8.966829,0 -48.162740,-8.966960,0</coordinates></LineString></Placemark>
<Placemark><name>T1</name><styleUrl>#stTr</styleUrl><LineString><tessellate>1</tessellate><coordinates>-48.162595,-8.966829,0 -48.162560,-8.966793,0</coordinates></LineString></Placemark>
<Placemark><name>T1</name><styleUrl>#stTr</styleUrl><LineString><tessellate>1</tessellate><coordinates>-48.162595,-8.966829,0 -48.161036,-8.967480,0</coordinates></LineString></Placemark>
<Placemark><name>T1</name><styleUrl>#stTr</styleUrl><LineString><tessellate>1</tessellate><coordinates>-48.161036,-8.967480,0 -48.160105,-8.967886,0</coordinates></LineString></Placemark>
<Placemark><name>T1</name><styleUrl>#stTr</styleUrl><LineString><tessellate>1</tessellate><coordinates>-48.160105,-8.967886,0 -48.160074,-8.967901,0</coordinates></LineString></Placemark>
<Placemark><name>T1</name><styleUrl>#stTr</styleUrl><LineString><tessellate>1</tessellate><coordinates>-48.160074,-8.967901,0 -48.159517,-8.968167,0</coordinates></LineString></Placemark>
<Placemark><name>T1</name><styleUrl>#stTr</styleUrl><LineString><tessellate>1</tessellate><coordinates>-48.159517,-8.968167,0 -48.159483,-8.968185,0</coordinates></LineString></Placemark>
<Placemark><name>T1</name><styleUrl>#stTr</styleUrl><LineString><tessellate>1</tessellate><coordinates>-48.159483,-8.968185,0 -48.158622,-8.968615,0</coordinates></LineString></Placemark>
<Placemark><name>T1</name><styleUrl>#stTr</styleUrl><LineString><tessellate>1</tessellate><coordinates>-48.158622,-8.968615,0 -48.158507,-8.968673,0</coordinates></LineString></Placemark>
<Placemark><name>T1</name><styleUrl>#stTr</styleUrl><LineString><tessellate>1</tessellate><coordinates>-48.158622,-8.968615,0 -48.158652,-8.968706,0</coordinates></LineString></Placemark>
<Placemark><name>T1</name><styleUrl>#stTr</styleUrl><LineString><tessellate>1</tessellate><coordinates>-48.158622,-8.968615,0 -48.158402,-8.968118,0</coordinates></LineString></Placemark>
<Placemark><name>T1</name><styleUrl>#stTr</styleUrl><LineString><tessellate>1</tessellate><coordinates>-48.158507,-8.968673,0 -48.158476,-8.968688,0</coordinates></LineString></Placemark>
<Placemark><name>T1</name><styleUrl>#stTr</styleUrl><LineString><tessellate>1</tessellate><coordinates>-48.158652,-8.968706,0 -48.158680,-8.968726,0</coordinates></LineString></Placemark>
<Placemark><name>T1</name><styleUrl>#stTr</styleUrl><LineString><tessellate>1</tessellate><coordinates>-48.158402,-8.968118,0 -48.157930,-8.967055,0</coordinates></LineString></Placemark>
<Placemark><name>T1</name><styleUrl>#stTr</styleUrl><LineString><tessellate>1</tessellate><coordinates>-48.158476,-8.968688,0 -48.158194,-8.968829,0</coordinates></LineString></Placemark>
<Placemark><name>T1</name><styleUrl>#stTr</styleUrl><LineString><tessellate>1</tessellate><coordinates>-48.158680,-8.968726,0 -48.159635,-8.969367,0</coordinates></LineString></Placemark>
<Placemark><name>T1</name><styleUrl>#stTr</styleUrl><LineString><tessellate>1</tessellate><coordinates>-48.158194,-8.968829,0 -48.157918,-8.968897,0</coordinates></LineString></Placemark>
<Placemark><name>T1</name><styleUrl>#stTr</styleUrl><LineString><tessellate>1</tessellate><coordinates>-48.159635,-8.969367,0 -48.159665,-8.969384,0</coordinates></LineString></Placemark>
<Placemark><name>T1</name><styleUrl>#stTr</styleUrl><LineString><tessellate>1</tessellate><coordinates>-48.157918,-8.968897,0 -48.157885,-8.968907,0</coordinates></LineString></Placemark>
<Placemark><name>T1</name><styleUrl>#stTr</styleUrl><LineString><tessellate>1</tessellate><coordinates>-48.159665,-8.969384,0 -48.160052,-8.969576,0</coordinates></LineString></Placemark>
<Placemark><name>T1</name><styleUrl>#stTr</styleUrl><LineString><tessellate>1</tessellate><coordinates>-48.157885,-8.968907,0 -48.157587,-8.968970,0</coordinates></LineString></Placemark>
<Placemark><name>T1</name><styleUrl>#stTr</styleUrl><LineString><tessellate>1</tessellate><coordinates>-48.160953,-8.965360,0 -48.160757,-8.965189,0</coordinates></LineString></Placemark>
<Placemark><name>T1</name><styleUrl>#stTr</styleUrl><LineString><tessellate>1</tessellate><coordinates>-48.160757,-8.965189,0 -48.158958,-8.963609,0</coordinates></LineString></Placemark>
<Placemark><name>T1</name><styleUrl>#stTr</styleUrl><LineString><tessellate>1</tessellate><coordinates>-48.160757,-8.965189,0 -48.160862,-8.965118,0</coordinates></LineString></Placemark>
<Placemark><name>T1</name><styleUrl>#stTr</styleUrl><LineString><tessellate>1</tessellate><coordinates>-48.160757,-8.965189,0 -48.159242,-8.965833,0</coordinates></LineString></Placemark>
<Placemark><name>T1</name><styleUrl>#stTr</styleUrl><LineString><tessellate>1</tessellate><coordinates>-48.160979,-8.965381,0 -48.160953,-8.965360,0</coordinates></LineString></Placemark>
<Placemark><name>T1</name><styleUrl>#stTr</styleUrl><LineString><tessellate>1</tessellate><coordinates>-48.158958,-8.963609,0 -48.158642,-8.963334,0</coordinates></LineString></Placemark>
<Placemark><name>T1</name><styleUrl>#stTr</styleUrl><LineString><tessellate>1</tessellate><coordinates>-48.159242,-8.965833,0 -48.158938,-8.965949,0</coordinates></LineString></Placemark>
<Placemark><name>T1</name><styleUrl>#stTr</styleUrl><LineString><tessellate>1</tessellate><coordinates>-48.161182,-8.965560,0 -48.160979,-8.965381,0</coordinates></LineString></Placemark>
<Placemark><name>T1</name><styleUrl>#stTr</styleUrl><LineString><tessellate>1</tessellate><coordinates>-48.162534,-8.966768,0 -48.161182,-8.965560,0</coordinates></LineString></Placemark>
<Placemark><name>T1</name><styleUrl>#stTr</styleUrl><LineString><tessellate>1</tessellate><coordinates>-48.163470,-8.966463,0 -48.163441,-8.966475,0</coordinates></LineString></Placemark>
<Placemark><name>T1</name><styleUrl>#stTr</styleUrl><LineString><tessellate>1</tessellate><coordinates>-48.162956,-8.966693,0 -48.162955,-8.966694,0</coordinates></LineString></Placemark>
<Placemark><name>T1</name><styleUrl>#stTr</styleUrl><LineString><tessellate>1</tessellate><coordinates>-48.162931,-8.966654,0 -48.162930,-8.966659,0</coordinates></LineString></Placemark>
</Folder></Folder>
<Folder><name>Postes no traçado (119)</name>
<Placemark><name>952216</name><styleUrl>#stPoste</styleUrl><Point><coordinates>-48.161630,-8.965952,0</coordinates></Point></Placemark>
<Placemark><name>1429827</name><styleUrl>#stPoste</styleUrl><Point><coordinates>-48.157926,-8.967038,0</coordinates></Point></Placemark>
<Placemark><name>136124</name><styleUrl>#stPoste</styleUrl><Point><coordinates>-48.163455,-8.966470,0</coordinates></Point></Placemark>
<Placemark><name>964247</name><styleUrl>#stPoste</styleUrl><Point><coordinates>-48.158804,-8.968523,0</coordinates></Point></Placemark>
<Placemark><name>964577</name><styleUrl>#stPoste</styleUrl><Point><coordinates>-48.164347,-8.964323,0</coordinates></Point></Placemark>
<Placemark><name>965602</name><styleUrl>#stPoste</styleUrl><Point><coordinates>-48.165086,-8.966920,0</coordinates></Point></Placemark>
<Placemark><name>136125</name><styleUrl>#stPoste</styleUrl><Point><coordinates>-48.166149,-8.966946,0</coordinates></Point></Placemark>
<Placemark><name>136127</name><styleUrl>#stPoste</styleUrl><Point><coordinates>-48.166561,-8.966487,0</coordinates></Point></Placemark>
<Placemark><name>230924</name><styleUrl>#stPoste</styleUrl><Point><coordinates>-48.158630,-8.963322,0</coordinates></Point></Placemark>
<Placemark><name>297043</name><styleUrl>#stPoste</styleUrl><Point><coordinates>-48.164826,-8.963720,0</coordinates></Point></Placemark>
<Placemark><name>952214</name><styleUrl>#stPoste</styleUrl><Point><coordinates>-48.163854,-8.964945,0</coordinates></Point></Placemark>
<Placemark><name>953228</name><styleUrl>#stPoste</styleUrl><Point><coordinates>-48.161868,-8.966161,0</coordinates></Point></Placemark>
<Placemark><name>964576</name><styleUrl>#stPoste</styleUrl><Point><coordinates>-48.164596,-8.964009,0</coordinates></Point></Placemark>
<Placemark><name>978853</name><styleUrl>#stPoste</styleUrl><Point><coordinates>-48.165400,-8.962945,0</coordinates></Point></Placemark>
<Placemark><name>1792452</name><styleUrl>#stPoste</styleUrl><Point><coordinates>-48.157999,-8.967103,0</coordinates></Point></Placemark>
<Placemark><name>1794402</name><styleUrl>#stPoste</styleUrl><Point><coordinates>-48.166295,-8.964574,0</coordinates></Point></Placemark>
<Placemark><name>1799367</name><styleUrl>#stPoste</styleUrl><Point><coordinates>-48.167666,-8.967707,0</coordinates></Point></Placemark>
<Placemark><name>1817449</name><styleUrl>#stPoste</styleUrl><Point><coordinates>-48.161940,-8.966381,0</coordinates></Point></Placemark>
<Placemark><name>952215</name><styleUrl>#stPoste</styleUrl><Point><coordinates>-48.163594,-8.965273,0</coordinates></Point></Placemark>
<Placemark><name>952893</name><styleUrl>#stPoste</styleUrl><Point><coordinates>-48.160966,-8.965370,0</coordinates></Point></Placemark>
<Placemark><name>953219</name><styleUrl>#stPoste</styleUrl><Point><coordinates>-48.166347,-8.966725,0</coordinates></Point></Placemark>
<Placemark><name>28958819</name><styleUrl>#stPoste</styleUrl><Point><coordinates>-48.166541,-8.964291,0</coordinates></Point></Placemark>
<Placemark><name>979968</name><styleUrl>#stPoste</styleUrl><Point><coordinates>-48.160212,-8.964709,0</coordinates></Point></Placemark>
<Placemark><name>28958788</name><styleUrl>#stPoste</styleUrl><Point><coordinates>-48.167518,-8.962799,0</coordinates></Point></Placemark>
<Placemark><name>155932</name><styleUrl>#stPoste</styleUrl><Point><coordinates>-48.165595,-8.965507,0</coordinates></Point></Placemark>
<Placemark><name>230925</name><styleUrl>#stPoste</styleUrl><Point><coordinates>-48.158957,-8.963609,0</coordinates></Point></Placemark>
<Placemark><name>951865</name><styleUrl>#stPoste</styleUrl><Point><coordinates>-48.162063,-8.967050,0</coordinates></Point></Placemark>
<Placemark><name>965262</name><styleUrl>#stPoste</styleUrl><Point><coordinates>-48.158015,-8.967241,0</coordinates></Point></Placemark>
<Placemark><name>1429826</name><styleUrl>#stPoste</styleUrl><Point><coordinates>-48.162739,-8.966960,0</coordinates></Point></Placemark>
<Placemark><name>951869</name><styleUrl>#stPoste</styleUrl><Point><coordinates>-48.160747,-8.967600,0</coordinates></Point></Placemark>
<Placemark><name>979287</name><styleUrl>#stPoste</styleUrl><Point><coordinates>-48.159650,-8.969376,0</coordinates></Point></Placemark>
<Placemark><name>982502</name><styleUrl>#stPoste</styleUrl><Point><coordinates>-48.163821,-8.966312,0</coordinates></Point></Placemark>
<Placemark><name>1237051</name><styleUrl>#stPoste</styleUrl><Point><coordinates>-48.167489,-8.967554,0</coordinates></Point></Placemark>
<Placemark><name>1792081</name><styleUrl>#stPoste</styleUrl><Point><coordinates>-48.161436,-8.965594,0</coordinates></Point></Placemark>
<Placemark><name>32115353</name><styleUrl>#stPoste</styleUrl><Point><coordinates>-48.166797,-8.963680,0</coordinates></Point></Placemark>
<Placemark><name>136123</name><styleUrl>#stPoste</styleUrl><Point><coordinates>-48.159500,-8.968175,0</coordinates></Point></Placemark>
<Placemark><name>136130</name><styleUrl>#stPoste</styleUrl><Point><coordinates>-48.162547,-8.966782,0</coordinates></Point></Placemark>
<Placemark><name>951867</name><styleUrl>#stPoste</styleUrl><Point><coordinates>-48.161383,-8.967335,0</coordinates></Point></Placemark>
<Placemark><name>953221</name><styleUrl>#stPoste</styleUrl><Point><coordinates>-48.165679,-8.967435,0</coordinates></Point></Placemark>
<Placemark><name>964248</name><styleUrl>#stPoste</styleUrl><Point><coordinates>-48.158492,-8.968679,0</coordinates></Point></Placemark>
<Placemark><name>982503</name><styleUrl>#stPoste</styleUrl><Point><coordinates>-48.163177,-8.966586,0</coordinates></Point></Placemark>
<Placemark><name>28958851</name><styleUrl>#stPoste</styleUrl><Point><coordinates>-48.167039,-8.963752,0</coordinates></Point></Placemark>
<Placemark><name>963562</name><styleUrl>#stPoste</styleUrl><Point><coordinates>-48.167250,-8.967350,0</coordinates></Point></Placemark>
<Placemark><name>964579</name><styleUrl>#stPoste</styleUrl><Point><coordinates>-48.166535,-8.966739,0</coordinates></Point></Placemark>
<Placemark><name>979966</name><styleUrl>#stPoste</styleUrl><Point><coordinates>-48.159724,-8.964282,0</coordinates></Point></Placemark>
<Placemark><name>1089775</name><styleUrl>#stPoste</styleUrl><Point><coordinates>-48.167965,-8.967521,0</coordinates></Point></Placemark>
<Placemark><name>953222</name><styleUrl>#stPoste</styleUrl><Point><coordinates>-48.163629,-8.965740,0</coordinates></Point></Placemark>
<Placemark><name>1067912</name><styleUrl>#stPoste</styleUrl><Point><coordinates>-48.159130,-8.968362,0</coordinates></Point></Placemark>
<Placemark><name>28958815</name><styleUrl>#stPoste</styleUrl><Point><coordinates>-48.166703,-8.964052,0</coordinates></Point></Placemark>
<Placemark><name>962224</name><styleUrl>#stPoste</styleUrl><Point><coordinates>-48.158402,-8.968118,0</coordinates></Point></Placemark>
<Placemark><name>979272</name><styleUrl>#stPoste</styleUrl><Point><coordinates>-48.164988,-8.966251,0</coordinates></Point></Placemark>
<Placemark><name>136128</name><styleUrl>#stPoste</styleUrl><Point><coordinates>-48.166740,-8.966915,0</coordinates></Point></Placemark>
<Placemark><name>155933</name><styleUrl>#stPoste</styleUrl><Point><coordinates>-48.163388,-8.965534,0</coordinates></Point></Placemark>
<Placemark><name>1318047</name><styleUrl>#stPoste</styleUrl><Point><coordinates>-48.162944,-8.966680,0</coordinates></Point></Placemark>
<Placemark><name>1791939</name><styleUrl>#stPoste</styleUrl><Point><coordinates>-48.159011,-8.963852,0</coordinates></Point></Placemark>
<Placemark><name>28958796</name><styleUrl>#stPoste</styleUrl><Point><coordinates>-48.167171,-8.963331,0</coordinates></Point></Placemark>
<Placemark><name>39929922</name><styleUrl>#stPoste</styleUrl><Point><coordinates>-48.158542,-8.968434,0</coordinates></Point></Placemark>
<Placemark><name>953229</name><styleUrl>#stPoste</styleUrl><Point><coordinates>-48.162106,-8.966370,0</coordinates></Point></Placemark>
<Placemark><name>979969</name><styleUrl>#stPoste</styleUrl><Point><coordinates>-48.160461,-8.964928,0</coordinates></Point></Placemark>
<Placemark><name>982501</name><styleUrl>#stPoste</styleUrl><Point><coordinates>-48.164049,-8.966028,0</coordinates></Point></Placemark>
<Placemark><name>28958961</name><styleUrl>#stPoste</styleUrl><Point><coordinates>-48.161182,-8.965560,0</coordinates></Point></Placemark>
<Placemark><name>963561</name><styleUrl>#stPoste</styleUrl><Point><coordinates>-48.166995,-8.967132,0</coordinates></Point></Placemark>
<Placemark><name>964578</name><styleUrl>#stPoste</styleUrl><Point><coordinates>-48.166306,-8.966543,0</coordinates></Point></Placemark>
<Placemark><name>965606</name><styleUrl>#stPoste</styleUrl><Point><coordinates>-48.158164,-8.967581,0</coordinates></Point></Placemark>
<Placemark><name>982145</name><styleUrl>#stPoste</styleUrl><Point><coordinates>-48.159890,-8.965586,0</coordinates></Point></Placemark>
<Placemark><name>962223</name><styleUrl>#stPoste</styleUrl><Point><coordinates>-48.158284,-8.967851,0</coordinates></Point></Placemark>
<Placemark><name>290692</name><styleUrl>#stPoste</styleUrl><Point><coordinates>-48.160067,-8.969583,0</coordinates></Point></Placemark>
<Placemark><name>951870</name><styleUrl>#stPoste</styleUrl><Point><coordinates>-48.160429,-8.967745,0</coordinates></Point></Placemark>
<Placemark><name>979970</name><styleUrl>#stPoste</styleUrl><Point><coordinates>-48.160728,-8.965161,0</coordinates></Point></Placemark>
<Placemark><name>982148</name><styleUrl>#stPoste</styleUrl><Point><coordinates>-48.158924,-8.965955,0</coordinates></Point></Placemark>
<Placemark><name>983185</name><styleUrl>#stPoste</styleUrl><Point><coordinates>-48.168123,-8.967922,0</coordinates></Point></Placemark>
<Placemark><name>28958805</name><styleUrl>#stPoste</styleUrl><Point><coordinates>-48.166856,-8.963799,0</coordinates></Point></Placemark>
<Placemark><name>28958839</name><styleUrl>#stPoste</styleUrl><Point><coordinates>-48.165794,-8.965263,0</coordinates></Point></Placemark>
<Placemark><name>42132964</name><styleUrl>#stPoste</styleUrl><Point><coordinates>-48.163931,-8.965998,0</coordinates></Point></Placemark>
<Placemark><name>1429473</name><styleUrl>#stPoste</styleUrl><Point><coordinates>-48.164157,-8.966178,0</coordinates></Point></Placemark>
<Placemark><name>963223</name><styleUrl>#stPoste</styleUrl><Point><coordinates>-48.164804,-8.966695,0</coordinates></Point></Placemark>
<Placemark><name>965248</name><styleUrl>#stPoste</styleUrl><Point><coordinates>-48.167540,-8.967496,0</coordinates></Point></Placemark>
<Placemark><name>982143</name><styleUrl>#stPoste</styleUrl><Point><coordinates>-48.160513,-8.965348,0</coordinates></Point></Placemark>
<Placemark><name>28958800</name><styleUrl>#stPoste</styleUrl><Point><coordinates>-48.167013,-8.963566,0</coordinates></Point></Placemark>
<Placemark><name>136332</name><styleUrl>#stPoste</styleUrl><Point><coordinates>-48.157570,-8.968972,0</coordinates></Point></Placemark>
<Placemark><name>301454</name><styleUrl>#stPoste</styleUrl><Point><coordinates>-48.167020,-8.967705,0</coordinates></Point></Placemark>
<Placemark><name>952196</name><styleUrl>#stPoste</styleUrl><Point><coordinates>-48.159753,-8.968050,0</coordinates></Point></Placemark>
<Placemark><name>979271</name><styleUrl>#stPoste</styleUrl><Point><coordinates>-48.165199,-8.965993,0</coordinates></Point></Placemark>
<Placemark><name>982146</name><styleUrl>#stPoste</styleUrl><Point><coordinates>-48.159642,-8.965681,0</coordinates></Point></Placemark>
<Placemark><name>951868</name><styleUrl>#stPoste</styleUrl><Point><coordinates>-48.161035,-8.967480,0</coordinates></Point></Placemark>
<Placemark><name>1089773</name><styleUrl>#stPoste</styleUrl><Point><coordinates>-48.167872,-8.967758,0</coordinates></Point></Placemark>
<Placemark><name>1817460</name><styleUrl>#stPoste</styleUrl><Point><coordinates>-48.162678,-8.966725,0</coordinates></Point></Placemark>
<Placemark><name>953230</name><styleUrl>#stPoste</styleUrl><Point><coordinates>-48.162296,-8.966547,0</coordinates></Point></Placemark>
<Placemark><name>978834</name><styleUrl>#stPoste</styleUrl><Point><coordinates>-48.159453,-8.964044,0</coordinates></Point></Placemark>
<Placemark><name>979270</name><styleUrl>#stPoste</styleUrl><Point><coordinates>-48.165374,-8.965778,0</coordinates></Point></Placemark>
<Placemark><name>979273</name><styleUrl>#stPoste</styleUrl><Point><coordinates>-48.164804,-8.966475,0</coordinates></Point></Placemark>
<Placemark><name>1237050</name><styleUrl>#stPoste</styleUrl><Point><coordinates>-48.167421,-8.967497,0</coordinates></Point></Placemark>
<Placemark><name>28958830</name><styleUrl>#stPoste</styleUrl><Point><coordinates>-48.166205,-8.964759,0</coordinates></Point></Placemark>
<Placemark><name>951864</name><styleUrl>#stPoste</styleUrl><Point><coordinates>-48.162389,-8.966915,0</coordinates></Point></Placemark>
<Placemark><name>952213</name><styleUrl>#stPoste</styleUrl><Point><coordinates>-48.164104,-8.964629,0</coordinates></Point></Placemark>
<Placemark><name>964580</name><styleUrl>#stPoste</styleUrl><Point><coordinates>-48.166794,-8.966831,0</coordinates></Point></Placemark>
<Placemark><name>978833</name><styleUrl>#stPoste</styleUrl><Point><coordinates>-48.159149,-8.963777,0</coordinates></Point></Placemark>
<Placemark><name>28958824</name><styleUrl>#stPoste</styleUrl><Point><coordinates>-48.166380,-8.964533,0</coordinates></Point></Placemark>
<Placemark><name>28958835</name><styleUrl>#stPoste</styleUrl><Point><coordinates>-48.165989,-8.965019,0</coordinates></Point></Placemark>
<Placemark><name>962226</name><styleUrl>#stPoste</styleUrl><Point><coordinates>-48.158666,-8.968716,0</coordinates></Point></Placemark>
<Placemark><name>963563</name><styleUrl>#stPoste</styleUrl><Point><coordinates>-48.162767,-8.966754,0</coordinates></Point></Placemark>
<Placemark><name>977760</name><styleUrl>#stPoste</styleUrl><Point><coordinates>-48.164585,-8.966744,0</coordinates></Point></Placemark>
<Placemark><name>953220</name><styleUrl>#stPoste</styleUrl><Point><coordinates>-48.165898,-8.967208,0</coordinates></Point></Placemark>
<Placemark><name>979286</name><styleUrl>#stPoste</styleUrl><Point><coordinates>-48.159198,-8.969067,0</coordinates></Point></Placemark>
<Placemark><name>979967</name><styleUrl>#stPoste</styleUrl><Point><coordinates>-48.159966,-8.964494,0</coordinates></Point></Placemark>
<Placemark><name>982141</name><styleUrl>#stPoste</styleUrl><Point><coordinates>-48.160875,-8.965109,0</coordinates></Point></Placemark>
<Placemark><name>1792009</name><styleUrl>#stPoste</styleUrl><Point><coordinates>-48.159229,-8.968473,0</coordinates></Point></Placemark>
<Placemark><name>33201537</name><styleUrl>#stPoste</styleUrl><Point><coordinates>-48.166932,-8.963686,0</coordinates></Point></Placemark>
<Placemark><name>951866</name><styleUrl>#stPoste</styleUrl><Point><coordinates>-48.161790,-8.967165,0</coordinates></Point></Placemark>
<Placemark><name>963222</name><styleUrl>#stPoste</styleUrl><Point><coordinates>-48.164485,-8.966440,0</coordinates></Point></Placemark>
<Placemark><name>1429478</name><styleUrl>#stPoste</styleUrl><Point><coordinates>-48.160090,-8.967894,0</coordinates></Point></Placemark>
<Placemark><name>1792308</name><styleUrl>#stPoste</styleUrl><Point><coordinates>-48.159741,-8.965553,0</coordinates></Point></Placemark>
<Placemark><name>136129</name><styleUrl>#stPoste</styleUrl><Point><coordinates>-48.161432,-8.965778,0</coordinates></Point></Placemark>
<Placemark><name>978855</name><styleUrl>#stPoste</styleUrl><Point><coordinates>-48.165931,-8.962279,0</coordinates></Point></Placemark>
<Placemark><name>28958948</name><styleUrl>#stPoste</styleUrl><Point><coordinates>-48.163788,-8.965099,0</coordinates></Point></Placemark>
<Placemark><name>965258</name><styleUrl>#stPoste</styleUrl><Point><coordinates>-48.157902,-8.968902,0</coordinates></Point></Placemark>
<Placemark><name>965603</name><styleUrl>#stPoste</styleUrl><Point><coordinates>-48.165426,-8.967191,0</coordinates></Point></Placemark>
<Placemark><name>982147</name><styleUrl>#stPoste</styleUrl><Point><coordinates>-48.159242,-8.965834,0</coordinates></Point></Placemark>
<Placemark><name>1792263</name><styleUrl>#stPoste</styleUrl><Point><coordinates>-48.160260,-8.964827,0</coordinates></Point></Placemark>
</Folder></Document></kml>