<?xml version="1.0" encoding="UTF-8"?>
<kml xmlns="http://www.opengis.net/kml/2.2"><Document>
<name>Pequizeiro — perimetro urbano + T1/T2</name>
<Style id="stLim"><LineStyle><color>ff00d6ff</color><width>3</width></LineStyle><PolyStyle><fill>0</fill></PolyStyle></Style>
<Style id="stPoste"><IconStyle><scale>0.5</scale><color>ffff0000</color><Icon><href>http://maps.google.com/mapfiles/kml/paddle/wht-circle.png</href></Icon></IconStyle><LabelStyle><scale>0</scale></LabelStyle></Style>
<Style id="stT1"><LineStyle><color>ff40ff00</color><width>2.4</width></LineStyle></Style>
<Style id="stT2"><LineStyle><color>ff00ffff</color><width>2.4</width></LineStyle></Style>
<Folder><name>Limite municipal — Pequizeiro (IBGE 1716653)</name>
<Placemark><styleUrl>#stLim</styleUrl><LineString><tessellate>1</tessellate><coordinates>-48.978100,-8.192800,0 -48.977200,-8.193200,0 -48.976600,-8.195300,0 -48.975100,-8.195900,0 -48.976000,-8.197700,0 -48.975200,-8.201600,0 -48.972200,-8.204200,0 -48.972900,-8.207200,0 -48.972000,-8.208700,0 -48.972200,-8.215300,0 -48.971700,-8.216200,0 -48.973800,-8.218000,0 -48.974200,-8.218900,0 -48.972400,-8.220800,0 -48.970800,-8.220900,0 -48.971400,-8.223100,0 -48.970500,-8.225800,0 -48.969700,-8.227200,0 -48.968400,-8.227700,0 -48.969100,-8.229100,0 -48.969000,-8.231700,0 -48.969900,-8.233400,0 -48.970300,-8.235900,0 -48.972100,-8.236200,0 -48.973100,-8.237600,0 -48.972200,-8.238300,0 -48.972400,-8.240000,0 -48.971800,-8.241300,0 -48.974800,-8.242100,0 -48.974800,-8.244000,0 -48.977000,-8.245800,0 -48.976600,-8.247100,0 -48.975000,-8.248600,0 -48.973200,-8.251500,0 -48.970600,-8.252800,0 -48.969600,-8.254500,0 -48.969200,-8.256600,0 -48.967400,-8.258500,0 -48.966000,-8.258300,0 -48.963200,-8.259900,0 -48.959500,-8.260700,0 -48.958500,-8.261300,0 -48.957600,-8.262700,0 -48.956600,-8.266000,0 -48.958200,-8.270300,0 -48.956900,-8.273500,0 -48.960600,-8.278100,0 -48.960800,-8.279200,0 -48.960600,-8.282600,0 -48.959900,-8.284500,0 -48.959300,-8.289000,0 -48.957600,-8.291700,0 -48.957300,-8.295500,0 -48.957700,-8.298600,0 -48.958700,-8.301600,0 -48.959600,-8.303100,0 -48.960800,-8.306100,0 -48.963200,-8.307900,0 -48.964900,-8.310200,0 -48.965600,-8.313200,0 -48.965600,-8.314600,0 -48.968000,-8.318700,0 -48.969000,-8.319400,0 -48.971400,-8.323600,0 -48.973500,-8.325300,0 -48.974200,-8.326800,0 -48.977100,-8.330400,0 -48.977700,-8.331700,0 -48.979100,-8.332600,0 -48.980300,-8.332600,0 -48.981800,-8.333700,0 -48.984300,-8.334700,0 -48.985400,-8.336500,0 -48.987900,-8.337100,0 -48.989800,-8.340000,0 -48.991800,-8.341800,0 -48.992700,-8.343000,0 -48.993400,-8.345700,0 -48.991300,-8.348000,0 -48.990900,-8.350300,0 -48.991200,-8.353100,0 -48.992300,-8.354900,0 -48.994500,-8.355800,0 -48.996300,-8.357200,0 -48.997700,-8.359100,0 -48.998700,-8.359500,0 -48.999700,-8.361800,0 -49.002100,-8.362900,0 -49.003200,-8.364300,0 -49.005400,-8.363000,0 -49.005600,-8.361100,0 -49.007300,-8.360700,0 -49.007800,-8.364600,0 -49.006600,-8.366300,0 -49.004900,-8.367400,0 -49.004600,-8.370600,0 -49.006800,-8.371100,0 -49.006000,-8.373200,0 -49.004000,-8.373300,0 -49.002800,-8.374100,0 -49.003100,-8.375300,0 -49.001300,-8.375900,0 -49.000200,-8.376800,0 -49.001200,-8.377800,0 -49.000000,-8.378700,0 -48.998500,-8.378300,0 -48.997500,-8.378900,0 -48.997300,-8.380100,0 -48.995900,-8.381000,0 -48.995200,-8.383600,0 -48.995300,-8.386100,0 -48.992100,-8.387200,0 -48.992100,-8.389000,0 -48.990400,-8.388100,0 -48.989800,-8.386400,0 -48.988900,-8.387200,0 -48.988300,-8.388800,0 -48.988900,-8.389900,0 -48.986800,-8.391100,0 -48.986000,-8.392600,0 -48.983900,-8.392600,0 -48.983600,-8.393800,0 -48.981700,-8.393000,0 -48.981300,-8.395500,0 -48.982800,-8.396400,0 -48.982300,-8.400500,0 -48.980400,-8.401400,0 -48.979400,-8.403000,0 -48.976100,-8.402700,0 -48.975800,-8.405000,0 -48.974000,-8.404500,0 -48.972000,-8.407400,0 -48.971900,-8.408400,0 -48.970700,-8.408700,0 -48.968800,-8.410700,0 -48.969500,-8.412100,0 -48.968200,-8.413400,0 -48.971000,-8.415600,0 -48.972400,-8.417500,0 -48.972500,-8.419000,0 -48.971500,-8.419300,0 -48.971900,-8.422500,0 -48.973200,-8.427100,0 -48.975600,-8.428300,0 -48.976400,-8.430300,0 -48.976200,-8.431700,0 -48.974400,-8.434200,0 -48.974100,-8.436300,0 -48.975600,-8.437100,0 -48.976900,-8.436600,0 -48.977600,-8.437800,0 -48.977000,-8.439700,0 -48.977400,-8.442600,0 -48.976700,-8.446800,0 -48.976100,-8.447600,0 -48.976700,-8.450000,0 -48.975500,-8.451300,0 -48.976500,-8.454600,0 -48.979700,-8.456500,0 -48.981200,-8.458100,0 -48.982100,-8.460300,0 -48.982900,-8.460700,0 -48.983000,-8.463000,0 -48.985800,-8.464400,0 -48.987200,-8.466400,0 -48.987000,-8.468200,0 -48.988300,-8.472300,0 -48.987200,-8.473700,0 -48.986900,-8.475200,0 -48.988100,-8.477500,0 -48.989100,-8.480100,0 -48.990200,-8.481300,0 -48.990600,-8.483700,0 -48.989700,-8.485400,0 -48.989600,-8.486600,0 -48.988400,-8.487500,0 -48.987400,-8.490100,0 -48.989200,-8.491600,0 -48.989000,-8.493200,0 -48.991100,-8.494600,0 -48.992200,-8.495700,0 -48.996700,-8.495800,0 -48.998100,-8.496700,0 -49.001100,-8.496200,0 -49.005300,-8.497800,0 -49.007100,-8.500800,0 -49.010600,-8.502200,0 -49.013300,-8.501700,0 -49.016100,-8.503500,0 -49.017500,-8.505600,0 -49.017500,-8.507500,0 -49.019300,-8.508800,0 -49.021800,-8.509300,0 -49.021800,-8.511700,0 -49.022600,-8.512700,0 -49.025100,-8.513500,0 -49.026200,-8.514800,0 -49.027700,-8.515300,0 -49.029000,-8.516800,0 -49.029500,-8.518600,0 -49.030600,-8.519800,0 -49.031200,-8.521500,0 -49.031000,-8.522600,0 -49.031900,-8.523600,0 -49.032400,-8.525900,0 -49.034400,-8.527200,0 -49.035100,-8.528600,0 -49.036800,-8.529400,0 -49.036800,-8.530300,0 -49.040300,-8.532300,0 -49.041700,-8.532300,0 -49.044500,-8.533800,0 -49.046300,-8.533800,0 -49.047800,-8.534500,0 -49.049700,-8.536300,0 -49.050800,-8.536700,0 -49.053300,-8.538800,0 -49.053600,-8.539700,0 -49.052800,-8.541500,0 -49.050500,-8.544700,0 -49.094600,-8.607200,0 -49.122500,-8.646800,0 -49.121700,-8.646500,0 -49.120800,-8.649300,0 -49.121000,-8.650500,0 -49.120500,-8.651800,0 -49.118800,-8.654000,0 -49.119900,-8.655100,0 -49.117500,-8.658500,0 -49.116400,-8.657900,0 -49.115300,-8.658200,0 -49.114600,-8.655400,0 -49.113000,-8.655100,0 -49.111000,-8.653000,0 -49.108600,-8.652500,0 -49.109500,-8.649500,0 -49.109000,-8.648100,0 -49.107500,-8.646500,0 -49.107400,-8.645500,0 -49.104500,-8.647100,0 -49.103400,-8.646200,0 -49.103100,-8.644100,0 -49.099400,-8.643800,0 -49.098500,-8.642700,0 -49.097700,-8.643800,0 -49.095800,-8.644100,0 -49.095000,-8.642300,0 -49.095400,-8.640900,0 -49.093000,-8.641400,0 -49.092100,-8.643200,0 -49.090000,-8.643100,0 -49.088200,-8.644900,0 -49.086600,-8.644300,0 -49.085300,-8.644500,0 -49.084600,-8.643200,0 -49.082900,-8.642300,0 -49.081200,-8.643400,0 -49.079700,-8.646000,0 -49.077700,-8.644400,0 -49.076000,-8.645700,0 -49.074700,-8.645500,0 -49.073000,-8.644400,0 -49.072500,-8.643000,0 -49.070600,-8.643400,0 -49.071100,-8.644900,0 -49.072700,-8.645600,0 -49.070700,-8.647200,0 -49.068600,-8.647100,0 -49.068400,-8.649600,0 -49.067300,-8.649200,0 -49.064500,-8.650300,0 -49.061800,-8.651700,0 -49.061500,-8.654400,0 -49.059600,-8.653200,0 -49.057900,-8.653900,0 -49.059000,-8.655500,0 -49.057500,-8.656400,0 -49.053600,-8.655100,0 -49.053500,-8.656500,0 -49.052000,-8.656500,0 -49.050300,-8.658000,0 -49.047900,-8.658300,0 -49.047600,-8.659400,0 -49.045500,-8.659900,0 -49.044700,-8.661900,0 -49.043700,-8.663000,0 -49.042700,-8.662100,0 -49.040900,-8.661600,0 -49.038200,-8.662100,0 -49.037700,-8.664200,0 -49.035400,-8.663400,0 -49.034000,-8.663700,0 -49.034300,-8.666300,0 -49.033100,-8.668800,0 -49.031900,-8.670100,0 -49.030400,-8.669700,0 -49.030300,-8.668600,0 -49.027500,-8.668400,0 -49.027000,-8.670600,0 -49.024200,-8.669300,0 -49.022700,-8.669300,0 -49.021400,-8.668100,0 -49.020600,-8.669100,0 -49.018900,-8.669300,0 -49.017200,-8.668000,0 -49.015200,-8.669100,0 -49.015400,-8.670600,0 -49.011700,-8.670400,0 -49.011800,-8.668500,0 -49.011100,-8.667800,0 -49.009600,-8.668200,0 -49.007000,-8.669900,0 -49.007500,-8.671900,0 -49.005500,-8.672300,0 -49.004900,-8.675100,0 -49.001800,-8.673600,0 -48.999600,-8.673500,0 -48.998000,-8.675300,0 -48.997500,-8.676800,0 -48.995900,-8.676400,0 -48.994300,-8.677300,0 -48.991800,-8.677000,0 -48.991200,-8.678700,0 -48.989800,-8.679800,0 -48.990000,-8.681400,0 -48.989500,-8.682400,0 -48.988100,-8.682400,0 -48.988800,-8.684500,0 -48.987300,-8.684300,0 -48.986400,-8.685400,0 -48.984100,-8.686000,0 -48.984200,-8.687200,0 -48.982400,-8.687300,0 -48.981300,-8.689500,0 -48.980200,-8.689400,0 -48.977600,-8.688400,0 -48.974500,-8.691400,0 -48.975500,-8.693400,0 -48.977300,-8.694600,0 -48.974800,-8.696700,0 -48.973600,-8.695800,0 -48.972000,-8.699200,0 -48.972900,-8.700000,0 -48.972700,-8.702100,0 -48.974200,-8.702500,0 -48.972900,-8.705000,0 -48.971600,-8.705600,0 -48.970700,-8.708300,0 -48.969900,-8.708900,0 -48.968000,-8.708400,0 -48.966600,-8.705900,0 -48.967500,-8.704900,0 -48.967200,-8.703600,0 -48.965300,-8.704100,0 -48.963900,-8.705000,0 -48.963200,-8.703600,0 -48.961300,-8.703700,0 -48.959100,-8.701100,0 -48.958800,-8.698900,0 -48.953000,-8.698900,0 -48.952300,-8.697900,0 -48.950700,-8.698000,0 -48.949300,-8.699300,0 -48.949900,-8.700800,0 -48.948300,-8.701500,0 -48.947900,-8.703100,0 -48.946900,-8.704400,0 -48.947800,-8.705000,0 -48.946600,-8.706200,0 -48.947500,-8.706900,0 -48.946400,-8.709000,0 -48.947900,-8.710000,0 -48.946500,-8.714700,0 -48.945700,-8.714100,0 -48.942000,-8.715700,0 -48.940600,-8.712500,0 -48.939300,-8.711400,0 -48.938000,-8.712800,0 -48.936600,-8.713400,0 -48.935800,-8.712200,0 -48.913600,-8.679500,0 -48.882700,-8.633600,0 -48.858300,-8.597600,0 -48.858000,-8.595300,0 -48.859300,-8.595500,0 -48.860000,-8.594400,0 -48.862000,-8.594300,0 -48.862700,-8.593200,0 -48.866200,-8.591900,0 -48.867800,-8.591900,0 -48.868600,-8.590400,0 -48.870800,-8.589600,0 -48.872100,-8.588400,0 -48.874300,-8.587400,0 -48.873700,-8.586400,0 -48.872200,-8.586300,0 -48.871000,-8.585500,0 -48.871700,-8.583700,0 -48.871600,-8.582100,0 -48.872200,-8.581100,0 -48.873700,-8.581500,0 -48.874900,-8.581000,0 -48.877800,-8.581600,0 -48.879600,-8.580800,0 -48.881800,-8.581500,0 -48.882700,-8.580700,0 -48.883400,-8.578700,0 -48.883300,-8.577100,0 -48.882500,-8.574900,0 -48.884000,-8.571800,0 -48.885600,-8.571200,0 -48.885000,-8.567900,0 -48.886900,-8.566900,0 -48.887400,-8.564800,0 -48.887800,-8.561300,0 -48.890000,-8.561800,0 -48.891900,-8.560800,0 -48.894100,-8.561500,0 -48.895300,-8.561300,0 -48.895700,-8.560000,0 -48.894600,-8.559800,0 -48.894400,-8.558600,0 -48.893000,-8.558400,0 -48.892900,-8.556500,0 -48.894200,-8.556200,0 -48.894600,-8.555100,0 -48.894000,-8.553500,0 -48.895000,-8.553300,0 -48.896700,-8.556900,0 -48.898100,-8.556700,0 -48.897300,-8.553600,0 -48.899100,-8.553700,0 -48.901100,-8.550800,0 -48.902500,-8.550300,0 -48.902300,-8.552500,0 -48.903500,-8.553700,0 -48.904600,-8.551500,0 -48.906100,-8.550900,0 -48.907000,-8.549400,0 -48.905200,-8.546600,0 -48.901600,-8.545400,0 -48.900600,-8.542200,0 -48.899600,-8.540900,0 -48.897900,-8.540400,0 -48.901500,-8.538400,0 -48.902200,-8.539500,0 -48.906000,-8.539600,0 -48.906400,-8.537400,0 -48.909000,-8.536100,0 -48.907800,-8.534200,0 -48.908000,-8.532400,0 -48.909000,-8.531000,0 -48.909400,-8.528500,0 -48.910000,-8.528100,0 -48.910000,-8.525800,0 -48.909300,-8.525000,0 -48.909700,-8.522100,0 -48.912300,-8.521100,0 -48.914200,-8.520000,0 -48.914300,-8.516300,0 -48.912400,-8.515800,0 -48.912700,-8.513400,0 -48.911700,-8.511800,0 -48.912000,-8.509100,0 -48.912500,-8.508700,0 -48.915100,-8.509600,0 -48.919800,-8.506800,0 -48.919100,-8.504700,0 -48.919300,-8.502600,0 -48.918500,-8.500900,0 -48.917900,-8.496500,0 -48.917300,-8.495300,0 -48.857100,-8.430100,0 -48.851300,-8.417100,0 -48.840300,-8.391300,0 -48.830900,-8.368500,0 -48.820900,-8.341500,0 -48.789300,-8.262500,0 -48.773600,-8.224700,0 -48.760400,-8.190900,0 -48.703000,-8.218600,0 -48.701900,-8.216900,0 -48.703400,-8.214300,0 -48.701900,-8.214100,0 -48.700100,-8.211600,0 -48.700000,-8.209600,0 -48.700800,-8.209000,0 -48.701900,-8.210900,0 -48.702800,-8.209700,0 -48.704700,-8.208700,0 -48.704600,-8.207400,0 -48.706200,-8.206700,0 -48.707200,-8.204700,0 -48.708000,-8.204200,0 -48.710200,-8.200800,0 -48.710800,-8.199000,0 -48.710300,-8.197200,0 -48.710500,-8.195000,0 -48.711200,-8.193000,0 -48.709400,-8.192700,0 -48.708500,-8.191700,0 -48.706200,-8.190900,0 -48.707900,-8.189400,0 -48.707500,-8.188300,0 -48.709000,-8.186900,0 -48.709400,-8.184200,0 -48.711400,-8.184500,0 -48.712400,-8.182400,0 -48.714300,-8.182500,0 -48.716600,-8.180300,0 -48.720200,-8.178500,0 -48.722600,-8.178000,0 -48.722900,-8.179600,0 -48.726700,-8.180300,0 -48.727800,-8.182600,0 -48.728800,-8.181700,0 -48.730500,-8.181400,0 -48.731600,-8.179900,0 -48.734000,-8.179300,0 -48.735000,-8.178400,0 -48.735200,-8.175300,0 -48.734900,-8.174400,0 -48.732700,-8.172100,0 -48.734300,-8.168600,0 -48.737100,-8.169000,0 -48.739600,-8.166200,0 -48.740500,-8.163200,0 -48.741500,-8.162500,0 -48.742400,-8.160300,0 -48.740800,-8.159800,0 -48.742600,-8.156300,0 -48.741600,-8.154800,0 -48.743500,-8.154000,0 -48.744800,-8.151800,0 -48.742200,-8.149800,0 -48.740500,-8.150000,0 -48.739100,-8.149000,0 -48.739700,-8.146100,0 -48.741500,-8.147800,0 -48.742200,-8.147500,0 -48.742900,-8.144700,0 -48.745500,-8.146300,0 -48.746900,-8.147900,0 -48.748800,-8.147300,0 -48.751300,-8.149400,0 -48.753100,-8.150300,0 -48.754600,-8.150100,0 -48.755800,-8.149000,0 -48.755100,-8.147500,0 -48.754000,-8.147700,0 -48.753100,-8.146200,0 -48.754400,-8.142500,0 -48.756000,-8.142000,0 -48.756100,-8.137200,0 -48.757700,-8.135200,0 -48.757900,-8.133300,0 -48.759000,-8.131800,0 -48.759500,-8.129800,0 -48.760800,-8.126500,0 -48.761000,-8.125000,0 -48.762200,-8.125000,0 -48.762500,-8.126400,0 -48.764300,-8.126900,0 -48.766000,-8.126800,0 -48.765500,-8.125300,0 -48.766800,-8.124500,0 -48.767300,-8.123100,0 -48.766800,-8.119600,0 -48.764000,-8.121000,0 -48.762900,-8.119400,0 -48.762800,-8.115600,0 -48.763900,-8.115000,0 -48.764100,-8.113200,0 -48.765400,-8.110700,0 -48.766800,-8.110800,0 -48.766300,-8.112400,0 -48.767700,-8.112800,0 -48.767500,-8.114000,0 -48.769100,-8.114600,0 -48.771700,-8.113300,0 -48.774300,-8.110600,0 -48.775800,-8.111200,0 -48.777300,-8.112900,0 -48.776800,-8.114100,0 -48.774200,-8.116100,0 -48.773700,-8.117000,0 -48.774700,-8.119600,0 -48.776700,-8.120700,0 -48.777900,-8.119300,0 -48.779600,-8.116000,0 -48.779900,-8.113600,0 -48.781700,-8.113700,0 -48.782200,-8.112300,0 -48.783100,-8.111800,0 -48.783600,-8.110100,0 -48.783200,-8.107900,0 -48.784200,-8.104900,0 -48.784000,-8.101700,0 -48.785500,-8.099600,0 -48.786000,-8.097500,0 -48.786200,-8.099500,0 -48.786800,-8.100600,0 -48.788500,-8.101400,0 -48.789400,-8.102500,0 -48.792200,-8.104200,0 -48.793700,-8.104100,0 -48.796600,-8.106600,0 -48.799600,-8.107700,0 -48.803600,-8.111800,0 -48.805800,-8.112200,0 -48.806100,-8.116200,0 -48.808200,-8.118800,0 -48.808600,-8.120900,0 -48.811200,-8.124100,0 -48.811500,-8.125000,0 -48.814200,-8.121200,0 -48.815200,-8.122900,0 -48.814600,-8.124200,0 -48.817700,-8.128000,0 -48.818100,-8.129200,0 -48.820600,-8.130500,0 -48.823100,-8.130500,0 -48.823600,-8.129600,0 -48.827300,-8.126700,0 -48.829300,-8.127600,0 -48.832400,-8.127900,0 -48.833800,-8.128400,0 -48.839300,-8.132000,0 -48.841600,-8.132700,0 -48.844100,-8.132300,0 -48.846600,-8.130800,0 -48.848000,-8.130400,0 -48.849300,-8.128800,0 -48.852600,-8.125700,0 -48.853900,-8.125200,0 -48.855300,-8.123600,0 -48.856700,-8.118300,0 -48.858700,-8.114900,0 -48.859800,-8.114500,0 -48.861100,-8.112500,0 -48.864200,-8.112100,0 -48.867600,-8.113100,0 -48.868800,-8.114400,0 -48.870700,-8.113700,0 -48.872400,-8.114100,0 -48.873500,-8.113700,0 -48.876800,-8.111100,0 -48.878000,-8.111000,0 -48.881200,-8.107900,0 -48.883500,-8.108600,0 -48.886100,-8.107800,0 -48.887400,-8.108200,0 -48.888700,-8.106600,0 -48.891500,-8.104600,0 -48.893900,-8.104900,0 -48.895900,-8.103500,0 -48.897600,-8.103600,0 -48.898100,-8.104300,0 -48.899600,-8.104100,0 -48.903600,-8.105700,0 -48.905900,-8.108200,0 -48.906100,-8.111600,0 -48.907400,-8.112900,0 -48.915200,-8.113900,0 -48.917200,-8.113900,0 -48.918500,-8.113200,0 -48.921000,-8.113100,0 -48.923800,-8.111800,0 -48.926100,-8.112600,0 -48.928300,-8.114900,0 -48.930200,-8.115600,0 -48.931700,-8.115200,0 -48.933100,-8.113600,0 -48.933600,-8.111800,0 -48.933200,-8.107400,0 -48.937000,-8.107800,0 -48.938000,-8.107200,0 -48.939400,-8.104900,0 -48.940900,-8.103400,0 -48.943000,-8.103200,0 -48.945700,-8.104200,0 -48.949000,-8.104600,0 -48.952200,-8.103600,0 -48.953300,-8.103700,0 -48.954200,-8.105700,0 -48.956400,-8.107800,0 -48.958300,-8.108500,0 -48.959900,-8.109800,0 -48.962900,-8.107600,0 -48.964300,-8.108400,0 -48.965400,-8.108200,0 -48.967400,-8.106700,0 -48.967900,-8.105600,0 -48.969400,-8.105800,0 -48.971800,-8.105300,0 -48.974600,-8.105600,0 -48.976500,-8.106600,0 -48.979100,-8.106300,0 -48.981700,-8.102900,0 -48.983800,-8.102900,0 -48.984700,-8.102300,0 -48.984800,-8.100500,0 -48.985800,-8.099100,0 -48.987900,-8.097600,0 -48.990800,-8.096200,0 -48.991700,-8.094400,0 -48.993300,-8.093800,0 -48.993600,-8.091300,0 -48.996000,-8.090600,0 -48.996200,-8.089000,0 -48.995200,-8.087100,0 -48.996300,-8.084800,0 -48.998300,-8.085100,0 -48.998600,-8.086400,0 -49.000300,-8.086000,0 -49.001500,-8.086500,0 -49.003600,-8.084200,0 -49.004900,-8.084200,0 -49.006400,-8.083300,0 -49.008300,-8.084200,0 -49.009900,-8.084200,0 -49.008100,-8.088300,0 -49.007900,-8.089800,0 -49.008400,-8.091300,0 -49.006300,-8.093800,0 -49.003200,-8.095800,0 -49.002100,-8.096000,0 -49.001900,-8.097500,0 -49.000600,-8.098300,0 -48.999200,-8.099800,0 -48.998600,-8.101400,0 -48.997200,-8.100600,0 -48.995900,-8.101400,0 -48.993700,-8.104100,0 -48.992600,-8.103700,0 -48.990700,-8.104600,0 -48.988100,-8.106600,0 -48.988300,-8.110500,0 -48.989000,-8.111400,0 -48.987200,-8.112500,0 -48.987700,-8.116200,0 -48.988600,-8.116800,0 -48.988800,-8.118600,0 -48.986300,-8.118700,0 -48.985900,-8.121000,0 -48.986100,-8.122600,0 -48.984600,-8.123800,0 -48.987200,-8.126500,0 -48.985400,-8.130900,0 -48.987100,-8.130900,0 -48.987600,-8.131700,0 -48.986800,-8.133200,0 -48.987200,-8.134200,0 -48.984900,-8.135300,0 -48.984800,-8.137900,0 -48.987400,-8.140900,0 -48.987800,-8.143900,0 -48.990000,-8.144900,0 -48.990500,-8.144400,0 -48.992400,-8.146200,0 -48.993200,-8.147800,0 -48.994800,-8.148000,0 -48.995600,-8.147200,0 -48.996500,-8.149300,0 -48.996300,-8.151000,0 -48.997900,-8.154200,0 -48.997700,-8.155500,0 -48.995800,-8.155100,0 -48.995200,-8.157200,0 -48.992400,-8.158700,0 -48.992800,-8.162000,0 -48.992000,-8.163600,0 -48.991700,-8.165500,0 -48.992700,-8.167100,0 -48.992700,-8.170400,0 -48.992300,-8.171200,0 -48.993000,-8.173100,0 -48.994500,-8.173200,0 -48.994000,-8.174900,0 -48.992900,-8.175300,0 -48.992400,-8.176500,0 -48.993100,-8.177300,0 -48.992500,-8.178800,0 -48.990600,-8.178400,0 -48.989100,-8.177500,0 -48.987900,-8.177800,0 -48.987200,-8.179000,0 -48.984900,-8.178900,0 -48.985500,-8.181800,0 -48.984000,-8.183000,0 -48.983900,-8.184000,0 -48.982000,-8.185100,0 -48.981500,-8.186400,0 -48.981900,-8.187600,0 -48.980900,-8.190200,0 -48.978600,-8.191700,0 -48.978100,-8.192800,0</coordinates></LineString></Placemark>
</Folder>
<Folder><name>LD02022033PQ — de LD02022033 (153 trechos · 8.2 km)</name>
<Placemark><name>T1</name><styleUrl>#stT1</styleUrl><LineString><tessellate>1</tessellate><coordinates>-48.924700,-8.606090,0 -48.926130,-8.604810,0</coordinates></LineString></Placemark>
<Placemark><name>T1</name><styleUrl>#stT1</styleUrl><LineString><tessellate>1</tessellate><coordinates>-48.926130,-8.604810,0 -48.926120,-8.604800,0</coordinates></LineString></Placemark>
<Placemark><name>T1</name><styleUrl>#stT1</styleUrl><LineString><tessellate>1</tessellate><coordinates>-48.926130,-8.604810,0 -48.927440,-8.603680,0</coordinates></LineString></Placemark>
<Placemark><name>T1</name><styleUrl>#stT1</styleUrl><LineString><tessellate>1</tessellate><coordinates>-48.926120,-8.604800,0 -48.926100,-8.604780,0</coordinates></LineString></Placemark>
<Placemark><name>T1</name><styleUrl>#stT1</styleUrl><LineString><tessellate>1</tessellate><coordinates>-48.927440,-8.603680,0 -48.927340,-8.603510,0</coordinates></LineString></Placemark>
<Placemark><name>T1</name><styleUrl>#stT1</styleUrl><LineString><tessellate>1</tessellate><coordinates>-48.927440,-8.603680,0 -48.927560,-8.603580,0</coordinates></LineString></Placemark>
<Placemark><name>T1</name><styleUrl>#stT1</styleUrl><LineString><tessellate>1</tessellate><coordinates>-48.927440,-8.603680,0 -48.927480,-8.603820,0</coordinates></LineString></Placemark>
<Placemark><name>T1</name><styleUrl>#stT1</styleUrl><LineString><tessellate>1</tessellate><coordinates>-48.927340,-8.603510,0 -48.927300,-8.603510,0</coordinates></LineString></Placemark>
<Placemark><name>T1</name><styleUrl>#stT1</styleUrl><LineString><tessellate>1</tessellate><coordinates>-48.927560,-8.603580,0 -48.927570,-8.603590,0</coordinates></LineString></Placemark>
<Placemark><name>T1</name><styleUrl>#stT1</styleUrl><LineString><tessellate>1</tessellate><coordinates>-48.927560,-8.603580,0 -48.928710,-8.602530,0</coordinates></LineString></Placemark>
<Placemark><name>T1</name><styleUrl>#stT1</styleUrl><LineString><tessellate>1</tessellate><coordinates>-48.927560,-8.603580,0 -48.927540,-8.603570,0</coordinates></LineString></Placemark>
<Placemark><name>T1</name><styleUrl>#stT1</styleUrl><LineString><tessellate>1</tessellate><coordinates>-48.927570,-8.603590,0 -48.927590,-8.603600,0</coordinates></LineString></Placemark>
<Placemark><name>T1</name><styleUrl>#stT1</styleUrl><LineString><tessellate>1</tessellate><coordinates>-48.928710,-8.602530,0 -48.928730,-8.602510,0</coordinates></LineString></Placemark>
<Placemark><name>T1</name><styleUrl>#stT1</styleUrl><LineString><tessellate>1</tessellate><coordinates>-48.928710,-8.602530,0 -48.928750,-8.602540,0</coordinates></LineString></Placemark>
<Placemark><name>T1</name><styleUrl>#stT1</styleUrl><LineString><tessellate>1</tessellate><coordinates>-48.928730,-8.602510,0 -48.930640,-8.600780,0</coordinates></LineString></Placemark>
<Placemark><name>T1</name><styleUrl>#stT1</styleUrl><LineString><tessellate>1</tessellate><coordinates>-48.930640,-8.600780,0 -48.930670,-8.600760,0</coordinates></LineString></Placemark>
<Placemark><name>T1</name><styleUrl>#stT1</styleUrl><LineString><tessellate>1</tessellate><coordinates>-48.930640,-8.600780,0 -48.930680,-8.600800,0</coordinates></LineString></Placemark>
<Placemark><name>T1</name><styleUrl>#stT1</styleUrl><LineString><tessellate>1</tessellate><coordinates>-48.930670,-8.600760,0 -48.931300,-8.600220,0</coordinates></LineString></Placemark>
<Placemark><name>T1</name><styleUrl>#stT1</styleUrl><LineString><tessellate>1</tessellate><coordinates>-48.932040,-8.599120,0 -48.932380,-8.599080,0</coordinates></LineString></Placemark>
<Placemark><name>T1</name><styleUrl>#stT1</styleUrl><LineString><tessellate>1</tessellate><coordinates>-48.932380,-8.599080,0 -48.932410,-8.599110,0</coordinates></LineString></Placemark>
<Placemark><name>T1</name><styleUrl>#stT1</styleUrl><LineString><tessellate>1</tessellate><coordinates>-48.932040,-8.599120,0 -48.931930,-8.599130,0</coordinates></LineString></Placemark>
<Placemark><name>T1</name><styleUrl>#stT1</styleUrl><LineString><tessellate>1</tessellate><coordinates>-48.932090,-8.599520,0 -48.932040,-8.599120,0</coordinates></LineString></Placemark>
<Placemark><name>T1</name><styleUrl>#stT1</styleUrl><LineString><tessellate>1</tessellate><coordinates>-48.932040,-8.599120,0 -48.932030,-8.598970,0</coordinates></LineString></Placemark>
<Placemark><name>T1</name><styleUrl>#stT1</styleUrl><LineString><tessellate>1</tessellate><coordinates>-48.932080,-8.599530,0 -48.932090,-8.599520,0</coordinates></LineString></Placemark>
<Placemark><name>T1</name><styleUrl>#stT1</styleUrl><LineString><tessellate>1</tessellate><coordinates>-48.932090,-8.599520,0 -48.932130,-8.599790,0</coordinates></LineString></Placemark>
<Placemark><name>T1</name><styleUrl>#stT1</styleUrl><LineString><tessellate>1</tessellate><coordinates>-48.931680,-8.599900,0 -48.932080,-8.599530,0</coordinates></LineString></Placemark>
<Placemark><name>T1</name><styleUrl>#stT1</styleUrl><LineString><tessellate>1</tessellate><coordinates>-48.931680,-8.599900,0 -48.931690,-8.599920,0</coordinates></LineString></Placemark>
<Placemark><name>T1</name><styleUrl>#stT1</styleUrl><LineString><tessellate>1</tessellate><coordinates>-48.931340,-8.600190,0 -48.931680,-8.599900,0</coordinates></LineString></Placemark>
<Placemark><name>T1</name><styleUrl>#stT1</styleUrl><LineString><tessellate>1</tessellate><coordinates>-48.931690,-8.599920,0 -48.931800,-8.600130,0</coordinates></LineString></Placemark>
<Placemark><name>T1</name><styleUrl>#stT1</styleUrl><LineString><tessellate>1</tessellate><coordinates>-48.925630,-8.600530,0 -48.925290,-8.599830,0</coordinates></LineString></Placemark>
<Placemark><name>T1</name><styleUrl>#stT1</styleUrl><LineString><tessellate>1</tessellate><coordinates>-48.925290,-8.599830,0 -48.925250,-8.599750,0</coordinates></LineString></Placemark>
<Placemark><name>T1</name><styleUrl>#stT1</styleUrl><LineString><tessellate>1</tessellate><coordinates>-48.925290,-8.599830,0 -48.926440,-8.599290,0</coordinates></LineString></Placemark>
<Placemark><name>T1</name><styleUrl>#stT1</styleUrl><LineString><tessellate>1</tessellate><coordinates>-48.925290,-8.599830,0 -48.925230,-8.599840,0</coordinates></LineString></Placemark>
<Placemark><name>T1</name><styleUrl>#stT1</styleUrl><LineString><tessellate>1</tessellate><coordinates>-48.925640,-8.600560,0 -48.925630,-8.600530,0</coordinates></LineString></Placemark>
<Placemark><name>T1</name><styleUrl>#stT1</styleUrl><LineString><tessellate>1</tessellate><coordinates>-48.925250,-8.599750,0 -48.925240,-8.599740,0</coordinates></LineString></Placemark>
<Placemark><name>T1</name><styleUrl>#stT1</styleUrl><LineString><tessellate>1</tessellate><coordinates>-48.926440,-8.599290,0 -48.926770,-8.599210,0</coordinates></LineString></Placemark>
<Placemark><name>T1</name><styleUrl>#stT1</styleUrl><LineString><tessellate>1</tessellate><coordinates>-48.927160,-8.603140,0 -48.925640,-8.600560,0</coordinates></LineString></Placemark>
<Placemark><name>T1</name><styleUrl>#stT1</styleUrl><LineString><tessellate>1</tessellate><coordinates>-48.925640,-8.600560,0 -48.925670,-8.600520,0</coordinates></LineString></Placemark>
<Placemark><name>T1</name><styleUrl>#stT1</styleUrl><LineString><tessellate>1</tessellate><coordinates>-48.926770,-8.599210,0 -48.926800,-8.599200,0</coordinates></LineString></Placemark>
<Placemark><name>T1</name><styleUrl>#stT1</styleUrl><LineString><tessellate>1</tessellate><coordinates>-48.927180,-8.603170,0 -48.927160,-8.603140,0</coordinates></LineString></Placemark>
<Placemark><name>T1</name><styleUrl>#stT1</styleUrl><LineString><tessellate>1</tessellate><coordinates>-48.926800,-8.599200,0 -48.927890,-8.599020,0</coordinates></LineString></Placemark>
<Placemark><name>T1</name><styleUrl>#stT1</styleUrl><LineString><tessellate>1</tessellate><coordinates>-48.927180,-8.603170,0 -48.927140,-8.603170,0</coordinates></LineString></Placemark>
<Placemark><name>T1</name><styleUrl>#stT1</styleUrl><LineString><tessellate>1</tessellate><coordinates>-48.927320,-8.603470,0 -48.927180,-8.603170,0</coordinates></LineString></Placemark>
<Placemark><name>T1</name><styleUrl>#stT1</styleUrl><LineString><tessellate>1</tessellate><coordinates>-48.927890,-8.599020,0 -48.928150,-8.598990,0</coordinates></LineString></Placemark>
<Placemark><name>T1</name><styleUrl>#stT1</styleUrl><LineString><tessellate>1</tessellate><coordinates>-48.927550,-8.603440,0 -48.927590,-8.601840,0</coordinates></LineString></Placemark>
<Placemark><name>T1</name><styleUrl>#stT1</styleUrl><LineString><tessellate>1</tessellate><coordinates>-48.931830,-8.600220,0 -48.932460,-8.601670,0</coordinates></LineString></Placemark>
<Placemark><name>T1</name><styleUrl>#stT1</styleUrl><LineString><tessellate>1</tessellate><coordinates>-48.932380,-8.599080,0 -48.932400,-8.599060,0</coordinates></LineString></Placemark>
<Placemark><name>T1</name><styleUrl>#stT1</styleUrl><LineString><tessellate>1</tessellate><coordinates>-48.925230,-8.599710,0 -48.925110,-8.599490,0</coordinates></LineString></Placemark>
<Placemark><name>T1</name><styleUrl>#stT1</styleUrl><LineString><tessellate>1</tessellate><coordinates>-48.932490,-8.601660,0 -48.933280,-8.601430,0</coordinates></LineString></Placemark>
<Placemark><name>T1</name><styleUrl>#stT1</styleUrl><LineString><tessellate>1</tessellate><coordinates>-48.932420,-8.599060,0 -48.932440,-8.599070,0</coordinates></LineString></Placemark>
<Placemark><name>T1</name><styleUrl>#stT1</styleUrl><LineString><tessellate>1</tessellate><coordinates>-48.932440,-8.599070,0 -48.932410,-8.599100,0</coordinates></LineString></Placemark>
<Placemark><name>T1</name><styleUrl>#stT1</styleUrl><LineString><tessellate>1</tessellate><coordinates>-48.932440,-8.599070,0 -48.932960,-8.599010,0</coordinates></LineString></Placemark>
<Placemark><name>T1</name><styleUrl>#stT1</styleUrl><LineString><tessellate>1</tessellate><coordinates>-48.933190,-8.598990,0 -48.933200,-8.599080,0</coordinates></LineString></Placemark>
<Placemark><name>T1</name><styleUrl>#stT1</styleUrl><LineString><tessellate>1</tessellate><coordinates>-48.932990,-8.599010,0 -48.933190,-8.598990,0</coordinates></LineString></Placemark>
<Placemark><name>T1</name><styleUrl>#stT1</styleUrl><LineString><tessellate>1</tessellate><coordinates>-48.933190,-8.598990,0 -48.933130,-8.598420,0</coordinates></LineString></Placemark>
<Placemark><name>T1</name><styleUrl>#stT1</styleUrl><LineString><tessellate>1</tessellate><coordinates>-48.933190,-8.598990,0 -48.933270,-8.598980,0</coordinates></LineString></Placemark>
<Placemark><name>T1</name><styleUrl>#stT1</styleUrl><LineString><tessellate>1</tessellate><coordinates>-48.933270,-8.598980,0 -48.933290,-8.598980,0</coordinates></LineString></Placemark>
<Placemark><name>T1</name><styleUrl>#stT1</styleUrl><LineString><tessellate>1</tessellate><coordinates>-48.933290,-8.598980,0 -48.933240,-8.598490,0</coordinates></LineString></Placemark>
<Placemark><name>T1</name><styleUrl>#stT1</styleUrl><LineString><tessellate>1</tessellate><coordinates>-48.933290,-8.598980,0 -48.933320,-8.599170,0</coordinates></LineString></Placemark>
<Placemark><name>T1</name><styleUrl>#stT1</styleUrl><LineString><tessellate>1</tessellate><coordinates>-48.933240,-8.598490,0 -48.933260,-8.598490,0</coordinates></LineString></Placemark>
<Placemark><name>T1</name><styleUrl>#stT1</styleUrl><LineString><tessellate>1</tessellate><coordinates>-48.933240,-8.598490,0 -48.933240,-8.598340,0</coordinates></LineString></Placemark>
<Placemark><name>T1</name><styleUrl>#stT1</styleUrl><LineString><tessellate>1</tessellate><coordinates>-48.933260,-8.598490,0 -48.934040,-8.598460,0</coordinates></LineString></Placemark>
<Placemark><name>T1</name><styleUrl>#stT1</styleUrl><LineString><tessellate>1</tessellate><coordinates>-48.934040,-8.598460,0 -48.934070,-8.598440,0</coordinates></LineString></Placemark>
<Placemark><name>T1</name><styleUrl>#stT1</styleUrl><LineString><tessellate>1</tessellate><coordinates>-48.934070,-8.598440,0 -48.934170,-8.598310,0</coordinates></LineString></Placemark>
<Placemark><name>T1</name><styleUrl>#stT1</styleUrl><LineString><tessellate>1</tessellate><coordinates>-48.934170,-8.598310,0 -48.934180,-8.598290,0</coordinates></LineString></Placemark>
<Placemark><name>T1</name><styleUrl>#stT1</styleUrl><LineString><tessellate>1</tessellate><coordinates>-48.934180,-8.598290,0 -48.934200,-8.598490,0</coordinates></LineString></Placemark>
<Placemark><name>T1</name><styleUrl>#stT1</styleUrl><LineString><tessellate>1</tessellate><coordinates>-48.934180,-8.598290,0 -48.934090,-8.597470,0</coordinates></LineString></Placemark>
<Placemark><name>T1</name><styleUrl>#stT1</styleUrl><LineString><tessellate>1</tessellate><coordinates>-48.934090,-8.597470,0 -48.934320,-8.597420,0</coordinates></LineString></Placemark>
<Placemark><name>T1</name><styleUrl>#stT1</styleUrl><LineString><tessellate>1</tessellate><coordinates>-48.934090,-8.597470,0 -48.933980,-8.597490,0</coordinates></LineString></Placemark>
<Placemark><name>T1</name><styleUrl>#stT1</styleUrl><LineString><tessellate>1</tessellate><coordinates>-48.934090,-8.597470,0 -48.934060,-8.597280,0</coordinates></LineString></Placemark>
<Placemark><name>T1</name><styleUrl>#stT1</styleUrl><LineString><tessellate>1</tessellate><coordinates>-48.934060,-8.597280,0 -48.934060,-8.597250,0</coordinates></LineString></Placemark>
<Placemark><name>T1</name><styleUrl>#stT1</styleUrl><LineString><tessellate>1</tessellate><coordinates>-48.933320,-8.591150,0 -48.932990,-8.591190,0</coordinates></LineString></Placemark>
<Placemark><name>T1</name><styleUrl>#stT1</styleUrl><LineString><tessellate>1</tessellate><coordinates>-48.933390,-8.591750,0 -48.933320,-8.591150,0</coordinates></LineString></Placemark>
<Placemark><name>T1</name><styleUrl>#stT1</styleUrl><LineString><tessellate>1</tessellate><coordinates>-48.933320,-8.591150,0 -48.933370,-8.591150,0</coordinates></LineString></Placemark>
<Placemark><name>T1</name><styleUrl>#stT1</styleUrl><LineString><tessellate>1</tessellate><coordinates>-48.933320,-8.591150,0 -48.933280,-8.590690,0</coordinates></LineString></Placemark>
<Placemark><name>T1</name><styleUrl>#stT1</styleUrl><LineString><tessellate>1</tessellate><coordinates>-48.932990,-8.591190,0 -48.932940,-8.590630,0</coordinates></LineString></Placemark>
<Placemark><name>T1</name><styleUrl>#stT1</styleUrl><LineString><tessellate>1</tessellate><coordinates>-48.932990,-8.591190,0 -48.932900,-8.591200,0</coordinates></LineString></Placemark>
<Placemark><name>T1</name><styleUrl>#stT1</styleUrl><LineString><tessellate>1</tessellate><coordinates>-48.932990,-8.591190,0 -48.933030,-8.591300,0</coordinates></LineString></Placemark>
<Placemark><name>T1</name><styleUrl>#stT1</styleUrl><LineString><tessellate>1</tessellate><coordinates>-48.933670,-8.594040,0 -48.933390,-8.591750,0</coordinates></LineString></Placemark>
<Placemark><name>T1</name><styleUrl>#stT1</styleUrl><LineString><tessellate>1</tessellate><coordinates>-48.933280,-8.590690,0 -48.933280,-8.590650,0</coordinates></LineString></Placemark>
<Placemark><name>T1</name><styleUrl>#stT1</styleUrl><LineString><tessellate>1</tessellate><coordinates>-48.933030,-8.591300,0 -48.933030,-8.591330,0</coordinates></LineString></Placemark>
<Placemark><name>T1</name><styleUrl>#stT1</styleUrl><LineString><tessellate>1</tessellate><coordinates>-48.933670,-8.594040,0 -48.933800,-8.594020,0</coordinates></LineString></Placemark>
<Placemark><name>T1</name><styleUrl>#stT1</styleUrl><LineString><tessellate>1</tessellate><coordinates>-48.933760,-8.594720,0 -48.933670,-8.594040,0</coordinates></LineString></Placemark>
<Placemark><name>T1</name><styleUrl>#stT1</styleUrl><LineString><tessellate>1</tessellate><coordinates>-48.933670,-8.594040,0 -48.933230,-8.594100,0</coordinates></LineString></Placemark>
<Placemark><name>T1</name><styleUrl>#stT1</styleUrl><LineString><tessellate>1</tessellate><coordinates>-48.933280,-8.590650,0 -48.933000,-8.588620,0</coordinates></LineString></Placemark>
<Placemark><name>T1</name><styleUrl>#stT1</styleUrl><LineString><tessellate>1</tessellate><coordinates>-48.933030,-8.591330,0 -48.933090,-8.592000,0</coordinates></LineString></Placemark>
<Placemark><name>T1</name><styleUrl>#stT1</styleUrl><LineString><tessellate>1</tessellate><coordinates>-48.934050,-8.597200,0 -48.933760,-8.594720,0</coordinates></LineString></Placemark>
<Placemark><name>T1</name><styleUrl>#stT1</styleUrl><LineString><tessellate>1</tessellate><coordinates>-48.933000,-8.588620,0 -48.932950,-8.588300,0</coordinates></LineString></Placemark>
<Placemark><name>T1</name><styleUrl>#stT1</styleUrl><LineString><tessellate>1</tessellate><coordinates>-48.933090,-8.592000,0 -48.933110,-8.592210,0</coordinates></LineString></Placemark>
<Placemark><name>T1</name><styleUrl>#stT1</styleUrl><LineString><tessellate>1</tessellate><coordinates>-48.933270,-8.599630,0 -48.933370,-8.600530,0</coordinates></LineString></Placemark>
<Placemark><name>T1</name><styleUrl>#stT1</styleUrl><LineString><tessellate>1</tessellate><coordinates>-48.933210,-8.599120,0 -48.933270,-8.599630,0</coordinates></LineString></Placemark>
<Placemark><name>T1</name><styleUrl>#stT1</styleUrl><LineString><tessellate>1</tessellate><coordinates>-48.935710,-8.597130,0 -48.936980,-8.596860,0</coordinates></LineString></Placemark>
<Placemark><name>T1</name><styleUrl>#stT1</styleUrl><LineString><tessellate>1</tessellate><coordinates>-48.936980,-8.596860,0 -48.937170,-8.596820,0</coordinates></LineString></Placemark>
<Placemark><name>T1</name><styleUrl>#stT1</styleUrl><LineString><tessellate>1</tessellate><coordinates>-48.934360,-8.597410,0 -48.935710,-8.597130,0</coordinates></LineString></Placemark>
<Placemark><name>T1</name><styleUrl>#stT1</styleUrl><LineString><tessellate>1</tessellate><coordinates>-48.937170,-8.596820,0 -48.937210,-8.596850,0</coordinates></LineString></Placemark>
<Placemark><name>T1</name><styleUrl>#stT1</styleUrl><LineString><tessellate>1</tessellate><coordinates>-48.931370,-8.588520,0 -48.931930,-8.588170,0</coordinates></LineString></Placemark>
<Placemark><name>T1</name><styleUrl>#stT1</styleUrl><LineString><tessellate>1</tessellate><coordinates>-48.931930,-8.588170,0 -48.932220,-8.587990,0</coordinates></LineString></Placemark>
<Placemark><name>T1</name><styleUrl>#stT1</styleUrl><LineString><tessellate>1</tessellate><coordinates>-48.931340,-8.588530,0 -48.931370,-8.588520,0</coordinates></LineString></Placemark>
<Placemark><name>T1</name><styleUrl>#stT1</styleUrl><LineString><tessellate>1</tessellate><coordinates>-48.932220,-8.587990,0 -48.932240,-8.587980,0</coordinates></LineString></Placemark>
<Placemark><name>T1</name><styleUrl>#stT1</styleUrl><LineString><tessellate>1</tessellate><coordinates>-48.931290,-8.588620,0 -48.931340,-8.588530,0</coordinates></LineString></Placemark>
<Placemark><name>T1</name><styleUrl>#stT1</styleUrl><LineString><tessellate>1</tessellate><coordinates>-48.932240,-8.587980,0 -48.932490,-8.587820,0</coordinates></LineString></Placemark>
<Placemark><name>T1</name><styleUrl>#stT1</styleUrl><LineString><tessellate>1</tessellate><coordinates>-48.931290,-8.588620,0 -48.931240,-8.588570,0</coordinates></LineString></Placemark>
<Placemark><name>T1</name><styleUrl>#stT1</styleUrl><LineString><tessellate>1</tessellate><coordinates>-48.932350,-8.589700,0 -48.931290,-8.588620,0</coordinates></LineString></Placemark>
<Placemark><name>T1</name><styleUrl>#stT1</styleUrl><LineString><tessellate>1</tessellate><coordinates>-48.931290,-8.588620,0 -48.931080,-8.588820,0</coordinates></LineString></Placemark>
<Placemark><name>T1</name><styleUrl>#stT1</styleUrl><LineString><tessellate>1</tessellate><coordinates>-48.932490,-8.587820,0 -48.932510,-8.587820,0</coordinates></LineString></Placemark>
<Placemark><name>T1</name><styleUrl>#stT1</styleUrl><LineString><tessellate>1</tessellate><coordinates>-48.932930,-8.590590,0 -48.932350,-8.589700,0</coordinates></LineString></Placemark>
<Placemark><name>T1</name><styleUrl>#stT1</styleUrl><LineString><tessellate>1</tessellate><coordinates>-48.932510,-8.587820,0 -48.932540,-8.587840,0</coordinates></LineString></Placemark>
<Placemark><name>T1</name><styleUrl>#stT1</styleUrl><LineString><tessellate>1</tessellate><coordinates>-48.932540,-8.587840,0 -48.932550,-8.587860,0</coordinates></LineString></Placemark>
<Placemark><name>T1</name><styleUrl>#stT1</styleUrl><LineString><tessellate>1</tessellate><coordinates>-48.932550,-8.587860,0 -48.932570,-8.588010,0</coordinates></LineString></Placemark>
<Placemark><name>T1</name><styleUrl>#stT1</styleUrl><LineString><tessellate>1</tessellate><coordinates>-48.932550,-8.587860,0 -48.932260,-8.585880,0</coordinates></LineString></Placemark>
<Placemark><name>T1</name><styleUrl>#stT1</styleUrl><LineString><tessellate>1</tessellate><coordinates>-48.932260,-8.585880,0 -48.932230,-8.585610,0</coordinates></LineString></Placemark>
<Placemark><name>T1</name><styleUrl>#stT1</styleUrl><LineString><tessellate>1</tessellate><coordinates>-48.932330,-8.598160,0 -48.932320,-8.598190,0</coordinates></LineString></Placemark>
<Placemark><name>T1</name><styleUrl>#stT1</styleUrl><LineString><tessellate>1</tessellate><coordinates>-48.932330,-8.598160,0 -48.932740,-8.597880,0</coordinates></LineString></Placemark>
<Placemark><name>T1</name><styleUrl>#stT1</styleUrl><LineString><tessellate>1</tessellate><coordinates>-48.932240,-8.597390,0 -48.932330,-8.598160,0</coordinates></LineString></Placemark>
<Placemark><name>T1</name><styleUrl>#stT1</styleUrl><LineString><tessellate>1</tessellate><coordinates>-48.932330,-8.598160,0 -48.932370,-8.598480,0</coordinates></LineString></Placemark>
<Placemark><name>T1</name><styleUrl>#stT1</styleUrl><LineString><tessellate>1</tessellate><coordinates>-48.932740,-8.597880,0 -48.932950,-8.597720,0</coordinates></LineString></Placemark>
<Placemark><name>T1</name><styleUrl>#stT1</styleUrl><LineString><tessellate>1</tessellate><coordinates>-48.932240,-8.597390,0 -48.931120,-8.597520,0</coordinates></LineString></Placemark>
<Placemark><name>T1</name><styleUrl>#stT1</styleUrl><LineString><tessellate>1</tessellate><coordinates>-48.932240,-8.597390,0 -48.932350,-8.597390,0</coordinates></LineString></Placemark>
<Placemark><name>T1</name><styleUrl>#stT1</styleUrl><LineString><tessellate>1</tessellate><coordinates>-48.931980,-8.595320,0 -48.932240,-8.597390,0</coordinates></LineString></Placemark>
<Placemark><name>T1</name><styleUrl>#stT1</styleUrl><LineString><tessellate>1</tessellate><coordinates>-48.931120,-8.597520,0 -48.930880,-8.597550,0</coordinates></LineString></Placemark>
<Placemark><name>T1</name><styleUrl>#stT1</styleUrl><LineString><tessellate>1</tessellate><coordinates>-48.931980,-8.595320,0 -48.931840,-8.595360,0</coordinates></LineString></Placemark>
<Placemark><name>T1</name><styleUrl>#stT1</styleUrl><LineString><tessellate>1</tessellate><coordinates>-48.931980,-8.595320,0 -48.933110,-8.595200,0</coordinates></LineString></Placemark>
<Placemark><name>T1</name><styleUrl>#stT1</styleUrl><LineString><tessellate>1</tessellate><coordinates>-48.931840,-8.594280,0 -48.931980,-8.595320,0</coordinates></LineString></Placemark>
<Placemark><name>T1</name><styleUrl>#stT1</styleUrl><LineString><tessellate>1</tessellate><coordinates>-48.931840,-8.595360,0 -48.931510,-8.595400,0</coordinates></LineString></Placemark>
<Placemark><name>T1</name><styleUrl>#stT1</styleUrl><LineString><tessellate>1</tessellate><coordinates>-48.933110,-8.595200,0 -48.933420,-8.595160,0</coordinates></LineString></Placemark>
<Placemark><name>T1</name><styleUrl>#stT1</styleUrl><LineString><tessellate>1</tessellate><coordinates>-48.931840,-8.594280,0 -48.931350,-8.594340,0</coordinates></LineString></Placemark>
<Placemark><name>T1</name><styleUrl>#stT1</styleUrl><LineString><tessellate>1</tessellate><coordinates>-48.931840,-8.594280,0 -48.931820,-8.594110,0</coordinates></LineString></Placemark>
<Placemark><name>T1</name><styleUrl>#stT1</styleUrl><LineString><tessellate>1</tessellate><coordinates>-48.932230,-8.594220,0 -48.931840,-8.594280,0</coordinates></LineString></Placemark>
<Placemark><name>T1</name><styleUrl>#stT1</styleUrl><LineString><tessellate>1</tessellate><coordinates>-48.933270,-8.594090,0 -48.932230,-8.594220,0</coordinates></LineString></Placemark>
<Placemark><name>T1</name><styleUrl>#stT1</styleUrl><LineString><tessellate>1</tessellate><coordinates>-48.935300,-8.590910,0 -48.935890,-8.590840,0</coordinates></LineString></Placemark>
<Placemark><name>T1</name><styleUrl>#stT1</styleUrl><LineString><tessellate>1</tessellate><coordinates>-48.935300,-8.590910,0 -48.935320,-8.590830,0</coordinates></LineString></Placemark>
<Placemark><name>T1</name><styleUrl>#stT1</styleUrl><LineString><tessellate>1</tessellate><coordinates>-48.935300,-8.590910,0 -48.935290,-8.590940,0</coordinates></LineString></Placemark>
<Placemark><name>T1</name><styleUrl>#stT1</styleUrl><LineString><tessellate>1</tessellate><coordinates>-48.933410,-8.591140,0 -48.935300,-8.590910,0</coordinates></LineString></Placemark>
<Placemark><name>T1</name><styleUrl>#stT1</styleUrl><LineString><tessellate>1</tessellate><coordinates>-48.935890,-8.590840,0 -48.935890,-8.590890,0</coordinates></LineString></Placemark>
<Placemark><name>T1</name><styleUrl>#stT1</styleUrl><LineString><tessellate>1</tessellate><coordinates>-48.935890,-8.590840,0 -48.936050,-8.590820,0</coordinates></LineString></Placemark>
<Placemark><name>T1</name><styleUrl>#stT1</styleUrl><LineString><tessellate>1</tessellate><coordinates>-48.935890,-8.590840,0 -48.935740,-8.589710,0</coordinates></LineString></Placemark>
<Placemark><name>T1</name><styleUrl>#stT1</styleUrl><LineString><tessellate>1</tessellate><coordinates>-48.933260,-8.599630,0 -48.933240,-8.599630,0</coordinates></LineString></Placemark>
<Placemark><name>T1</name><styleUrl>#stT1</styleUrl><LineString><tessellate>1</tessellate><coordinates>-48.937170,-8.596820,0 -48.937200,-8.596800,0</coordinates></LineString></Placemark>
<Placemark><name>T1</name><styleUrl>#stT1</styleUrl><LineString><tessellate>1</tessellate><coordinates>-48.929680,-8.593110,0 -48.929650,-8.593090,0</coordinates></LineString></Placemark>
<Placemark><name>T1</name><styleUrl>#stT1</styleUrl><LineString><tessellate>1</tessellate><coordinates>-48.929650,-8.593090,0 -48.929100,-8.592750,0</coordinates></LineString></Placemark>
<Placemark><name>T1</name><styleUrl>#stT1</styleUrl><LineString><tessellate>1</tessellate><coordinates>-48.931290,-8.594290,0 -48.929680,-8.593110,0</coordinates></LineString></Placemark>
<Placemark><name>T1</name><styleUrl>#stT1</styleUrl><LineString><tessellate>1</tessellate><coordinates>-48.929100,-8.592750,0 -48.929070,-8.592730,0</coordinates></LineString></Placemark>
<Placemark><name>T1</name><styleUrl>#stT1</styleUrl><LineString><tessellate>1</tessellate><coordinates>-48.929100,-8.592750,0 -48.929110,-8.592710,0</coordinates></LineString></Placemark>
<Placemark><name>T1</name><styleUrl>#stT1</styleUrl><LineString><tessellate>1</tessellate><coordinates>-48.935620,-8.593780,0 -48.935690,-8.594310,0</coordinates></LineString></Placemark>
<Placemark><name>T1</name><styleUrl>#stT1</styleUrl><LineString><tessellate>1</tessellate><coordinates>-48.935620,-8.593780,0 -48.936730,-8.593650,0</coordinates></LineString></Placemark>
<Placemark><name>T1</name><styleUrl>#stT1</styleUrl><LineString><tessellate>1</tessellate><coordinates>-48.935550,-8.593170,0 -48.935620,-8.593780,0</coordinates></LineString></Placemark>
<Placemark><name>T1</name><styleUrl>#stT1</styleUrl><LineString><tessellate>1</tessellate><coordinates>-48.935620,-8.593780,0 -48.935510,-8.593810,0</coordinates></LineString></Placemark>
<Placemark><name>T1</name><styleUrl>#stT1</styleUrl><LineString><tessellate>1</tessellate><coordinates>-48.935690,-8.594310,0 -48.935740,-8.594680,0</coordinates></LineString></Placemark>
<Placemark><name>T1</name><styleUrl>#stT1</styleUrl><LineString><tessellate>1</tessellate><coordinates>-48.936730,-8.593650,0 -48.937050,-8.593610,0</coordinates></LineString></Placemark>
<Placemark><name>T1</name><styleUrl>#stT1</styleUrl><LineString><tessellate>1</tessellate><coordinates>-48.935540,-8.593140,0 -48.935550,-8.593170,0</coordinates></LineString></Placemark>
<Placemark><name>T1</name><styleUrl>#stT1</styleUrl><LineString><tessellate>1</tessellate><coordinates>-48.935380,-8.591720,0 -48.935540,-8.593140,0</coordinates></LineString></Placemark>
<Placemark><name>T1</name><styleUrl>#stT1</styleUrl><LineString><tessellate>1</tessellate><coordinates>-48.935290,-8.590980,0 -48.935380,-8.591720,0</coordinates></LineString></Placemark>
<Placemark><name>T2</name><styleUrl>#stT2</styleUrl><LineString><tessellate>1</tessellate><coordinates>-48.932400,-8.599060,0 -48.932410,-8.599060,0</coordinates></LineString></Placemark>
</Folder>
<Folder><name>Postes no traçado (212)</name>
<Placemark><name>123856</name><styleUrl>#stPoste</styleUrl><Point><coordinates>-48.932295,-8.597834,0</coordinates></Point></Placemark>
<Placemark><name>136492</name><styleUrl>#stPoste</styleUrl><Point><coordinates>-48.933369,-8.600530,0</coordinates></Point></Placemark>
<Placemark><name>947162</name><styleUrl>#stPoste</styleUrl><Point><coordinates>-48.930866,-8.597552,0</coordinates></Point></Placemark>
<Placemark><name>948107</name><styleUrl>#stPoste</styleUrl><Point><coordinates>-48.933920,-8.596060,0</coordinates></Point></Placemark>
<Placemark><name>950061</name><styleUrl>#stPoste</styleUrl><Point><coordinates>-48.933560,-8.593087,0</coordinates></Point></Placemark>
<Placemark><name>951394</name><styleUrl>#stPoste</styleUrl><Point><coordinates>-48.931234,-8.588563,0</coordinates></Point></Placemark>
<Placemark><name>951423</name><styleUrl>#stPoste</styleUrl><Point><coordinates>-48.931904,-8.594776,0</coordinates></Point></Placemark>
<Placemark><name>1429029</name><styleUrl>#stPoste</styleUrl><Point><coordinates>-48.925241,-8.599739,0</coordinates></Point></Placemark>
<Placemark><name>1791503</name><styleUrl>#stPoste</styleUrl><Point><coordinates>-48.935565,-8.592126,0</coordinates></Point></Placemark>
<Placemark><name>55912353</name><styleUrl>#stPoste</styleUrl><Point><coordinates>-48.934321,-8.597422,0</coordinates></Point></Placemark>
<Placemark><name>56148413</name><styleUrl>#stPoste</styleUrl><Point><coordinates>-48.933266,-8.599626,0</coordinates></Point></Placemark>
<Placemark><name>123854</name><styleUrl>#stPoste</styleUrl><Point><coordinates>-48.935691,-8.594314,0</coordinates></Point></Placemark>
<Placemark><name>948419</name><styleUrl>#stPoste</styleUrl><Point><coordinates>-48.932222,-8.587988,0</coordinates></Point></Placemark>
<Placemark><name>948448</name><styleUrl>#stPoste</styleUrl><Point><coordinates>-48.927173,-8.603149,0</coordinates></Point></Placemark>
<Placemark><name>951396</name><styleUrl>#stPoste</styleUrl><Point><coordinates>-48.932945,-8.588277,0</coordinates></Point></Placemark>
<Placemark><name>951756</name><styleUrl>#stPoste</styleUrl><Point><coordinates>-48.933517,-8.592730,0</coordinates></Point></Placemark>
<Placemark><name>951765</name><styleUrl>#stPoste</styleUrl><Point><coordinates>-48.933114,-8.592223,0</coordinates></Point></Placemark>
<Placemark><name>54808757</name><styleUrl>#stPoste</styleUrl><Point><coordinates>-48.932443,-8.587101,0</coordinates></Point></Placemark>
<Placemark><name>123850</name><styleUrl>#stPoste</styleUrl><Point><coordinates>-48.932350,-8.589696,0</coordinates></Point></Placemark>
<Placemark><name>947429</name><styleUrl>#stPoste</styleUrl><Point><coordinates>-48.935493,-8.593815,0</coordinates></Point></Placemark>
<Placemark><name>948780</name><styleUrl>#stPoste</styleUrl><Point><coordinates>-48.932306,-8.598197,0</coordinates></Point></Placemark>
<Placemark><name>950378</name><styleUrl>#stPoste</styleUrl><Point><coordinates>-48.935306,-8.597214,0</coordinates></Point></Placemark>
<Placemark><name>951074</name><styleUrl>#stPoste</styleUrl><Point><coordinates>-48.925668,-8.600519,0</coordinates></Point></Placemark>
<Placemark><name>951743</name><styleUrl>#stPoste</styleUrl><Point><coordinates>-48.935649,-8.593987,0</coordinates></Point></Placemark>
<Placemark><name>1790639</name><styleUrl>#stPoste</styleUrl><Point><coordinates>-48.933466,-8.592329,0</coordinates></Point></Placemark>
<Placemark><name>946491</name><styleUrl>#stPoste</styleUrl><Point><coordinates>-48.928719,-8.602516,0</coordinates></Point></Placemark>
<Placemark><name>946819</name><styleUrl>#stPoste</styleUrl><Point><coordinates>-48.933288,-8.598977,0</coordinates></Point></Placemark>
<Placemark><name>947422</name><styleUrl>#stPoste</styleUrl><Point><coordinates>-48.931641,-8.588349,0</coordinates></Point></Placemark>
<Placemark><name>1790786</name><styleUrl>#stPoste</styleUrl><Point><coordinates>-48.935295,-8.592160,0</coordinates></Point></Placemark>
<Placemark><name>54808764</name><styleUrl>#stPoste</styleUrl><Point><coordinates>-48.932379,-8.586707,0</coordinates></Point></Placemark>
<Placemark><name>946498</name><styleUrl>#stPoste</styleUrl><Point><coordinates>-48.932369,-8.598478,0</coordinates></Point></Placemark>
<Placemark><name>947467</name><styleUrl>#stPoste</styleUrl><Point><coordinates>-48.933135,-8.589649,0</coordinates></Point></Placemark>
<Placemark><name>947805</name><styleUrl>#stPoste</styleUrl><Point><coordinates>-48.934195,-8.598491,0</coordinates></Point></Placemark>
<Placemark><name>948778</name><styleUrl>#stPoste</styleUrl><Point><coordinates>-48.927596,-8.602256,0</coordinates></Point></Placemark>
<Placemark><name>950714</name><styleUrl>#stPoste</styleUrl><Point><coordinates>-48.935374,-8.590901,0</coordinates></Point></Placemark>
<Placemark><name>947481</name><styleUrl>#stPoste</styleUrl><Point><coordinates>-48.930653,-8.600771,0</coordinates></Point></Placemark>
<Placemark><name>948114</name><styleUrl>#stPoste</styleUrl><Point><coordinates>-48.927508,-8.603800,0</coordinates></Point></Placemark>
<Placemark><name>949119</name><styleUrl>#stPoste</styleUrl><Point><coordinates>-48.935741,-8.589707,0</coordinates></Point></Placemark>
<Placemark><name>54808776</name><styleUrl>#stPoste</styleUrl><Point><coordinates>-48.932263,-8.585884,0</coordinates></Point></Placemark>
<Placemark><name>161101</name><styleUrl>#stPoste</styleUrl><Point><coordinates>-48.925110,-8.599491,0</coordinates></Point></Placemark>
<Placemark><name>946474</name><styleUrl>#stPoste</styleUrl><Point><coordinates>-48.933280,-8.601433,0</coordinates></Point></Placemark>
<Placemark><name>946495</name><styleUrl>#stPoste</styleUrl><Point><coordinates>-48.929113,-8.592706,0</coordinates></Point></Placemark>
<Placemark><name>946812</name><styleUrl>#stPoste</styleUrl><Point><coordinates>-48.932513,-8.598056,0</coordinates></Point></Placemark>
<Placemark><name>946818</name><styleUrl>#stPoste</styleUrl><Point><coordinates>-48.933249,-8.599472,0</coordinates></Point></Placemark>
<Placemark><name>947159</name><styleUrl>#stPoste</styleUrl><Point><coordinates>-48.933375,-8.591147,0</coordinates></Point></Placemark>
<Placemark><name>948106</name><styleUrl>#stPoste</styleUrl><Point><coordinates>-48.933997,-8.596717,0</coordinates></Point></Placemark>
<Placemark><name>948445</name><styleUrl>#stPoste</styleUrl><Point><coordinates>-48.926103,-8.604785,0</coordinates></Point></Placemark>
<Placemark><name>950379</name><styleUrl>#stPoste</styleUrl><Point><coordinates>-48.935711,-8.597128,0</coordinates></Point></Placemark>
<Placemark><name>1454298</name><styleUrl>#stPoste</styleUrl><Point><coordinates>-48.925634,-8.600541,0</coordinates></Point></Placemark>
<Placemark><name>1791611</name><styleUrl>#stPoste</styleUrl><Point><coordinates>-48.936246,-8.593673,0</coordinates></Point></Placemark>
<Placemark><name>54808742</name><styleUrl>#stPoste</styleUrl><Point><coordinates>-48.932546,-8.587858,0</coordinates></Point></Placemark>
<Placemark><name>54808781</name><styleUrl>#stPoste</styleUrl><Point><coordinates>-48.932226,-8.585614,0</coordinates></Point></Placemark>
<Placemark><name>294459</name><styleUrl>#stPoste</styleUrl><Point><coordinates>-48.927589,-8.601838,0</coordinates></Point></Placemark>
<Placemark><name>942909</name><styleUrl>#stPoste</styleUrl><Point><coordinates>-48.935813,-8.590271,0</coordinates></Point></Placemark>
<Placemark><name>948453</name><styleUrl>#stPoste</styleUrl><Point><coordinates>-48.932027,-8.598973,0</coordinates></Point></Placemark>
<Placemark><name>948457</name><styleUrl>#stPoste</styleUrl><Point><coordinates>-48.933794,-8.595016,0</coordinates></Point></Placemark>
<Placemark><name>949416</name><styleUrl>#stPoste</styleUrl><Point><coordinates>-48.931354,-8.588525,0</coordinates></Point></Placemark>
<Placemark><name>950716</name><styleUrl>#stPoste</styleUrl><Point><coordinates>-48.935331,-8.591355,0</coordinates></Point></Placemark>
<Placemark><name>951062</name><styleUrl>#stPoste</styleUrl><Point><coordinates>-48.932202,-8.597012,0</coordinates></Point></Placemark>
<Placemark><name>944489</name><styleUrl>#stPoste</styleUrl><Point><coordinates>-48.936984,-8.596860,0</coordinates></Point></Placemark>
<Placemark><name>946786</name><styleUrl>#stPoste</styleUrl><Point><coordinates>-48.931950,-8.597426,0</coordinates></Point></Placemark>
<Placemark><name>946788</name><styleUrl>#stPoste</styleUrl><Point><coordinates>-48.931499,-8.595399,0</coordinates></Point></Placemark>
<Placemark><name>947163</name><styleUrl>#stPoste</styleUrl><Point><coordinates>-48.934181,-8.598292,0</coordinates></Point></Placemark>
<Placemark><name>947428</name><styleUrl>#stPoste</styleUrl><Point><coordinates>-48.933706,-8.591106,0</coordinates></Point></Placemark>
<Placemark><name>947453</name><styleUrl>#stPoste</styleUrl><Point><coordinates>-48.935738,-8.594681,0</coordinates></Point></Placemark>
<Placemark><name>949453</name><styleUrl>#stPoste</styleUrl><Point><coordinates>-48.933685,-8.594129,0</coordinates></Point></Placemark>
<Placemark><name>951088</name><styleUrl>#stPoste</styleUrl><Point><coordinates>-48.932063,-8.595968,0</coordinates></Point></Placemark>
<Placemark><name>951759</name><styleUrl>#stPoste</styleUrl><Point><coordinates>-48.933978,-8.597494,0</coordinates></Point></Placemark>
<Placemark><name>1443326</name><styleUrl>#stPoste</styleUrl><Point><coordinates>-48.927351,-8.599098,0</coordinates></Point></Placemark>
<Placemark><name>947480</name><styleUrl>#stPoste</styleUrl><Point><coordinates>-48.931298,-8.600220,0</coordinates></Point></Placemark>
<Placemark><name>947804</name><styleUrl>#stPoste</styleUrl><Point><coordinates>-48.934060,-8.598459,0</coordinates></Point></Placemark>
<Placemark><name>948451</name><styleUrl>#stPoste</styleUrl><Point><coordinates>-48.927294,-8.603513,0</coordinates></Point></Placemark>
<Placemark><name>949110</name><styleUrl>#stPoste</styleUrl><Point><coordinates>-48.931839,-8.589186,0</coordinates></Point></Placemark>
<Placemark><name>951066</name><styleUrl>#stPoste</styleUrl><Point><coordinates>-48.932906,-8.591200,0</coordinates></Point></Placemark>
<Placemark><name>951073</name><styleUrl>#stPoste</styleUrl><Point><coordinates>-48.932534,-8.594187,0</coordinates></Point></Placemark>
<Placemark><name>951755</name><styleUrl>#stPoste</styleUrl><Point><coordinates>-48.927889,-8.599018,0</coordinates></Point></Placemark>
<Placemark><name>127178</name><styleUrl>#stPoste</styleUrl><Point><coordinates>-48.931804,-8.600145,0</coordinates></Point></Placemark>
<Placemark><name>946810</name><styleUrl>#stPoste</styleUrl><Point><coordinates>-48.930694,-8.593866,0</coordinates></Point></Placemark>
<Placemark><name>946813</name><styleUrl>#stPoste</styleUrl><Point><coordinates>-48.932464,-8.601669,0</coordinates></Point></Placemark>
<Placemark><name>947806</name><styleUrl>#stPoste</styleUrl><Point><coordinates>-48.931621,-8.594302,0</coordinates></Point></Placemark>
<Placemark><name>948449</name><styleUrl>#stPoste</styleUrl><Point><coordinates>-48.927137,-8.603170,0</coordinates></Point></Placemark>
<Placemark><name>951403</name><styleUrl>#stPoste</styleUrl><Point><coordinates>-48.933278,-8.590670,0</coordinates></Point></Placemark>
<Placemark><name>951741</name><styleUrl>#stPoste</styleUrl><Point><coordinates>-48.934695,-8.597342,0</coordinates></Point></Placemark>
<Placemark><name>1791161</name><styleUrl>#stPoste</styleUrl><Point><coordinates>-48.932773,-8.595160,0</coordinates></Point></Placemark>
<Placemark><name>946501</name><styleUrl>#stPoste</styleUrl><Point><coordinates>-48.929664,-8.593100,0</coordinates></Point></Placemark>
<Placemark><name>947802</name><styleUrl>#stPoste</styleUrl><Point><coordinates>-48.933299,-8.598495,0</coordinates></Point></Placemark>
<Placemark><name>948095</name><styleUrl>#stPoste</styleUrl><Point><coordinates>-48.926442,-8.599289,0</coordinates></Point></Placemark>
<Placemark><name>948441</name><styleUrl>#stPoste</styleUrl><Point><coordinates>-48.926732,-8.604285,0</coordinates></Point></Placemark>
<Placemark><name>950383</name><styleUrl>#stPoste</styleUrl><Point><coordinates>-48.935582,-8.593448,0</coordinates></Point></Placemark>
<Placemark><name>951065</name><styleUrl>#stPoste</styleUrl><Point><coordinates>-48.932995,-8.591080,0</coordinates></Point></Placemark>
<Placemark><name>951407</name><styleUrl>#stPoste</styleUrl><Point><coordinates>-48.932330,-8.598136,0</coordinates></Point></Placemark>
<Placemark><name>951426</name><styleUrl>#stPoste</styleUrl><Point><coordinates>-48.933327,-8.600163,0</coordinates></Point></Placemark>
<Placemark><name>209806</name><styleUrl>#stPoste</styleUrl><Point><coordinates>-48.934059,-8.597237,0</coordinates></Point></Placemark>
<Placemark><name>947160</name><styleUrl>#stPoste</styleUrl><Point><coordinates>-48.931479,-8.597483,0</coordinates></Point></Placemark>
<Placemark><name>951067</name><styleUrl>#stPoste</styleUrl><Point><coordinates>-48.932975,-8.590937,0</coordinates></Point></Placemark>
<Placemark><name>951393</name><styleUrl>#stPoste</styleUrl><Point><coordinates>-48.931526,-8.588857,0</coordinates></Point></Placemark>
<Placemark><name>951408</name><styleUrl>#stPoste</styleUrl><Point><coordinates>-48.932367,-8.597385,0</coordinates></Point></Placemark>
<Placemark><name>27361591</name><styleUrl>#stPoste</styleUrl><Point><coordinates>-48.933309,-8.591092,0</coordinates></Point></Placemark>
<Placemark><name>948749</name><styleUrl>#stPoste</styleUrl><Point><coordinates>-48.937068,-8.593605,0</coordinates></Point></Placemark>
<Placemark><name>950713</name><styleUrl>#stPoste</styleUrl><Point><coordinates>-48.935414,-8.592051,0</coordinates></Point></Placemark>
<Placemark><name>951742</name><styleUrl>#stPoste</styleUrl><Point><coordinates>-48.934972,-8.597284,0</coordinates></Point></Placemark>
<Placemark><name>951767</name><styleUrl>#stPoste</styleUrl><Point><coordinates>-48.933057,-8.591651,0</coordinates></Point></Placemark>
<Placemark><name>942908</name><styleUrl>#stPoste</styleUrl><Point><coordinates>-48.935784,-8.590039,0</coordinates></Point></Placemark>
<Placemark><name>947803</name><styleUrl>#stPoste</styleUrl><Point><coordinates>-48.933713,-8.598483,0</coordinates></Point></Placemark>
<Placemark><name>948116</name><styleUrl>#stPoste</styleUrl><Point><coordinates>-48.927476,-8.603821,0</coordinates></Point></Placemark>
<Placemark><name>948390</name><styleUrl>#stPoste</styleUrl><Point><coordinates>-48.934478,-8.591012,0</coordinates></Point></Placemark>
<Placemark><name>948444</name><styleUrl>#stPoste</styleUrl><Point><coordinates>-48.926133,-8.604814,0</coordinates></Point></Placemark>
<Placemark><name>950731</name><styleUrl>#stPoste</styleUrl><Point><coordinates>-48.929089,-8.592738,0</coordinates></Point></Placemark>
<Placemark><name>1791264</name><styleUrl>#stPoste</styleUrl><Point><coordinates>-48.934638,-8.590992,0</coordinates></Point></Placemark>
<Placemark><name>44378889</name><styleUrl>#stPoste</styleUrl><Point><coordinates>-48.933269,-8.598767,0</coordinates></Point></Placemark>
<Placemark><name>944810</name><styleUrl>#stPoste</styleUrl><Point><coordinates>-48.935855,-8.590593,0</coordinates></Point></Placemark>
<Placemark><name>946816</name><styleUrl>#stPoste</styleUrl><Point><coordinates>-48.932719,-8.601607,0</coordinates></Point></Placemark>
<Placemark><name>946820</name><styleUrl>#stPoste</styleUrl><Point><coordinates>-48.933319,-8.599169,0</coordinates></Point></Placemark>
<Placemark><name>948458</name><styleUrl>#stPoste</styleUrl><Point><coordinates>-48.933728,-8.594477,0</coordinates></Point></Placemark>
<Placemark><name>950059</name><styleUrl>#stPoste</styleUrl><Point><coordinates>-48.933648,-8.593823,0</coordinates></Point></Placemark>
<Placemark><name>1428251</name><styleUrl>#stPoste</styleUrl><Point><coordinates>-48.933842,-8.595410,0</coordinates></Point></Placemark>
<Placemark><name>1786285</name><styleUrl>#stPoste</styleUrl><Point><coordinates>-48.932709,-8.589967,0</coordinates></Point></Placemark>
<Placemark><name>127175</name><styleUrl>#stPoste</styleUrl><Point><coordinates>-48.933395,-8.591751,0</coordinates></Point></Placemark>
<Placemark><name>651181</name><styleUrl>#stPoste</styleUrl><Point><coordinates>-48.932981,-8.599012,0</coordinates></Point></Placemark>
<Placemark><name>946494</name><styleUrl>#stPoste</styleUrl><Point><coordinates>-48.927588,-8.603603,0</coordinates></Point></Placemark>
<Placemark><name>946822</name><styleUrl>#stPoste</styleUrl><Point><coordinates>-48.933129,-8.598419,0</coordinates></Point></Placemark>
<Placemark><name>947483</name><styleUrl>#stPoste</styleUrl><Point><coordinates>-48.931938,-8.594262,0</coordinates></Point></Placemark>
<Placemark><name>948070</name><styleUrl>#stPoste</styleUrl><Point><coordinates>-48.933243,-8.598343,0</coordinates></Point></Placemark>
<Placemark><name>950060</name><styleUrl>#stPoste</styleUrl><Point><coordinates>-48.933603,-8.593444,0</coordinates></Point></Placemark>
<Placemark><name>1443325</name><styleUrl>#stPoste</styleUrl><Point><coordinates>-48.927068,-8.599138,0</coordinates></Point></Placemark>
<Placemark><name>1790801</name><styleUrl>#stPoste</styleUrl><Point><coordinates>-48.933319,-8.594057,0</coordinates></Point></Placemark>
<Placemark><name>1791063</name><styleUrl>#stPoste</styleUrl><Point><coordinates>-48.932233,-8.589494,0</coordinates></Point></Placemark>
<Placemark><name>123852</name><styleUrl>#stPoste</styleUrl><Point><coordinates>-48.932232,-8.594225,0</coordinates></Point></Placemark>
<Placemark><name>946814</name><styleUrl>#stPoste</styleUrl><Point><coordinates>-48.932742,-8.597877,0</coordinates></Point></Placemark>
<Placemark><name>951064</name><styleUrl>#stPoste</styleUrl><Point><coordinates>-48.933025,-8.591314,0</coordinates></Point></Placemark>
<Placemark><name>951421</name><styleUrl>#stPoste</styleUrl><Point><coordinates>-48.931822,-8.594111,0</coordinates></Point></Placemark>
<Placemark><name>947430</name><styleUrl>#stPoste</styleUrl><Point><coordinates>-48.935771,-8.593773,0</coordinates></Point></Placemark>
<Placemark><name>948452</name><styleUrl>#stPoste</styleUrl><Point><coordinates>-48.931931,-8.599130,0</coordinates></Point></Placemark>
<Placemark><name>1785923</name><styleUrl>#stPoste</styleUrl><Point><coordinates>-48.933954,-8.591002,0</coordinates></Point></Placemark>
<Placemark><name>1791543</name><styleUrl>#stPoste</styleUrl><Point><coordinates>-48.932398,-8.598928,0</coordinates></Point></Placemark>
<Placemark><name>123849</name><styleUrl>#stPoste</styleUrl><Point><coordinates>-48.935282,-8.590953,0</coordinates></Point></Placemark>
<Placemark><name>947167</name><styleUrl>#stPoste</styleUrl><Point><coordinates>-48.933235,-8.590343,0</coordinates></Point></Placemark>
<Placemark><name>949417</name><styleUrl>#stPoste</styleUrl><Point><coordinates>-48.931072,-8.588835,0</coordinates></Point></Placemark>
<Placemark><name>950381</name><styleUrl>#stPoste</styleUrl><Point><coordinates>-48.936251,-8.597011,0</coordinates></Point></Placemark>
<Placemark><name>951087</name><styleUrl>#stPoste</styleUrl><Point><coordinates>-48.932015,-8.595606,0</coordinates></Point></Placemark>
<Placemark><name>1251438</name><styleUrl>#stPoste</styleUrl><Point><coordinates>-48.926162,-8.599377,0</coordinates></Point></Placemark>
<Placemark><name>54808752</name><styleUrl>#stPoste</styleUrl><Point><coordinates>-48.932493,-8.587469,0</coordinates></Point></Placemark>
<Placemark><name>946492</name><styleUrl>#stPoste</styleUrl><Point><coordinates>-48.928746,-8.602538,0</coordinates></Point></Placemark>
<Placemark><name>947431</name><styleUrl>#stPoste</styleUrl><Point><coordinates>-48.936042,-8.593745,0</coordinates></Point></Placemark>
<Placemark><name>947482</name><styleUrl>#stPoste</styleUrl><Point><coordinates>-48.930683,-8.600801,0</coordinates></Point></Placemark>
<Placemark><name>1443324</name><styleUrl>#stPoste</styleUrl><Point><coordinates>-48.928158,-8.598983,0</coordinates></Point></Placemark>
<Placemark><name>123855</name><styleUrl>#stPoste</styleUrl><Point><coordinates>-48.935375,-8.591721,0</coordinates></Point></Placemark>
<Placemark><name>136491</name><styleUrl>#stPoste</styleUrl><Point><coordinates>-48.933206,-8.599097,0</coordinates></Point></Placemark>
<Placemark><name>161077</name><styleUrl>#stPoste</styleUrl><Point><coordinates>-48.927330,-8.603494,0</coordinates></Point></Placemark>
<Placemark><name>946821</name><styleUrl>#stPoste</styleUrl><Point><coordinates>-48.933167,-8.598756,0</coordinates></Point></Placemark>
<Placemark><name>948450</name><styleUrl>#stPoste</styleUrl><Point><coordinates>-48.933432,-8.595158,0</coordinates></Point></Placemark>
<Placemark><name>951422</name><styleUrl>#stPoste</styleUrl><Point><coordinates>-48.931864,-8.594454,0</coordinates></Point></Placemark>
<Placemark><name>1251439</name><styleUrl>#stPoste</styleUrl><Point><coordinates>-48.925896,-8.599495,0</coordinates></Point></Placemark>
<Placemark><name>1251440</name><styleUrl>#stPoste</styleUrl><Point><coordinates>-48.925210,-8.599848,0</coordinates></Point></Placemark>
<Placemark><name>123851</name><styleUrl>#stPoste</styleUrl><Point><coordinates>-48.933253,-8.594096,0</coordinates></Point></Placemark>
<Placemark><name>127174</name><styleUrl>#stPoste</styleUrl><Point><coordinates>-48.933757,-8.594716,0</coordinates></Point></Placemark>
<Placemark><name>944488</name><styleUrl>#stPoste</styleUrl><Point><coordinates>-48.936558,-8.596950,0</coordinates></Point></Placemark>
<Placemark><name>949452</name><styleUrl>#stPoste</styleUrl><Point><coordinates>-48.931969,-8.595253,0</coordinates></Point></Placemark>
<Placemark><name>950380</name><styleUrl>#stPoste</styleUrl><Point><coordinates>-48.935983,-8.597071,0</coordinates></Point></Placemark>
<Placemark><name>42601352</name><styleUrl>#stPoste</styleUrl><Point><coordinates>-48.929756,-8.601582,0</coordinates></Point></Placemark>
<Placemark><name>946794</name><styleUrl>#stPoste</styleUrl><Point><coordinates>-48.932278,-8.599091,0</coordinates></Point></Placemark>
<Placemark><name>948115</name><styleUrl>#stPoste</styleUrl><Point><coordinates>-48.932501,-8.595270,0</coordinates></Point></Placemark>
<Placemark><name>948456</name><styleUrl>#stPoste</styleUrl><Point><coordinates>-48.932061,-8.599253,0</coordinates></Point></Placemark>
<Placemark><name>948783</name><styleUrl>#stPoste</styleUrl><Point><coordinates>-48.932093,-8.599514,0</coordinates></Point></Placemark>
<Placemark><name>950715</name><styleUrl>#stPoste</styleUrl><Point><coordinates>-48.935074,-8.590938,0</coordinates></Point></Placemark>
<Placemark><name>1791072</name><styleUrl>#stPoste</styleUrl><Point><coordinates>-48.932666,-8.594289,0</coordinates></Point></Placemark>
<Placemark><name>54808773</name><styleUrl>#stPoste</styleUrl><Point><coordinates>-48.932292,-8.586166,0</coordinates></Point></Placemark>
<Placemark><name>946793</name><styleUrl>#stPoste</styleUrl><Point><coordinates>-48.932624,-8.599052,0</coordinates></Point></Placemark>
<Placemark><name>946809</name><styleUrl>#stPoste</styleUrl><Point><coordinates>-48.930204,-8.593503,0</coordinates></Point></Placemark>
<Placemark><name>946811</name><styleUrl>#stPoste</styleUrl><Point><coordinates>-48.932168,-8.601034,0</coordinates></Point></Placemark>
<Placemark><name>946817</name><styleUrl>#stPoste</styleUrl><Point><coordinates>-48.933287,-8.599810,0</coordinates></Point></Placemark>
<Placemark><name>947433</name><styleUrl>#stPoste</styleUrl><Point><coordinates>-48.936731,-8.593649,0</coordinates></Point></Placemark>
<Placemark><name>947479</name><styleUrl>#stPoste</styleUrl><Point><coordinates>-48.931679,-8.599903,0</coordinates></Point></Placemark>
<Placemark><name>948093</name><styleUrl>#stPoste</styleUrl><Point><coordinates>-48.926788,-8.599202,0</coordinates></Point></Placemark>
<Placemark><name>950058</name><styleUrl>#stPoste</styleUrl><Point><coordinates>-48.932600,-8.589969,0</coordinates></Point></Placemark>
<Placemark><name>951401</name><styleUrl>#stPoste</styleUrl><Point><coordinates>-48.933349,-8.591387,0</coordinates></Point></Placemark>
<Placemark><name>951744</name><styleUrl>#stPoste</styleUrl><Point><coordinates>-48.935894,-8.590893,0</coordinates></Point></Placemark>
<Placemark><name>944028</name><styleUrl>#stPoste</styleUrl><Point><coordinates>-48.936047,-8.590819,0</coordinates></Point></Placemark>
<Placemark><name>947465</name><styleUrl>#stPoste</styleUrl><Point><coordinates>-48.933190,-8.590011,0</coordinates></Point></Placemark>
<Placemark><name>948442</name><styleUrl>#stPoste</styleUrl><Point><coordinates>-48.932783,-8.595238,0</coordinates></Point></Placemark>
<Placemark><name>949112</name><styleUrl>#stPoste</styleUrl><Point><coordinates>-48.934060,-8.591063,0</coordinates></Point></Placemark>
<Placemark><name>44378896</name><styleUrl>#stPoste</styleUrl><Point><coordinates>-48.933823,-8.598587,0</coordinates></Point></Placemark>
<Placemark><name>946792</name><styleUrl>#stPoste</styleUrl><Point><coordinates>-48.932933,-8.590614,0</coordinates></Point></Placemark>
<Placemark><name>947164</name><styleUrl>#stPoste</styleUrl><Point><coordinates>-48.934141,-8.597938,0</coordinates></Point></Placemark>
<Placemark><name>947165</name><styleUrl>#stPoste</styleUrl><Point><coordinates>-48.934099,-8.597581,0</coordinates></Point></Placemark>
<Placemark><name>948113</name><styleUrl>#stPoste</styleUrl><Point><coordinates>-48.933090,-8.589298,0</coordinates></Point></Placemark>
<Placemark><name>949740</name><styleUrl>#stPoste</styleUrl><Point><coordinates>-48.935318,-8.590828,0</coordinates></Point></Placemark>
<Placemark><name>950384</name><styleUrl>#stPoste</styleUrl><Point><coordinates>-48.935547,-8.593156,0</coordinates></Point></Placemark>
<Placemark><name>951757</name><styleUrl>#stPoste</styleUrl><Point><coordinates>-48.933805,-8.594018,0</coordinates></Point></Placemark>
<Placemark><name>1791643</name><styleUrl>#stPoste</styleUrl><Point><coordinates>-48.933345,-8.592411,0</coordinates></Point></Placemark>
<Placemark><name>950385</name><styleUrl>#stPoste</styleUrl><Point><coordinates>-48.935501,-8.592773,0</coordinates></Point></Placemark>
<Placemark><name>951395</name><styleUrl>#stPoste</styleUrl><Point><coordinates>-48.932996,-8.588618,0</coordinates></Point></Placemark>
<Placemark><name>1887171</name><styleUrl>#stPoste</styleUrl><Point><coordinates>-48.927647,-8.599007,0</coordinates></Point></Placemark>
<Placemark><name>54808768</name><styleUrl>#stPoste</styleUrl><Point><coordinates>-48.932334,-8.586431,0</coordinates></Point></Placemark>
<Placemark><name>944261</name><styleUrl>#stPoste</styleUrl><Point><coordinates>-48.935640,-8.590869,0</coordinates></Point></Placemark>
<Placemark><name>946493</name><styleUrl>#stPoste</styleUrl><Point><coordinates>-48.932088,-8.595324,0</coordinates></Point></Placemark>
<Placemark><name>947118</name><styleUrl>#stPoste</styleUrl><Point><coordinates>-48.931930,-8.588171,0</coordinates></Point></Placemark>
<Placemark><name>947432</name><styleUrl>#stPoste</styleUrl><Point><coordinates>-48.936365,-8.593696,0</coordinates></Point></Placemark>
<Placemark><name>948069</name><styleUrl>#stPoste</styleUrl><Point><coordinates>-48.933245,-8.598489,0</coordinates></Point></Placemark>
<Placemark><name>948087</name><styleUrl>#stPoste</styleUrl><Point><coordinates>-48.932873,-8.590219,0</coordinates></Point></Placemark>
<Placemark><name>948092</name><styleUrl>#stPoste</styleUrl><Point><coordinates>-48.927621,-8.599060,0</coordinates></Point></Placemark>
<Placemark><name>948108</name><styleUrl>#stPoste</styleUrl><Point><coordinates>-48.933871,-8.595648,0</coordinates></Point></Placemark>
<Placemark><name>950712</name><styleUrl>#stPoste</styleUrl><Point><coordinates>-48.935458,-8.592414,0</coordinates></Point></Placemark>
<Placemark><name>951061</name><styleUrl>#stPoste</styleUrl><Point><coordinates>-48.932154,-8.596647,0</coordinates></Point></Placemark>
<Placemark><name>951063</name><styleUrl>#stPoste</styleUrl><Point><coordinates>-48.932252,-8.597452,0</coordinates></Point></Placemark>
<Placemark><name>1236191</name><styleUrl>#stPoste</styleUrl><Point><coordinates>-48.932409,-8.599077,0</coordinates></Point></Placemark>
<Placemark><name>54808749</name><styleUrl>#stPoste</styleUrl><Point><coordinates>-48.932567,-8.588014,0</coordinates></Point></Placemark>
<Placemark><name>947166</name><styleUrl>#stPoste</styleUrl><Point><coordinates>-48.932776,-8.594156,0</coordinates></Point></Placemark>
<Placemark><name>951392</name><styleUrl>#stPoste</styleUrl><Point><coordinates>-48.933043,-8.588959,0</coordinates></Point></Placemark>
<Placemark><name>1791265</name><styleUrl>#stPoste</styleUrl><Point><coordinates>-48.934633,-8.591077,0</coordinates></Point></Placemark>
<Placemark><name>1791644</name><styleUrl>#stPoste</styleUrl><Point><coordinates>-48.933943,-8.595097,0</coordinates></Point></Placemark>
<Placemark><name>123853</name><styleUrl>#stPoste</styleUrl><Point><coordinates>-48.931336,-8.594339,0</coordinates></Point></Placemark>
</Folder></Document></kml>