<?xml version='1.0' encoding='UTF-8'?>
<kml xmlns="http://www.opengis.net/kml/2.2"><Document><open>1</open><Style id="styleDaimonCorVerde0"><IconStyle><scale>0.60</scale><Icon><href>http://maps.google.com/mapfiles/kml/paddle/wht-circle.png</href></Icon><hotSpot x="32" y="1" xunits="pixels" yunits="pixels" /></IconStyle><LabelStyle><color>ff00ff00</color><colorMode>normal</colorMode><scale>0.60</scale></LabelStyle><ListStyle><ItemIcon><href>http://maps.google.com/mapfiles/kml/paddle/wht-circle.png</href></ItemIcon></ListStyle></Style>
<Style id="styleDaimonCorVerde1"><IconStyle><scale>0.60</scale><Icon><href>http://maps.google.com/mapfiles/kml/paddle/wht-circle.png</href></Icon><hotSpot x="32" y="1" xunits="pixels" yunits="pixels" /></IconStyle><LabelStyle><color>ff00ff00</color><colorMode>normal</colorMode><scale>0.60</scale></LabelStyle><ListStyle><ItemIcon><href>http://maps.google.com/mapfiles/kml/paddle/wht-circle.png</href></ItemIcon></ListStyle></Style>
<StyleMap id="mapDaimonCorVerde"><Pair><key>normal</key><styleUrl>#styleDaimonCorVerde0</styleUrl></Pair><Pair><key>highlight</key><styleUrl>#styleDaimonCorVerde1</styleUrl></Pair></StyleMap>
<Style id="styleDaimonCorAzul0"><IconStyle><scale>0.60</scale><Icon><href>http://maps.google.com/mapfiles/kml/paddle/wht-circle.png</href></Icon><hotSpot x="32" y="1" xunits="pixels" yunits="pixels" /></IconStyle><LabelStyle><color>ffff0000</color><colorMode>normal</colorMode><scale>0.60</scale></LabelStyle><ListStyle><ItemIcon><href>http://maps.google.com/mapfiles/kml/paddle/wht-circle.png</href></ItemIcon></ListStyle></Style>
<Style id="styleDaimonCorAzul1"><IconStyle><scale>0.60</scale><Icon><href>http://maps.google.com/mapfiles/kml/paddle/wht-circle.png</href></Icon><hotSpot x="32" y="1" xunits="pixels" yunits="pixels" /></IconStyle><LabelStyle><color>ffff0000</color><colorMode>normal</colorMode><scale>0.60</scale></LabelStyle><ListStyle><ItemIcon><href>http://maps.google.com/mapfiles/kml/paddle/wht-circle.png</href></ItemIcon></ListStyle></Style>
<StyleMap id="mapDaimonCorAzul"><Pair><key>normal</key><styleUrl>#styleDaimonCorAzul0</styleUrl></Pair><Pair><key>highlight</key><styleUrl>#styleDaimonCorAzul1</styleUrl></Pair></StyleMap>
<Style id="styleDaimonCorAmarelo0"><IconStyle><scale>0.60</scale><Icon><href>http://maps.google.com/mapfiles/kml/paddle/wht-circle.png</href></Icon><hotSpot x="32" y="1" xunits="pixels" yunits="pixels" /></IconStyle><LabelStyle><color>ff00ffff</color><colorMode>normal</colorMode><scale>0.60</scale></LabelStyle><ListStyle><ItemIcon><href>http://maps.google.com/mapfiles/kml/paddle/wht-circle.png</href></ItemIcon></ListStyle></Style>
<Style id="styleDaimonCorAmarelo1"><IconStyle><scale>0.60</scale><Icon><href>http://maps.google.com/mapfiles/kml/paddle/wht-circle.png</href></Icon><hotSpot x="32" y="1" xunits="pixels" yunits="pixels" /></IconStyle><LabelStyle><color>ff00ffff</color><colorMode>normal</colorMode><scale>0.60</scale></LabelStyle><ListStyle><ItemIcon><href>http://maps.google.com/mapfiles/kml/paddle/wht-circle.png</href></ItemIcon></ListStyle></Style>
<StyleMap id="mapDaimonCorAmarelo"><Pair><key>normal</key><styleUrl>#styleDaimonCorAmarelo0</styleUrl></Pair><Pair><key>highlight</key><styleUrl>#styleDaimonCorAmarelo1</styleUrl></Pair></StyleMap>
<Style id="styleDaimonCorBranco0"><IconStyle><scale>0.60</scale><Icon><href>http://maps.google.com/mapfiles/kml/paddle/wht-circle.png</href></Icon><hotSpot x="32" y="1" xunits="pixels" yunits="pixels" /></IconStyle><LabelStyle><color>ffffffff</color><colorMode>normal</colorMode><scale>0.60</scale></LabelStyle><ListStyle><ItemIcon><href>http://maps.google.com/mapfiles/kml/paddle/wht-circle.png</href></ItemIcon></ListStyle></Style>
<Style id="styleDaimonCorBranco1"><IconStyle><scale>0.60</scale><Icon><href>http://maps.google.com/mapfiles/kml/paddle/wht-circle.png</href></Icon><hotSpot x="32" y="1" xunits="pixels" yunits="pixels" /></IconStyle><LabelStyle><color>ffffffff</color><colorMode>normal</colorMode><scale>0.60</scale></LabelStyle><ListStyle><ItemIcon><href>http://maps.google.com/mapfiles/kml/paddle/wht-circle.png</href></ItemIcon></ListStyle></Style>
<StyleMap id="mapDaimonCorBranco"><Pair><key>normal</key><styleUrl>#styleDaimonCorBranco0</styleUrl></Pair><Pair><key>highlight</key><styleUrl>#styleDaimonCorBranco1</styleUrl></Pair></StyleMap>
<Style id="styleDaimonSE0"><IconStyle><scale>1.20</scale><Icon><href>http://maps.google.com/mapfiles/kml/paddle/wht-circle.png</href></Icon><hotSpot x="32" y="1" xunits="pixels" yunits="pixels" /></IconStyle><LabelStyle><color>ffffffff</color><colorMode>normal</colorMode><scale>1.20</scale></LabelStyle><ListStyle><ItemIcon><href>http://maps.google.com/mapfiles/kml/paddle/wht-circle.png</href></ItemIcon></ListStyle></Style>
<Style id="styleDaimonSE1"><IconStyle><scale>1.20</scale><Icon><href>http://maps.google.com/mapfiles/kml/paddle/wht-circle.png</href></Icon><hotSpot x="32" y="1" xunits="pixels" yunits="pixels" /></IconStyle><LabelStyle><color>ffffffff</color><colorMode>normal</colorMode><scale>1.20</scale></LabelStyle><ListStyle><ItemIcon><href>http://maps.google.com/mapfiles/kml/paddle/wht-circle.png</href></ItemIcon></ListStyle></Style>
<Style id="styleDaimonLinkSE-2PIU_Circ-AL01068014"><ListStyle><bgColor>ffc080ff</bgColor></ListStyle></Style>
<Style id="styleDaimonLinkSE-2PKN_Circ-AL01073034"><ListStyle><bgColor>ffffff80</bgColor></ListStyle></Style>
<Style id="styleDaimonLinkSE-2PLM_Circ-AL01061029"><ListStyle><bgColor>ffff8000</bgColor></ListStyle></Style>
<Style id="styleDaimonLinkSE-2PNA_Circ-AL01072001"><ListStyle><bgColor>ff808040</bgColor></ListStyle></Style>
<Style id="styleDaimonLinkSE-2PNA_Circ-AL02072001"><ListStyle><bgColor>ff8000ff</bgColor></ListStyle></Style>
<Style id="styleDaimonLinkSE-2PNA_Circ-AL05072001"><ListStyle><bgColor>ff808040</bgColor></ListStyle></Style>
<Style id="styleDaimonLinkSE-2PNA_Circ-AL04072001"><ListStyle><bgColor>ffc080ff</bgColor></ListStyle></Style>
<Style id="styleDaimonLinkSE-2PNA_Circ-AL06072001"><ListStyle><bgColor>ffffff80</bgColor></ListStyle></Style>
<Style id="styleDaimonLinkSE-2PNA_Circ-LD01072001"><ListStyle><bgColor>ffff8000</bgColor></ListStyle></Style>
<Style id="styleDaimonLinkSE-2PNA_Circ-AL03072001"><ListStyle><bgColor>ff40ff00</bgColor></ListStyle></Style>
<Style id="styleDaimonLinkSE-2PNA_Circ-LD03072001"><ListStyle><bgColor>ff008080</bgColor></ListStyle></Style>
<Style id="styleDaimonLinkSE-2PNA_Circ-LD02072001"><ListStyle><bgColor>ff80ffff</bgColor></ListStyle></Style>
<Style id="styleDaimonLinkSE-2PR0_Circ-AL02062013"><ListStyle><bgColor>ff008080</bgColor></ListStyle></Style>
<Style id="styleDaimonLinkSE-2PR0_Circ-AL01062013"><ListStyle><bgColor>ff40ff00</bgColor></ListStyle></Style>
<Style id="styleDaimonLinkSE-2PR0_Circ-AL04062013"><ListStyle><bgColor>ff0080ff</bgColor></ListStyle></Style>
<Style id="styleDaimonLinkSE-2PR0_Circ-AL05062013"><ListStyle><bgColor>ff80ffff</bgColor></ListStyle></Style>
<Style id="styleDaimonLinkSE-2PR0_Circ-LD01062013"><ListStyle><bgColor>ff8000ff</bgColor></ListStyle></Style>
<Style id="styleDaimonLinkSE-2PR0_Circ-AL03062013"><ListStyle><bgColor>ffff8000</bgColor></ListStyle></Style>
<Style id="styleDaimonLinkSE-2PR0_Circ-LD02062013"><ListStyle><bgColor>ffc080ff</bgColor></ListStyle></Style>
<Style id="styleDaimonLinkSE-2PR0_Circ-LD05062013"><ListStyle><bgColor>ff8000ff</bgColor></ListStyle></Style>
<Style id="styleDaimonLinkSE-2PR0_Circ-LD03062013"><ListStyle><bgColor>ffffff80</bgColor></ListStyle></Style>
<Style id="styleDaimonLinkSE-2PR0_Circ-LD04062013"><ListStyle><bgColor>ffff80ff</bgColor></ListStyle></Style>
<Style id="styleDaimonLinkSE-2PR2_Circ-LD01004013"><ListStyle><bgColor>ff008080</bgColor></ListStyle></Style>
<Style id="styleDaimonLinkSE-2PR2_Circ-LD02004013"><ListStyle><bgColor>ff40ff00</bgColor></ListStyle></Style>
<Folder><name>SE_2PR2</name><Placemark><name>2PR2</name><description>SE PARAISO II</description><LookAt><longitude>-48.874872</longitude><latitude>-10.208480</latitude><altitude>1200.0</altitude><altitudeMode>absolute</altitudeMode></LookAt><styleUrl>#mapDaimonSE</styleUrl><Point><coordinates>-48.874872,-10.208480,0</coordinates></Point></Placemark>
</Folder><Style id="styleDaimonCIRCUITO264TRECHO"><LineStyle><color>ff008080</color><width>2.00</width></LineStyle></Style>
<Folder>
<name>Circ_LD01004013</name>
<Folder>
<name>Chave</name>
<Placemark><name>DJ_LD01004013_FICT</name><visibility>0</visibility><LookAt><longitude>-48.875099</longitude><latitude>-10.208457</latitude><altitude>1200.0</altitude><altitudeMode>absolute</altitudeMode></LookAt><styleUrl>#mapDaimonCorBranco</styleUrl><Point><coordinates>-48.875099,-10.208457,0</coordinates></Point></Placemark>
<Placemark><name>8856384013</name><visibility>0</visibility><LookAt><longitude>-48.875545</longitude><latitude>-10.209089</latitude><altitude>1200.0</altitude><altitudeMode>absolute</altitudeMode></LookAt><styleUrl>#mapDaimonCorAzul</styleUrl><Point><coordinates>-48.875545,-10.209089,0</coordinates></Point></Placemark>
</Folder>
<Folder>
<name>Trecho</name>
<Placemark><name>42261706</name><styleUrl>#styleDaimonCIRCUITO264TRECHO</styleUrl><LineString><coordinates>-48.875514,-10.208743,0 -48.875516,-10.208770,0</coordinates></LineString></Placemark>
<Placemark><name>42261679</name><styleUrl>#styleDaimonCIRCUITO264TRECHO</styleUrl><LineString><coordinates>-48.875516,-10.208770,0 -48.875543,-10.209076,0</coordinates></LineString></Placemark>
<Placemark><name>42261697</name><styleUrl>#styleDaimonCIRCUITO264TRECHO</styleUrl><LineString><coordinates>-48.875512,-10.208490,0 -48.875514,-10.208743,0</coordinates></LineString></Placemark>
<Placemark><name>42262961</name><styleUrl>#styleDaimonCIRCUITO264TRECHO</styleUrl><LineString><coordinates>-48.875508,-10.208456,0 -48.875512,-10.208490,0</coordinates></LineString></Placemark>
<Placemark><name>3640970</name><styleUrl>#styleDaimonCIRCUITO264TRECHO</styleUrl><LineString><coordinates>-48.875327,-10.208434,0 -48.875508,-10.208456,0</coordinates></LineString></Placemark>
<Placemark><name>42262049</name><styleUrl>#styleDaimonCIRCUITO264TRECHO</styleUrl><LineString><coordinates>-48.874739,-10.212175,0 -48.875228,-10.216414,0</coordinates></LineString></Placemark>
<Placemark><name>42262656</name><styleUrl>#styleDaimonCIRCUITO264TRECHO</styleUrl><LineString><coordinates>-48.874735,-10.212151,0 -48.874739,-10.212175,0</coordinates></LineString></Placemark>
<Placemark><name>42262019</name><styleUrl>#styleDaimonCIRCUITO264TRECHO</styleUrl><LineString><coordinates>-48.874669,-10.211560,0 -48.874735,-10.212151,0</coordinates></LineString></Placemark>
<Placemark><name>42262648</name><styleUrl>#styleDaimonCIRCUITO264TRECHO</styleUrl><LineString><coordinates>-48.874665,-10.211537,0 -48.874669,-10.211560,0</coordinates></LineString></Placemark>
<Placemark><name>42262004</name><styleUrl>#styleDaimonCIRCUITO264TRECHO</styleUrl><LineString><coordinates>-48.874469,-10.209821,0 -48.874665,-10.211537,0</coordinates></LineString></Placemark>
<Placemark><name>42262640</name><styleUrl>#styleDaimonCIRCUITO264TRECHO</styleUrl><LineString><coordinates>-48.874488,-10.209802,0 -48.874469,-10.209821,0</coordinates></LineString></Placemark>
<Placemark><name>42261756</name><styleUrl>#styleDaimonCIRCUITO264TRECHO</styleUrl><LineString><coordinates>-48.875030,-10.209692,0 -48.874488,-10.209802,0</coordinates></LineString></Placemark>
<Placemark><name>42261748</name><styleUrl>#styleDaimonCIRCUITO264TRECHO</styleUrl><LineString><coordinates>-48.875057,-10.209691,0 -48.875030,-10.209692,0</coordinates></LineString></Placemark>
<Placemark><name>42261739</name><styleUrl>#styleDaimonCIRCUITO264TRECHO</styleUrl><LineString><coordinates>-48.875604,-10.209629,0 -48.875057,-10.209691,0</coordinates></LineString></Placemark>
<Placemark><name>42261731</name><styleUrl>#styleDaimonCIRCUITO264TRECHO</styleUrl><LineString><coordinates>-48.875631,-10.209626,0 -48.875604,-10.209629,0</coordinates></LineString></Placemark>
<Placemark><name>42261671</name><styleUrl>#styleDaimonCIRCUITO264TRECHO</styleUrl><LineString><coordinates>-48.875547,-10.209103,0 -48.875631,-10.209626,0</coordinates></LineString></Placemark>
<Placemark><name>Suporte Chave DJ_LD01004013_FICT</name><styleUrl>#styleDaimonCIRCUITO264TRECHO</styleUrl><LineString><coordinates>-48.874872,-10.208480,0 -48.875327,-10.208434,0</coordinates></LineString></Placemark>
<Placemark><name>Suporte Chave 8856384013</name><styleUrl>#styleDaimonCIRCUITO264TRECHO</styleUrl><LineString><coordinates>-48.875543,-10.209076,0 -48.875547,-10.209103,0</coordinates></LineString></Placemark>
</Folder>
</Folder>
<Style id="styleDaimonCIRCUITO265TRECHO"><LineStyle><color>ff40ff00</color><width>2.00</width></LineStyle></Style>
<Folder>
<name>Circ_LD02004013</name>
<Folder>
<name>Chave</name>
<Placemark><name>DJ_LD02004013_FICT</name><visibility>0</visibility><LookAt><longitude>-48.875041</longitude><latitude>-10.208465</latitude><altitude>1200.0</altitude><altitudeMode>absolute</altitudeMode></LookAt><styleUrl>#mapDaimonCorBranco</styleUrl><Point><coordinates>-48.875041,-10.208465,0</coordinates></Point></Placemark>
<Placemark><name>8802021013</name><visibility>0</visibility><LookAt><longitude>-48.875469</longitude><latitude>-10.209255</latitude><altitude>1200.0</altitude><altitudeMode>absolute</altitudeMode></LookAt><styleUrl>#mapDaimonCorAzul</styleUrl><Point><coordinates>-48.875469,-10.209255,0</coordinates></Point></Placemark>
<Placemark><name>8802316013</name><visibility>0</visibility><LookAt><longitude>-48.874554</longitude><latitude>-10.209628</latitude><altitude>1200.0</altitude><altitudeMode>absolute</altitudeMode></LookAt><styleUrl>#mapDaimonCorAzul</styleUrl><Point><coordinates>-48.874554,-10.209628,0</coordinates></Point></Placemark>
</Folder>
<Folder>
<name>Trecho</name>
<Placemark><name>3402456</name><styleUrl>#styleDaimonCIRCUITO265TRECHO</styleUrl><LineString><coordinates>-48.875265,-10.208601,0 -48.875490,-10.209247,0</coordinates></LineString></Placemark>
<Placemark><name>12107898</name><styleUrl>#styleDaimonCIRCUITO265TRECHO</styleUrl><LineString><coordinates>-48.875245,-10.208561,0 -48.875265,-10.208601,0</coordinates></LineString></Placemark>
<Placemark><name>3640969</name><styleUrl>#styleDaimonCIRCUITO265TRECHO</styleUrl><LineString><coordinates>-48.875209,-10.208451,0 -48.875245,-10.208561,0</coordinates></LineString></Placemark>
<Placemark><name>12115166</name><styleUrl>#styleDaimonCIRCUITO265TRECHO</styleUrl><LineString><coordinates>-48.875209,-10.208451,0 -48.875229,-10.208431,0</coordinates></LineString></Placemark>
<Placemark><name>3640971</name><styleUrl>#styleDaimonCIRCUITO265TRECHO</styleUrl><LineString><coordinates>-48.875229,-10.208431,0 -48.875262,-10.208422,0</coordinates></LineString></Placemark>
<Placemark><name>12115167</name><styleUrl>#styleDaimonCIRCUITO265TRECHO</styleUrl><LineString><coordinates>-48.875262,-10.208422,0 -48.875300,-10.208409,0</coordinates></LineString></Placemark>
<Placemark><name>3640789</name><styleUrl>#styleDaimonCIRCUITO265TRECHO</styleUrl><LineString><coordinates>-48.875300,-10.208409,0 -48.875303,-10.208428,0</coordinates></LineString></Placemark>
<Placemark><name>3580461</name><styleUrl>#styleDaimonCIRCUITO265TRECHO</styleUrl><LineString><coordinates>-48.875078,-10.209400,0 -48.874555,-10.209617,0</coordinates></LineString></Placemark>
<Placemark><name>3580261</name><styleUrl>#styleDaimonCIRCUITO265TRECHO</styleUrl><LineString><coordinates>-48.875449,-10.209263,0 -48.875078,-10.209400,0</coordinates></LineString></Placemark>
<Placemark><name>2737017</name><styleUrl>#styleDaimonCIRCUITO265TRECHO</styleUrl><LineString><coordinates>-48.874783,-10.212470,0 -48.875838,-10.221778,0</coordinates></LineString></Placemark>
<Placemark><name>12094976</name><styleUrl>#styleDaimonCIRCUITO265TRECHO</styleUrl><LineString><coordinates>-48.874781,-10.212438,0 -48.874783,-10.212470,0</coordinates></LineString></Placemark>
<Placemark><name>3140761</name><styleUrl>#styleDaimonCIRCUITO265TRECHO</styleUrl><LineString><coordinates>-48.874747,-10.212015,0 -48.874781,-10.212438,0</coordinates></LineString></Placemark>
<Placemark><name>12094975</name><styleUrl>#styleDaimonCIRCUITO265TRECHO</styleUrl><LineString><coordinates>-48.874743,-10.211982,0 -48.874747,-10.212015,0</coordinates></LineString></Placemark>
<Placemark><name>2951028</name><styleUrl>#styleDaimonCIRCUITO265TRECHO</styleUrl><LineString><coordinates>-48.874554,-10.209638,0 -48.874743,-10.211982,0</coordinates></LineString></Placemark>
<Placemark><name>3653794</name><styleUrl>#styleDaimonCIRCUITO265TRECHO</styleUrl><LineString><coordinates>-48.875078,-10.209403,0 -48.875075,-10.209444,0</coordinates></LineString></Placemark>
<Placemark><name>Suporte Chave DJ_LD02004013_FICT</name><styleUrl>#styleDaimonCIRCUITO265TRECHO</styleUrl><LineString><coordinates>-48.874872,-10.208480,0 -48.875209,-10.208451,0</coordinates></LineString></Placemark>
<Placemark><name>Suporte Chave 8802021013</name><styleUrl>#styleDaimonCIRCUITO265TRECHO</styleUrl><LineString><coordinates>-48.875490,-10.209247,0 -48.875449,-10.209263,0</coordinates></LineString></Placemark>
<Placemark><name>Suporte Chave 8802316013</name><styleUrl>#styleDaimonCIRCUITO265TRECHO</styleUrl><LineString><coordinates>-48.874555,-10.209617,0 -48.874554,-10.209638,0</coordinates></LineString></Placemark>
</Folder>
</Folder>
</Document></kml>