<?xml version="1.0" encoding="UTF-8"?>
<kml xmlns="http://www.opengis.net/kml/2.2"><Document><name>Porto Nacional — pontos VERA</name>
<Placemark><name>V20260709084436428814422 — Outros</name><description><![CDATA[Espécie: Outros<br/>Poste: 526087<br/>Área: URBANO<br/>Altura: 5 m · DAP: 40 cm<br/>Dist. BT/MT/AT: 300/300/0 cm<br/>Equipe: Enecol Centro · 09/07/2026, 08:44:35<br/><a href="https://raw.githubusercontent.com/LGRSV/vera-vegetacao/main/fotos/Enecol-Centro/VER20260709084436428814422F1.jpg">Foto</a>]]></description><Point><coordinates>-48.3907982,-10.6931819,0</coordinates></Point></Placemark>
<Placemark><name>V20260709084957846701598 — Outros</name><description><![CDATA[Espécie: Outros<br/>Poste: 473599<br/>Área: URBANO<br/>Altura: 6.5 m · DAP: 25 cm<br/>Dist. BT/MT/AT: 300/300/0 cm<br/>Equipe: Enecol Centro · 09/07/2026, 08:49:56<br/><a href="https://raw.githubusercontent.com/LGRSV/vera-vegetacao/main/fotos/Enecol-Centro/VER20260709084957846701598F1.jpg">Foto</a>]]></description><Point><coordinates>-48.3910387,-10.6911598,0</coordinates></Point></Placemark>
<Placemark><name>V20260709085106858337710 — Outros</name><description><![CDATA[Espécie: Outros<br/>Poste: 474654<br/>Área: URBANO<br/>Altura: 7 m · DAP: 20 cm<br/>Dist. BT/MT/AT: /300/0 cm<br/>Equipe: Enecol Centro · 09/07/2026, 08:51:05<br/><a href="https://raw.githubusercontent.com/LGRSV/vera-vegetacao/main/fotos/Enecol-Centro/VER20260709085106858337710F1.jpg">Foto</a>]]></description><Point><coordinates>-48.3908165,-10.6910218,0</coordinates></Point></Placemark>
<Placemark><name>V20260709085208796426926 — Outros</name><description><![CDATA[Espécie: Outros<br/>Poste: 474654<br/>Área: URBANO<br/>Altura: 5 m · DAP: 20 cm<br/>Dist. BT/MT/AT: /300/0 cm<br/>Equipe: Enecol Centro · 09/07/2026, 08:52:07<br/><a href="https://raw.githubusercontent.com/LGRSV/vera-vegetacao/main/fotos/Enecol-Centro/VER20260709085208796426926F1.jpg">Foto</a>]]></description><Point><coordinates>-48.3908087,-10.6908999,0</coordinates></Point></Placemark>
<Placemark><name>V20260709085304067596654 — Outros</name><description><![CDATA[Espécie: Outros<br/>Poste: 161984<br/>Área: URBANO<br/>Altura: 9 m · DAP: 25 cm<br/>Dist. BT/MT/AT: /150/0 cm<br/>Equipe: Enecol Centro · 09/07/2026, 08:53:02<br/><a href="https://raw.githubusercontent.com/LGRSV/vera-vegetacao/main/fotos/Enecol-Centro/VER20260709085304067596654F1.jpg">Foto</a>]]></description><Point><coordinates>-48.3906679,-10.6911414,0</coordinates></Point></Placemark>
<Placemark><name>V20260709085417576405850 — Outros</name><description><![CDATA[Espécie: Outros<br/>Poste: 161984<br/>Área: URBANO<br/>Altura: 9 m · DAP: 25 cm<br/>Dist. BT/MT/AT: /150/0 cm<br/>Equipe: Enecol Centro · 09/07/2026, 08:54:16<br/><a href="https://raw.githubusercontent.com/LGRSV/vera-vegetacao/main/fotos/Enecol-Centro/VER20260709085417576405850F1.jpg">Foto</a>]]></description><Point><coordinates>-48.3905354,-10.6910291,0</coordinates></Point></Placemark>
<Placemark><name>V20260709085605133255966 — Outros</name><description><![CDATA[Espécie: Outros<br/>Poste: 338956<br/>Área: URBANO<br/>Altura: 8 m · DAP: 80 cm<br/>Dist. BT/MT/AT: /300/0 cm<br/>Equipe: Enecol Centro · 09/07/2026, 08:56:04<br/><a href="https://raw.githubusercontent.com/LGRSV/vera-vegetacao/main/fotos/Enecol-Centro/VER20260709085605133255966F1.jpg">Foto</a>]]></description><Point><coordinates>-48.3902046,-10.6909662,0</coordinates></Point></Placemark>
<Placemark><name>V20260709085825074798958 — Mangueira</name><description><![CDATA[Espécie: Mangueira<br/>Poste: 45812700<br/>Área: URBANO<br/>Altura: 12 m · DAP: 120 cm<br/>Dist. BT/MT/AT: /50/0 cm<br/>Equipe: Enecol Centro · 09/07/2026, 08:58:23<br/><a href="https://raw.githubusercontent.com/LGRSV/vera-vegetacao/main/fotos/Enecol-Centro/VER20260709085825074798958F1.jpg">Foto</a>]]></description><Point><coordinates>-48.390225,-10.6905853,0</coordinates></Point></Placemark>
<Placemark><name>V20260709090032365738741 — Mangueira</name><description><![CDATA[Espécie: Mangueira<br/>Poste: 473183<br/>Área: URBANO<br/>Altura: 8 m · DAP: 110 cm<br/>Dist. BT/MT/AT: /300/0 cm<br/>Equipe: Enecol Centro · 09/07/2026, 09:00:31<br/><a href="https://raw.githubusercontent.com/LGRSV/vera-vegetacao/main/fotos/Enecol-Centro/VER20260709090032365738741F1.jpg">Foto</a>]]></description><Point><coordinates>-48.3899412,-10.6906914,0</coordinates></Point></Placemark>
<Placemark><name>V20260709090144329101732 — Outros</name><description><![CDATA[Espécie: Outros<br/>Poste: 475867<br/>Área: URBANO<br/>Altura: 7 m · DAP: 95 cm<br/>Dist. BT/MT/AT: /150/0 cm<br/>Equipe: Enecol Centro · 09/07/2026, 09:01:43<br/><a href="https://raw.githubusercontent.com/LGRSV/vera-vegetacao/main/fotos/Enecol-Centro/VER20260709090144329101732F1.jpg">Foto</a>]]></description><Point><coordinates>-48.389817,-10.6906644,0</coordinates></Point></Placemark>
<Placemark><name>V20260709092846431177896 — Outros</name><description><![CDATA[Espécie: Outros<br/>Poste: 370696<br/>Área: URBANO<br/>Altura: 9 m · DAP: 80 cm<br/>Dist. BT/MT/AT: 0/100/0 cm<br/>Equipe: Enecol Centro · 09/07/2026, 09:28:45<br/><a href="https://raw.githubusercontent.com/LGRSV/vera-vegetacao/main/fotos/Enecol-Centro/VER20260709092846431177896F1.jpg">Foto</a>]]></description><Point><coordinates>-48.3953674,-10.6931166,0</coordinates></Point></Placemark>
<Placemark><name>V20260709093009843061000 — Outros</name><description><![CDATA[Espécie: Outros<br/>Poste: 432317<br/>Área: URBANO<br/>Altura: 10 m · DAP: 70 cm<br/>Dist. BT/MT/AT: 50/200/0 cm<br/>Equipe: Enecol Centro · 09/07/2026, 09:30:08<br/><a href="https://raw.githubusercontent.com/LGRSV/vera-vegetacao/main/fotos/Enecol-Centro/VER20260709093009843061000F1.jpg">Foto</a>]]></description><Point><coordinates>-48.3953686,-10.6929706,0</coordinates></Point></Placemark>
<Placemark><name>V20260709093342787749566 — Coqueiro</name><description><![CDATA[Espécie: Coqueiro<br/>Poste: 472281<br/>Área: URBANO<br/>Altura: 8 m · DAP: 80 cm<br/>Dist. BT/MT/AT: 50/300/0 cm<br/>Equipe: Enecol Centro · 09/07/2026, 09:33:41<br/><a href="https://raw.githubusercontent.com/LGRSV/vera-vegetacao/main/fotos/Enecol-Centro/VER20260709093342787749566F1.jpg">Foto</a>]]></description><Point><coordinates>-48.3957207,-10.6923246,0</coordinates></Point></Placemark>
<Placemark><name>V20260709093623976151157 — Coqueiro</name><description><![CDATA[Espécie: Coqueiro<br/>Poste: 472283<br/>Área: URBANO<br/>Altura:  m · DAP: 50 cm<br/>Dist. BT/MT/AT: 50/300/0 cm<br/>Equipe: Enecol Centro · 09/07/2026, 09:36:22<br/><a href="https://raw.githubusercontent.com/LGRSV/vera-vegetacao/main/fotos/Enecol-Centro/VER20260709093623976151157F1.jpg">Foto</a>]]></description><Point><coordinates>-48.3958545,-10.6918757,0</coordinates></Point></Placemark>
<Placemark><name>V20260709094402760953434 — Cajueiro</name><description><![CDATA[Espécie: Cajueiro<br/>Poste: 429087<br/>Área: URBANO<br/>Altura: 11 m · DAP: 80 cm<br/>Dist. BT/MT/AT: 300/300/0 cm<br/>Equipe: Enecol Centro · 09/07/2026, 09:44:01<br/><a href="https://raw.githubusercontent.com/LGRSV/vera-vegetacao/main/fotos/Enecol-Centro/VER20260709094402760953434F1.jpg">Foto</a>]]></description><Point><coordinates>-48.3993715,-10.6938246,0</coordinates></Point></Placemark>
<Placemark><name>V20260709095452379688015 — Outros</name><description><![CDATA[Espécie: Outros<br/>Poste: 1585368<br/>Área: URBANO<br/>Altura:  m · DAP: 40 cm<br/>Dist. BT/MT/AT: /300/0 cm<br/>Equipe: Enecol Centro · 09/07/2026, 09:54:51<br/><a href="https://raw.githubusercontent.com/LGRSV/vera-vegetacao/main/fotos/Enecol-Centro/VER20260709095452379688015F1.jpg">Foto</a>]]></description><Point><coordinates>-48.398901,-10.6948292,0</coordinates></Point></Placemark>
<Placemark><name>V20260709095557650998104 — Oiti</name><description><![CDATA[Espécie: Oiti<br/>Poste: 430263<br/>Área: URBANO<br/>Altura: 2.5 m · DAP: 40 cm<br/>Dist. BT/MT/AT: /300/0 cm<br/>Equipe: Enecol Centro · 09/07/2026, 09:55:56<br/><a href="https://raw.githubusercontent.com/LGRSV/vera-vegetacao/main/fotos/Enecol-Centro/VER20260709095557650998104F1.jpg">Foto</a>]]></description><Point><coordinates>-48.3988461,-10.6949476,0</coordinates></Point></Placemark>
<Placemark><name>V20260709095833547340970 — Outros</name><description><![CDATA[Espécie: Outros<br/>Poste: 430263<br/>Área: URBANO<br/>Altura: 7 m · DAP: 50 cm<br/>Dist. BT/MT/AT: /300/0 cm<br/>Equipe: Enecol Centro · 09/07/2026, 09:58:32<br/><a href="https://raw.githubusercontent.com/LGRSV/vera-vegetacao/main/fotos/Enecol-Centro/VER20260709095833547340970F1.jpg">Foto</a>]]></description><Point><coordinates>-48.3987986,-10.6949188,0</coordinates></Point></Placemark>
<Placemark><name>V20260709100645920980118 — Coqueiro</name><description><![CDATA[Espécie: Coqueiro<br/>Poste: 433002<br/>Área: URBANO<br/>Altura: 3.5 m · DAP: 40 cm<br/>Dist. BT/MT/AT: /300/0 cm<br/>Equipe: Enecol Centro · 09/07/2026, 10:06:44<br/><a href="https://raw.githubusercontent.com/LGRSV/vera-vegetacao/main/fotos/Enecol-Centro/VER20260709100645920980118F1.jpg">Foto</a>]]></description><Point><coordinates>-48.3979468,-10.6971892,0</coordinates></Point></Placemark>
<Placemark><name>V20260709102700749562186 — Mangueira</name><description><![CDATA[Espécie: Mangueira<br/>Poste: 1605019<br/>Área: URBANO<br/>Altura: 11 m · DAP: 90 cm<br/>Dist. BT/MT/AT: /0/0 cm<br/>Equipe: Enecol Centro · 09/07/2026, 10:26:59<br/><a href="https://raw.githubusercontent.com/LGRSV/vera-vegetacao/main/fotos/Enecol-Centro/VER20260709102700749562186F1.jpg">Foto</a>]]></description><Point><coordinates>-48.3898436,-10.6959004,0</coordinates></Point></Placemark>
<Placemark><name>V20260709102804434698358 — Mangueira</name><description><![CDATA[Espécie: Mangueira<br/>Poste: 1605019<br/>Área: URBANO<br/>Altura: 11 m · DAP: 120 cm<br/>Dist. BT/MT/AT: /250/0 cm<br/>Equipe: Enecol Centro · 09/07/2026, 10:28:03<br/><a href="https://raw.githubusercontent.com/LGRSV/vera-vegetacao/main/fotos/Enecol-Centro/VER20260709102804434698358F1.jpg">Foto</a>]]></description><Point><coordinates>-48.3898531,-10.6958761,0</coordinates></Point></Placemark>
<Placemark><name>V20260709103109386388061 — Pequi</name><description><![CDATA[Espécie: Pequi<br/>Poste: 475604<br/>Área: URBANO<br/>Altura: 8 m · DAP: 80 cm<br/>Dist. BT/MT/AT: /300/0 cm<br/>Equipe: Enecol Centro · 09/07/2026, 10:31:08<br/><a href="https://raw.githubusercontent.com/LGRSV/vera-vegetacao/main/fotos/Enecol-Centro/VER20260709103109386388061F1.jpg">Foto</a>]]></description><Point><coordinates>-48.3895057,-10.6968209,0</coordinates></Point></Placemark>
<Placemark><name>V20260709103253264789830 — Mangueira</name><description><![CDATA[Espécie: Mangueira<br/>Poste: 52713406<br/>Área: URBANO<br/>Altura: 9 m · DAP: 50 cm<br/>Dist. BT/MT/AT: 50/100/0 cm<br/>Equipe: Enecol Centro · 09/07/2026, 10:32:52<br/><a href="https://raw.githubusercontent.com/LGRSV/vera-vegetacao/main/fotos/Enecol-Centro/VER20260709103253264789830F1.jpg">Foto</a>]]></description><Point><coordinates>-48.3894417,-10.6968131,0</coordinates></Point></Placemark>
<Placemark><name>V20260709103428817305367 — Pequi</name><description><![CDATA[Espécie: Pequi<br/>Poste: 52713446<br/>Área: URBANO<br/>Altura: 11 m · DAP: 130 cm<br/>Dist. BT/MT/AT: 50/300/0 cm<br/>Equipe: Enecol Centro · 09/07/2026, 10:34:27<br/><a href="https://raw.githubusercontent.com/LGRSV/vera-vegetacao/main/fotos/Enecol-Centro/VER20260709103428817305367F1.jpg">Foto</a>]]></description><Point><coordinates>-48.3894793,-10.6967939,0</coordinates></Point></Placemark>
<Placemark><name>V20260709103728011243897 — Outros</name><description><![CDATA[Espécie: Outros<br/>Poste: 473604<br/>Área: URBANO<br/>Altura: 8 m · DAP: 80 cm<br/>Dist. BT/MT/AT: 300/300/0 cm<br/>Equipe: Enecol Centro · 09/07/2026, 10:37:26<br/><a href="https://raw.githubusercontent.com/LGRSV/vera-vegetacao/main/fotos/Enecol-Centro/VER20260709103728011243897F1.jpg">Foto</a>]]></description><Point><coordinates>-48.3891039,-10.6963171,0</coordinates></Point></Placemark>
<Placemark><name>V20260709103832853047549 — Outros</name><description><![CDATA[Espécie: Outros<br/>Poste: 473604<br/>Área: URBANO<br/>Altura: 10 m · DAP: 80 cm<br/>Dist. BT/MT/AT: 300/300/0 cm<br/>Equipe: Enecol Centro · 09/07/2026, 10:38:31<br/><a href="https://raw.githubusercontent.com/LGRSV/vera-vegetacao/main/fotos/Enecol-Centro/VER20260709103832853047549F1.jpg">Foto</a>]]></description><Point><coordinates>-48.3891482,-10.6963771,0</coordinates></Point></Placemark>
<Placemark><name>V20260709103941972122927 — Outros</name><description><![CDATA[Espécie: Outros<br/>Poste: 473604<br/>Área: URBANO<br/>Altura: 9 m · DAP:  cm<br/>Dist. BT/MT/AT: 150/300/0 cm<br/>Equipe: Enecol Centro · 09/07/2026, 10:39:40<br/><a href="https://raw.githubusercontent.com/LGRSV/vera-vegetacao/main/fotos/Enecol-Centro/VER20260709103941972122927F1.jpg">Foto</a>]]></description><Point><coordinates>-48.3890536,-10.6961851,0</coordinates></Point></Placemark>
<Placemark><name>V20260709104124159185456 — Mangueira</name><description><![CDATA[Espécie: Mangueira<br/>Poste: 473603<br/>Área: URBANO<br/>Altura: 14 m · DAP: 140 cm<br/>Dist. BT/MT/AT: 50/250/0 cm<br/>Equipe: Enecol Centro · 09/07/2026, 10:41:22<br/><a href="https://raw.githubusercontent.com/LGRSV/vera-vegetacao/main/fotos/Enecol-Centro/VER20260709104124159185456F1.jpg">Foto</a>]]></description><Point><coordinates>-48.3888731,-10.6962165,0</coordinates></Point></Placemark>
<Placemark><name>V20260709104223191220928 — Outros</name><description><![CDATA[Espécie: Outros<br/>Poste: 473603<br/>Área: URBANO<br/>Altura: 10 m · DAP: 90 cm<br/>Dist. BT/MT/AT: /300/0 cm<br/>Equipe: Enecol Centro · 09/07/2026, 10:42:22<br/><a href="https://raw.githubusercontent.com/LGRSV/vera-vegetacao/main/fotos/Enecol-Centro/VER20260709104223191220928F1.jpg">Foto</a>]]></description><Point><coordinates>-48.3888144,-10.6961565,0</coordinates></Point></Placemark>
<Placemark><name>V20260709144806509775335 — Outros</name><description><![CDATA[Espécie: Outros<br/>Poste: 473394<br/>Área: URBANO<br/>Altura: 8 m · DAP: 40 cm<br/>Dist. BT/MT/AT: /300/0 cm<br/>Equipe: Enecol Centro · 09/07/2026, 14:48:05<br/><a href="https://raw.githubusercontent.com/LGRSV/vera-vegetacao/main/fotos/Enecol-Centro/VER20260709144806509775335F1.jpg">Foto</a>]]></description><Point><coordinates>-48.3973421,-10.6987222,0</coordinates></Point></Placemark>
<Placemark><name>V20260709144906752928877 — Outros</name><description><![CDATA[Espécie: Outros<br/>Poste: 473395<br/>Área: URBANO<br/>Altura: 8 m · DAP: 40 cm<br/>Dist. BT/MT/AT: /300/0 cm<br/>Equipe: Enecol Centro · 09/07/2026, 14:49:05<br/><a href="https://raw.githubusercontent.com/LGRSV/vera-vegetacao/main/fotos/Enecol-Centro/VER20260709144906752928877F1.jpg">Foto</a>]]></description><Point><coordinates>-48.3972449,-10.6987661,0</coordinates></Point></Placemark>
<Placemark><name>V20260709144954640205803 — Outros</name><description><![CDATA[Espécie: Outros<br/>Poste: 431797<br/>Área: URBANO<br/>Altura: 8 m · DAP: 40 cm<br/>Dist. BT/MT/AT: /300/0 cm<br/>Equipe: Enecol Centro · 09/07/2026, 14:49:53<br/><a href="https://raw.githubusercontent.com/LGRSV/vera-vegetacao/main/fotos/Enecol-Centro/VER20260709144954640205803F1.jpg">Foto</a>]]></description><Point><coordinates>-48.3971274,-10.6988944,0</coordinates></Point></Placemark>
<Placemark><name>V20260709145048361214350 — Outros</name><description><![CDATA[Espécie: Outros<br/>Poste: 431797<br/>Área: URBANO<br/>Altura: 8 m · DAP: 40 cm<br/>Dist. BT/MT/AT: /300/0 cm<br/>Equipe: Enecol Centro · 09/07/2026, 14:50:47<br/><a href="https://raw.githubusercontent.com/LGRSV/vera-vegetacao/main/fotos/Enecol-Centro/VER20260709145048361214350F1.jpg">Foto</a>]]></description><Point><coordinates>-48.397158,-10.6989474,0</coordinates></Point></Placemark>
<Placemark><name>V20260709145140057905109 — Outros</name><description><![CDATA[Espécie: Outros<br/>Poste: 431797<br/>Área: URBANO<br/>Altura: 8 m · DAP: 40 cm<br/>Dist. BT/MT/AT: /300/0 cm<br/>Equipe: Enecol Centro · 09/07/2026, 14:51:38<br/><a href="https://raw.githubusercontent.com/LGRSV/vera-vegetacao/main/fotos/Enecol-Centro/VER20260709145140057905109F1.jpg">Foto</a>]]></description><Point><coordinates>-48.3971231,-10.6989829,0</coordinates></Point></Placemark>
<Placemark><name>V20260709145238036996322 — Outros</name><description><![CDATA[Espécie: Outros<br/>Poste: 431798<br/>Área: URBANO<br/>Altura: 8 m · DAP: 40 cm<br/>Dist. BT/MT/AT: /300/0 cm<br/>Equipe: Enecol Centro · 09/07/2026, 14:52:36<br/><a href="https://raw.githubusercontent.com/LGRSV/vera-vegetacao/main/fotos/Enecol-Centro/VER20260709145238036996322F1.jpg">Foto</a>]]></description><Point><coordinates>-48.3969965,-10.6990358,0</coordinates></Point></Placemark>
<Placemark><name>V20260709145340758532681 — Outros</name><description><![CDATA[Espécie: Outros<br/>Poste: 431797<br/>Área: URBANO<br/>Altura: 8 m · DAP: 40 cm<br/>Dist. BT/MT/AT: /300/0 cm<br/>Equipe: Enecol Centro · 09/07/2026, 14:53:39<br/><a href="https://raw.githubusercontent.com/LGRSV/vera-vegetacao/main/fotos/Enecol-Centro/VER20260709145340758532681F1.jpg">Foto</a>]]></description><Point><coordinates>-48.3972228,-10.6992075,0</coordinates></Point></Placemark>
<Placemark><name>V20260709145452922739597 — Outros</name><description><![CDATA[Espécie: Outros<br/>Poste: 431800<br/>Área: URBANO<br/>Altura: 8 m · DAP: 40 cm<br/>Dist. BT/MT/AT: /300/0 cm<br/>Equipe: Enecol Centro · 09/07/2026, 14:54:49<br/><a href="https://raw.githubusercontent.com/LGRSV/vera-vegetacao/main/fotos/Enecol-Centro/VER20260709145452922739597F1.jpg">Foto</a>]]></description><Point><coordinates>-48.3963926,-10.6993597,0</coordinates></Point></Placemark>
<Placemark><name>V20260709145603853910616 — Outros</name><description><![CDATA[Espécie: Outros<br/>Poste: 431799<br/>Área: URBANO<br/>Altura: 8 m · DAP: 40 cm<br/>Dist. BT/MT/AT: /300/0 cm<br/>Equipe: Enecol Centro · 09/07/2026, 14:56:02<br/><a href="https://raw.githubusercontent.com/LGRSV/vera-vegetacao/main/fotos/Enecol-Centro/VER20260709145603853910616F1.jpg">Foto</a>]]></description><Point><coordinates>-48.3969514,-10.6993993,0</coordinates></Point></Placemark>
<Placemark><name>V20260709145702312700883 — Outros</name><description><![CDATA[Espécie: Outros<br/>Poste: 1603789<br/>Área: URBANO<br/>Altura: 8 m · DAP: 40 cm<br/>Dist. BT/MT/AT: /300/0 cm<br/>Equipe: Enecol Centro · 09/07/2026, 14:57:00<br/><a href="https://raw.githubusercontent.com/LGRSV/vera-vegetacao/main/fotos/Enecol-Centro/VER20260709145702312700883F1.jpg">Foto</a>]]></description><Point><coordinates>-48.3965731,-10.69936,0</coordinates></Point></Placemark>
<Placemark><name>V20260709145845417266595 — Outros</name><description><![CDATA[Espécie: Outros<br/>Poste: 431800<br/>Área: URBANO<br/>Altura: 8 m · DAP: 40 cm<br/>Dist. BT/MT/AT: /300/0 cm<br/>Equipe: Enecol Centro · 09/07/2026, 14:58:43<br/><a href="https://raw.githubusercontent.com/LGRSV/vera-vegetacao/main/fotos/Enecol-Centro/VER20260709145845417266595F1.jpg">Foto</a>]]></description><Point><coordinates>-48.3965277,-10.6993139,0</coordinates></Point></Placemark>
<Placemark><name>V20260709145954012881795 — Outros</name><description><![CDATA[Espécie: Outros<br/>Poste: 1603789<br/>Área: URBANO<br/>Altura: 8 m · DAP: 40 cm<br/>Dist. BT/MT/AT: /300/0 cm<br/>Equipe: Enecol Centro · 09/07/2026, 14:59:51<br/><a href="https://raw.githubusercontent.com/LGRSV/vera-vegetacao/main/fotos/Enecol-Centro/VER20260709145954012881795F1.jpg">Foto</a>]]></description><Point><coordinates>-48.3962829,-10.6994188,0</coordinates></Point></Placemark>
<Placemark><name>V20260709150042312940197 — Outros</name><description><![CDATA[Espécie: Outros<br/>Poste: 431800<br/>Área: URBANO<br/>Altura: 8 m · DAP: 40 cm<br/>Dist. BT/MT/AT: /300/0 cm<br/>Equipe: Enecol Centro · 09/07/2026, 15:00:39<br/><a href="https://raw.githubusercontent.com/LGRSV/vera-vegetacao/main/fotos/Enecol-Centro/VER20260709150042312940197F1.jpg">Foto</a>]]></description><Point><coordinates>-48.3963231,-10.6994971,0</coordinates></Point></Placemark>
<Placemark><name>V20260709150156787074423 — Outros</name><description><![CDATA[Espécie: Outros<br/>Poste: 1139659<br/>Área: URBANO<br/>Altura: 8 m · DAP: 40 cm<br/>Dist. BT/MT/AT: /300/0 cm<br/>Equipe: Enecol Centro · 09/07/2026, 15:01:54<br/><a href="https://raw.githubusercontent.com/LGRSV/vera-vegetacao/main/fotos/Enecol-Centro/VER20260709150156787074423F1.jpg">Foto</a>]]></description><Point><coordinates>-48.3965698,-10.6997062,0</coordinates></Point></Placemark>
<Placemark><name>V20260709150404622681020 — Outros</name><description><![CDATA[Espécie: Outros<br/>Poste: 1603790<br/>Área: URBANO<br/>Altura: 8 m · DAP: 40 cm<br/>Dist. BT/MT/AT: /300/0 cm<br/>Equipe: Enecol Centro · 09/07/2026, 15:04:02<br/><a href="https://raw.githubusercontent.com/LGRSV/vera-vegetacao/main/fotos/Enecol-Centro/VER20260709150404622681020F1.jpg">Foto</a>]]></description><Point><coordinates>-48.396329,-10.6995211,0</coordinates></Point></Placemark>
<Placemark><name>V20260709150455314393359 — Outros</name><description><![CDATA[Espécie: Outros<br/>Poste: 1603789<br/>Área: URBANO<br/>Altura: 8 m · DAP: 40 cm<br/>Dist. BT/MT/AT: /300/0 cm<br/>Equipe: Enecol Centro · 09/07/2026, 15:04:52<br/><a href="https://raw.githubusercontent.com/LGRSV/vera-vegetacao/main/fotos/Enecol-Centro/VER20260709150455314393359F1.jpg">Foto</a>]]></description><Point><coordinates>-48.3962974,-10.6996249,0</coordinates></Point></Placemark>
<Placemark><name>V20260709150616298030320 — Outros</name><description><![CDATA[Espécie: Outros<br/>Poste: 428924<br/>Área: URBANO<br/>Altura: 8 m · DAP: 40 cm<br/>Dist. BT/MT/AT: /300/0 cm<br/>Equipe: Enecol Centro · 09/07/2026, 15:06:13<br/><a href="https://raw.githubusercontent.com/LGRSV/vera-vegetacao/main/fotos/Enecol-Centro/VER20260709150616298030320F1.jpg">Foto</a>]]></description><Point><coordinates>-48.3963045,-10.6997832,0</coordinates></Point></Placemark>
<Placemark><name>V20260709150742079999851 — Outros</name><description><![CDATA[Espécie: Outros<br/>Poste: 474129<br/>Área: URBANO<br/>Altura: 8 m · DAP: 40 cm<br/>Dist. BT/MT/AT: /300/0 cm<br/>Equipe: Enecol Centro · 09/07/2026, 15:07:39<br/><a href="https://raw.githubusercontent.com/LGRSV/vera-vegetacao/main/fotos/Enecol-Centro/VER20260709150742079999851F1.jpg">Foto</a>]]></description><Point><coordinates>-48.3962281,-10.6998181,0</coordinates></Point></Placemark>
<Placemark><name>V20260709150908332712725 — Outros</name><description><![CDATA[Espécie: Outros<br/>Poste: 1603789<br/>Área: URBANO<br/>Altura: 8 m · DAP: 40 cm<br/>Dist. BT/MT/AT: /300/0 cm<br/>Equipe: Enecol Centro · 09/07/2026, 15:09:05<br/><a href="https://raw.githubusercontent.com/LGRSV/vera-vegetacao/main/fotos/Enecol-Centro/VER20260709150908332712725F1.jpg">Foto</a>]]></description><Point><coordinates>-48.3962531,-10.6996166,0</coordinates></Point></Placemark>
<Placemark><name>V20260709151029586173942 — Outros</name><description><![CDATA[Espécie: Outros<br/>Poste: 474129<br/>Área: URBANO<br/>Altura: 8 m · DAP: 40 cm<br/>Dist. BT/MT/AT: /300/0 cm<br/>Equipe: Enecol Centro · 09/07/2026, 15:10:26<br/><a href="https://raw.githubusercontent.com/LGRSV/vera-vegetacao/main/fotos/Enecol-Centro/VER20260709151029586173942F1.jpg">Foto</a>]]></description><Point><coordinates>-48.3961029,-10.6997574,0</coordinates></Point></Placemark>
<Placemark><name>V20260709151130634104850 — Outros</name><description><![CDATA[Espécie: Outros<br/>Poste: 474129<br/>Área: URBANO<br/>Altura: 8 m · DAP: 40 cm<br/>Dist. BT/MT/AT: /200/0 cm<br/>Equipe: Enecol Centro · 09/07/2026, 15:11:27<br/><a href="https://raw.githubusercontent.com/LGRSV/vera-vegetacao/main/fotos/Enecol-Centro/VER20260709151130634104850F1.jpg">Foto</a>]]></description><Point><coordinates>-48.3960944,-10.700014,0</coordinates></Point></Placemark>
<Placemark><name>V20260709151242393368501 — Outros</name><description><![CDATA[Espécie: Outros<br/>Poste: 474129<br/>Área: URBANO<br/>Altura: 8 m · DAP: 40 cm<br/>Dist. BT/MT/AT: /200/0 cm<br/>Equipe: Enecol Centro · 09/07/2026, 15:12:39<br/><a href="https://raw.githubusercontent.com/LGRSV/vera-vegetacao/main/fotos/Enecol-Centro/VER20260709151242393368501F1.jpg">Foto</a>]]></description><Point><coordinates>-48.3959778,-10.6999898,0</coordinates></Point></Placemark>
<Placemark><name>V20260709151441463076199 — Outros</name><description><![CDATA[Espécie: Outros<br/>Poste: 474129<br/>Área: URBANO<br/>Altura: 8 m · DAP: 40 cm<br/>Dist. BT/MT/AT: /200/0 cm<br/>Equipe: Enecol Centro · 09/07/2026, 15:14:40<br/><a href="https://raw.githubusercontent.com/LGRSV/vera-vegetacao/main/fotos/Enecol-Centro/VER20260709151441463076199F1.jpg">Foto</a>]]></description><Point><coordinates>-48.3959557,-10.7000682,0</coordinates></Point></Placemark>
<Placemark><name>V20260709151613641255425 — Outros</name><description><![CDATA[Espécie: Outros<br/>Poste: 57728685<br/>Área: URBANO<br/>Altura: 8 m · DAP: 40 cm<br/>Dist. BT/MT/AT: /200/0 cm<br/>Equipe: Enecol Centro · 09/07/2026, 15:16:10<br/><a href="https://raw.githubusercontent.com/LGRSV/vera-vegetacao/main/fotos/Enecol-Centro/VER20260709151613641255425F1.jpg">Foto</a>]]></description><Point><coordinates>-48.3959261,-10.7001423,0</coordinates></Point></Placemark>
<Placemark><name>V20260709151754258345005 — Outros</name><description><![CDATA[Espécie: Outros<br/>Poste: 57728685<br/>Área: URBANO<br/>Altura: 9 m · DAP: 45 cm<br/>Dist. BT/MT/AT: /50/0 cm<br/>Equipe: Enecol Centro · 09/07/2026, 15:17:51<br/><a href="https://raw.githubusercontent.com/LGRSV/vera-vegetacao/main/fotos/Enecol-Centro/VER20260709151754258345005F1.jpg">Foto</a>]]></description><Point><coordinates>-48.3958722,-10.7001597,0</coordinates></Point></Placemark>
<Placemark><name>V20260709154102045896164 — Outros</name><description><![CDATA[Espécie: Outros<br/>Poste: 1251079<br/>Área: URBANO<br/>Altura: 6 m · DAP: 30 cm<br/>Dist. BT/MT/AT: /300/0 cm<br/>Equipe: Enecol Centro · 09/07/2026, 15:41:00<br/><a href="https://raw.githubusercontent.com/LGRSV/vera-vegetacao/main/fotos/Enecol-Centro/VER20260709154102045896164F1.jpg">Foto</a>]]></description><Point><coordinates>-48.3961079,-10.7004703,0</coordinates></Point></Placemark>
<Placemark><name>V20260709154619152050795 — Jatobá</name><description><![CDATA[Espécie: Jatobá<br/>Poste: 472965<br/>Área: URBANO<br/>Altura: 20 m · DAP: 140 cm<br/>Dist. BT/MT/AT: /300/0 cm<br/>Equipe: Enecol Centro · 09/07/2026, 15:46:17<br/><a href="https://raw.githubusercontent.com/LGRSV/vera-vegetacao/main/fotos/Enecol-Centro/VER20260709154619152050795F1.jpg">Foto</a>]]></description><Point><coordinates>-48.396341,-10.7011322,0</coordinates></Point></Placemark>
<Placemark><name>V20260709154834833135448 — Outros</name><description><![CDATA[Espécie: Outros<br/>Poste: 1066961<br/>Área: URBANO<br/>Altura: 10 m · DAP: 60 cm<br/>Dist. BT/MT/AT: /300/0 cm<br/>Equipe: Enecol Centro · 09/07/2026, 15:48:32<br/><a href="https://raw.githubusercontent.com/LGRSV/vera-vegetacao/main/fotos/Enecol-Centro/VER20260709154834833135448F1.jpg">Foto</a>]]></description><Point><coordinates>-48.3965121,-10.7014573,0</coordinates></Point></Placemark>
<Placemark><name>V20260709155028298917214 — Outros</name><description><![CDATA[Espécie: Outros<br/>Poste: 472966<br/>Área: URBANO<br/>Altura: 9 m · DAP: 50 cm<br/>Dist. BT/MT/AT: /300/0 cm<br/>Equipe: Enecol Centro · 09/07/2026, 15:50:26<br/><a href="https://raw.githubusercontent.com/LGRSV/vera-vegetacao/main/fotos/Enecol-Centro/VER20260709155028298917214F1.jpg">Foto</a>]]></description><Point><coordinates>-48.3967564,-10.7015843,0</coordinates></Point></Placemark>
<Placemark><name>V20260709155318728624905 — Outros</name><description><![CDATA[Espécie: Outros<br/>Poste: 472968<br/>Área: URBANO<br/>Altura: 9 m · DAP: 60 cm<br/>Dist. BT/MT/AT: /250/0 cm<br/>Equipe: Enecol Centro · 09/07/2026, 15:53:17<br/><a href="https://raw.githubusercontent.com/LGRSV/vera-vegetacao/main/fotos/Enecol-Centro/VER20260709155318728624905F1.jpg">Foto</a>]]></description><Point><coordinates>-48.3974132,-10.7023672,0</coordinates></Point></Placemark>
<Placemark><name>V20260709155547910682110 — Outros</name><description><![CDATA[Espécie: Outros<br/>Poste: 472970<br/>Área: URBANO<br/>Altura: 9 m · DAP: 50 cm<br/>Dist. BT/MT/AT: 300/250/0 cm<br/>Equipe: Enecol Centro · 09/07/2026, 15:55:46<br/><a href="https://raw.githubusercontent.com/LGRSV/vera-vegetacao/main/fotos/Enecol-Centro/VER20260709155547910682110F1.jpg">Foto</a>]]></description><Point><coordinates>-48.3975637,-10.7026305,0</coordinates></Point></Placemark>
<Placemark><name>V20260709155710672943583 — Outros</name><description><![CDATA[Espécie: Outros<br/>Poste: 472970<br/>Área: URBANO<br/>Altura: 8 m · DAP: 50 cm<br/>Dist. BT/MT/AT: 300/300/0 cm<br/>Equipe: Enecol Centro · 09/07/2026, 15:57:08<br/><a href="https://raw.githubusercontent.com/LGRSV/vera-vegetacao/main/fotos/Enecol-Centro/VER20260709155710672943583F1.jpg">Foto</a>]]></description><Point><coordinates>-48.3974807,-10.7027292,0</coordinates></Point></Placemark>
<Placemark><name>V20260709155832838519173 — Mangueira</name><description><![CDATA[Espécie: Mangueira<br/>Poste: 472705<br/>Área: URBANO<br/>Altura: 13 m · DAP: 130 cm<br/>Dist. BT/MT/AT: 150/50/0 cm<br/>Equipe: Enecol Centro · 09/07/2026, 15:58:31<br/><a href="https://raw.githubusercontent.com/LGRSV/vera-vegetacao/main/fotos/Enecol-Centro/VER20260709155832838519173F1.jpg">Foto</a>]]></description><Point><coordinates>-48.3975894,-10.703171,0</coordinates></Point></Placemark>
<Placemark><name>V20260709155945875675616 — Mangueira</name><description><![CDATA[Espécie: Mangueira<br/>Poste: 472705<br/>Área: URBANO<br/>Altura: 13 m · DAP: 150 cm<br/>Dist. BT/MT/AT: 150/50/0 cm<br/>Equipe: Enecol Centro · 09/07/2026, 15:59:44<br/><a href="https://raw.githubusercontent.com/LGRSV/vera-vegetacao/main/fotos/Enecol-Centro/VER20260709155945875675616F1.jpg">Foto</a>]]></description><Point><coordinates>-48.3976599,-10.7031743,0</coordinates></Point></Placemark>
<Placemark><name>V20260709160156378322015 — Mangueira</name><description><![CDATA[Espécie: Mangueira<br/>Poste: 472705<br/>Área: URBANO<br/>Altura: 12 m · DAP: 140 cm<br/>Dist. BT/MT/AT: /150/0 cm<br/>Equipe: Enecol Centro · 09/07/2026, 16:01:54<br/><a href="https://raw.githubusercontent.com/LGRSV/vera-vegetacao/main/fotos/Enecol-Centro/VER20260709160156378322015F1.jpg">Foto</a>]]></description><Point><coordinates>-48.3977449,-10.7033663,0</coordinates></Point></Placemark>
<Placemark><name>V20260709164422545713720 — Mogno</name><description><![CDATA[Espécie: Mogno<br/>Poste: 473486<br/>Área: URBANO<br/>Altura: 3 m · DAP: 20 cm<br/>Dist. BT/MT/AT: /300/0 cm<br/>Equipe: Enecol Centro · 09/07/2026, 16:06:57<br/><a href="https://raw.githubusercontent.com/LGRSV/vera-vegetacao/main/fotos/Enecol-Centro/VER20260709164422545713720F1.jpg">Foto</a>]]></description><Point><coordinates>-48.3980033,-10.703546,0</coordinates></Point></Placemark>
<Placemark><name>V20260709165243173778420 — Oiti</name><description><![CDATA[Espécie: Oiti<br/>Poste: 473713<br/>Área: URBANO<br/>Altura: 5 m · DAP: 60 cm<br/>Dist. BT/MT/AT: 200/300/0 cm<br/>Equipe: Enecol Centro · 09/07/2026, 16:52:41<br/><a href="https://raw.githubusercontent.com/LGRSV/vera-vegetacao/main/fotos/Enecol-Centro/VER20260709165243173778420F1.jpg">Foto</a>]]></description><Point><coordinates>-48.3993455,-10.7052492,0</coordinates></Point></Placemark>
<Placemark><name>V20260709165343143912395 — Oiti</name><description><![CDATA[Espécie: Oiti<br/>Poste: 473713<br/>Área: URBANO<br/>Altura: 5 m · DAP: 60 cm<br/>Dist. BT/MT/AT: 200/300/0 cm<br/>Equipe: Enecol Centro · 09/07/2026, 16:53:41<br/><a href="https://raw.githubusercontent.com/LGRSV/vera-vegetacao/main/fotos/Enecol-Centro/VER20260709165343143912395F1.jpg">Foto</a>]]></description><Point><coordinates>-48.399273,-10.7051494,0</coordinates></Point></Placemark>
<Placemark><name>V20260709170904663896359 — Mangueira</name><description><![CDATA[Espécie: Mangueira<br/>Poste: 473714<br/>Área: URBANO<br/>Altura: 8 m · DAP: 100 cm<br/>Dist. BT/MT/AT: /100/0 cm<br/>Equipe: Enecol Centro · 09/07/2026, 17:09:02<br/><a href="https://raw.githubusercontent.com/LGRSV/vera-vegetacao/main/fotos/Enecol-Centro/VER20260709170904663896359F1.jpg">Foto</a>]]></description><Point><coordinates>-48.3991453,-10.7053127,0</coordinates></Point></Placemark>
<Placemark><name>V20260709171216339797932 — Laranja</name><description><![CDATA[Espécie: Laranja<br/>Poste: 1603568<br/>Área: URBANO<br/>Altura: 8 m · DAP: 60 cm<br/>Dist. BT/MT/AT: 200/300/0 cm<br/>Equipe: Enecol Centro · 09/07/2026, 17:12:13<br/><a href="https://raw.githubusercontent.com/LGRSV/vera-vegetacao/main/fotos/Enecol-Centro/VER20260709171216339797932F1.jpg">Foto</a>]]></description><Point><coordinates>-48.3980577,-10.7061882,0</coordinates></Point></Placemark>
<Placemark><name>V20260709171701367318875 — Outros</name><description><![CDATA[Espécie: Outros<br/>Poste: 473484<br/>Área: URBANO<br/>Altura:  m · DAP: 60 cm<br/>Dist. BT/MT/AT: 150/300/0 cm<br/>Equipe: Enecol Centro · 09/07/2026, 17:16:59<br/><a href="https://raw.githubusercontent.com/LGRSV/vera-vegetacao/main/fotos/Enecol-Centro/VER20260709171701367318875F1.jpg">Foto</a>]]></description><Point><coordinates>-48.3977265,-10.7065419,0</coordinates></Point></Placemark>
<Placemark><name>V20260709171809112987306 — Mangueira</name><description><![CDATA[Espécie: Mangueira<br/>Poste: 473484<br/>Área: URBANO<br/>Altura: 10 m · DAP: 120 cm<br/>Dist. BT/MT/AT: 100/50/0 cm<br/>Equipe: Enecol Centro · 09/07/2026, 17:18:06<br/><a href="https://raw.githubusercontent.com/LGRSV/vera-vegetacao/main/fotos/Enecol-Centro/VER20260709171809112987306F1.jpg">Foto</a>]]></description><Point><coordinates>-48.3976178,-10.7065797,0</coordinates></Point></Placemark>
<Placemark><name>V20260709171918996281701 — Outros</name><description><![CDATA[Espécie: Outros<br/>Poste: 473483<br/>Área: URBANO<br/>Altura: 8 m · DAP: 60 cm<br/>Dist. BT/MT/AT: 50/300/0 cm<br/>Equipe: Enecol Centro · 09/07/2026, 17:19:16<br/><a href="https://raw.githubusercontent.com/LGRSV/vera-vegetacao/main/fotos/Enecol-Centro/VER20260709171918996281701F1.jpg">Foto</a>]]></description><Point><coordinates>-48.3974791,-10.706623,0</coordinates></Point></Placemark>
<Placemark><name>V20260709173015205385990 — Outros</name><description><![CDATA[Espécie: Outros<br/>Poste: 475919<br/>Área: URBANO<br/>Altura: 15 m · DAP: 150 cm<br/>Dist. BT/MT/AT: 300/300/0 cm<br/>Equipe: Enecol Centro · 09/07/2026, 17:30:13<br/><a href="https://raw.githubusercontent.com/LGRSV/vera-vegetacao/main/fotos/Enecol-Centro/VER20260709173015205385990F1.jpg">Foto</a>]]></description><Point><coordinates>-48.3968994,-10.7071107,0</coordinates></Point></Placemark>
<Placemark><name>V20260709173732852952535 — Oiti</name><description><![CDATA[Espécie: Oiti<br/>Poste: 473693<br/>Área: URBANO<br/>Altura: 5 m · DAP: 80 cm<br/>Dist. BT/MT/AT: 300/300/0 cm<br/>Equipe: Enecol Centro · 09/07/2026, 17:37:30<br/><a href="https://raw.githubusercontent.com/LGRSV/vera-vegetacao/main/fotos/Enecol-Centro/VER20260709173732852952535F1.jpg">Foto</a>]]></description><Point><coordinates>-48.3976432,-10.7071036,0</coordinates></Point></Placemark>
<Placemark><name>V20260709173903037762887 — Mangueira</name><description><![CDATA[Espécie: Mangueira<br/>Poste: 473693<br/>Área: URBANO<br/>Altura: 7 m · DAP: 80 cm<br/>Dist. BT/MT/AT: 300/300/0 cm<br/>Equipe: Enecol Centro · 09/07/2026, 17:39:00<br/><a href="https://raw.githubusercontent.com/LGRSV/vera-vegetacao/main/fotos/Enecol-Centro/VER20260709173903037762887F1.jpg">Foto</a>]]></description><Point><coordinates>-48.3977393,-10.7073479,0</coordinates></Point></Placemark>
<Placemark><name>V20260709174723187252242 — Oiti</name><description><![CDATA[Espécie: Oiti<br/>Poste: 59209977<br/>Área: URBANO<br/>Altura: 6 m · DAP: 70 cm<br/>Dist. BT/MT/AT: 300/300/0 cm<br/>Equipe: Enecol Centro · 09/07/2026, 17:47:20<br/><a href="https://raw.githubusercontent.com/LGRSV/vera-vegetacao/main/fotos/Enecol-Centro/VER20260709174723187252242F1.jpg">Foto</a>]]></description><Point><coordinates>-48.3978273,-10.7074277,0</coordinates></Point></Placemark>
<Placemark><name>V20260709174842274043924 — Outros</name><description><![CDATA[Espécie: Outros<br/>Poste: 473222<br/>Área: URBANO<br/>Altura: 6 m · DAP: 70 cm<br/>Dist. BT/MT/AT: 300/300/0 cm<br/>Equipe: Enecol Centro · 09/07/2026, 17:48:39<br/><a href="https://raw.githubusercontent.com/LGRSV/vera-vegetacao/main/fotos/Enecol-Centro/VER20260709174842274043924F1.jpg">Foto</a>]]></description><Point><coordinates>-48.3978441,-10.7075179,0</coordinates></Point></Placemark>
<Placemark><name>V20260709180340710929772 — Mangueira</name><description><![CDATA[Espécie: Mangueira<br/>Poste: 471937<br/>Área: URBANO<br/>Altura: 8 m · DAP: 80 cm<br/>Dist. BT/MT/AT: /200/0 cm<br/>Equipe: Enecol Centro · 09/07/2026, 18:03:38<br/><a href="https://raw.githubusercontent.com/LGRSV/vera-vegetacao/main/fotos/Enecol-Centro/VER20260709180340710929772F1.jpg">Foto</a>]]></description><Point><coordinates>-48.3954463,-10.7092059,0</coordinates></Point></Placemark>
<Placemark><name>V20260709180504328341701 — Oiti</name><description><![CDATA[Espécie: Oiti<br/>Poste: 1066964<br/>Área: URBANO<br/>Altura: 6 m · DAP: 60 cm<br/>Dist. BT/MT/AT: 300/300/0 cm<br/>Equipe: Enecol Centro · 09/07/2026, 18:05:02<br/><a href="https://raw.githubusercontent.com/LGRSV/vera-vegetacao/main/fotos/Enecol-Centro/VER20260709180504328341701F1.jpg">Foto</a>]]></description><Point><coordinates>-48.3953987,-10.7091576,0</coordinates></Point></Placemark>
<Placemark><name>V20260710091149017659750 — Outros</name><description><![CDATA[Espécie: Outros<br/>Poste: 473713<br/>Área: URBANO<br/>Altura: 13 m · DAP: 130 cm<br/>Dist. BT/MT/AT: 150/200/0 cm<br/>Equipe: Enecol Centro · 10/07/2026, 09:11:46<br/><a href="https://raw.githubusercontent.com/LGRSV/vera-vegetacao/main/fotos/Enecol-Centro/VER20260710091149017659750F1.jpg">Foto</a>]]></description><Point><coordinates>-48.3991241,-10.7053669,0</coordinates></Point></Placemark>
<Placemark><name>V20260710091325174534309 — Outros</name><description><![CDATA[Espécie: Outros<br/>Poste: 472718<br/>Área: URBANO<br/>Altura: 12 m · DAP: 50 cm<br/>Dist. BT/MT/AT: 300/50/0 cm<br/>Equipe: Enecol Centro · 10/07/2026, 09:13:22<br/><a href="https://raw.githubusercontent.com/LGRSV/vera-vegetacao/main/fotos/Enecol-Centro/VER20260710091325174534309F1.jpg">Foto</a>]]></description><Point><coordinates>-48.3990277,-10.7053549,0</coordinates></Point></Placemark>
<Placemark><name>V20260710091502591490431 — Oiti</name><description><![CDATA[Espécie: Oiti<br/>Poste: 472718<br/>Área: URBANO<br/>Altura: 5 m · DAP: 40 cm<br/>Dist. BT/MT/AT: 300/300/0 cm<br/>Equipe: Enecol Centro · 10/07/2026, 09:14:58<br/><a href="https://raw.githubusercontent.com/LGRSV/vera-vegetacao/main/fotos/Enecol-Centro/VER20260710091502591490431F1.jpg">Foto</a>]]></description><Point><coordinates>-48.3991589,-10.7051887,0</coordinates></Point></Placemark>
<Placemark><name>V20260710091611076276071 — Oiti</name><description><![CDATA[Espécie: Oiti<br/>Poste: 473712<br/>Área: URBANO<br/>Altura: 6 m · DAP: 50 cm<br/>Dist. BT/MT/AT: 300/300/0 cm<br/>Equipe: Enecol Centro · 10/07/2026, 09:16:08<br/><a href="https://raw.githubusercontent.com/LGRSV/vera-vegetacao/main/fotos/Enecol-Centro/VER20260710091611076276071F1.jpg">Foto</a>]]></description><Point><coordinates>-48.3989224,-10.7049325,0</coordinates></Point></Placemark>
<Placemark><name>V20260710091835879741742 — Oiti</name><description><![CDATA[Espécie: Oiti<br/>Poste: 473713<br/>Área: URBANO<br/>Altura: 6 m · DAP: 40 cm<br/>Dist. BT/MT/AT: 300/300/0 cm<br/>Equipe: Enecol Centro · 10/07/2026, 09:18:33<br/><a href="https://raw.githubusercontent.com/LGRSV/vera-vegetacao/main/fotos/Enecol-Centro/VER20260710091835879741742F1.jpg">Foto</a>]]></description><Point><coordinates>-48.3991223,-10.7051836,0</coordinates></Point></Placemark>
<Placemark><name>V20260710092021224438155 — Oiti</name><description><![CDATA[Espécie: Oiti<br/>Poste: 472719<br/>Área: URBANO<br/>Altura: 6 m · DAP: 40 cm<br/>Dist. BT/MT/AT: 300/300/0 cm<br/>Equipe: Enecol Centro · 10/07/2026, 09:20:18<br/><a href="https://raw.githubusercontent.com/LGRSV/vera-vegetacao/main/fotos/Enecol-Centro/VER20260710092021224438155F1.jpg">Foto</a>]]></description><Point><coordinates>-48.3987302,-10.7048495,0</coordinates></Point></Placemark>
<Placemark><name>V20260710092145712357695 — Oiti</name><description><![CDATA[Espécie: Oiti<br/>Poste: 473710<br/>Área: URBANO<br/>Altura: 7 m · DAP: 50 cm<br/>Dist. BT/MT/AT: 300/300/0 cm<br/>Equipe: Enecol Centro · 10/07/2026, 09:21:43<br/><a href="https://raw.githubusercontent.com/LGRSV/vera-vegetacao/main/fotos/Enecol-Centro/VER20260710092145712357695F1.jpg">Foto</a>]]></description><Point><coordinates>-48.3988363,-10.704518,0</coordinates></Point></Placemark>
<Placemark><name>V20260710092325893568656 — Mangueira</name><description><![CDATA[Espécie: Mangueira<br/>Poste: 1603576<br/>Área: URBANO<br/>Altura: 7 m · DAP: 60 cm<br/>Dist. BT/MT/AT: 300/300/0 cm<br/>Equipe: Enecol Centro · 10/07/2026, 09:23:23<br/><a href="https://raw.githubusercontent.com/LGRSV/vera-vegetacao/main/fotos/Enecol-Centro/VER20260710092325893568656F1.jpg">Foto</a>]]></description><Point><coordinates>-48.3985447,-10.7044559,0</coordinates></Point></Placemark>
<Placemark><name>V20260710092725836290919 — Mangueira</name><description><![CDATA[Espécie: Mangueira<br/>Poste: 473705<br/>Área: URBANO<br/>Altura: 7 m · DAP: 50 cm<br/>Dist. BT/MT/AT: 50/300/0 cm<br/>Equipe: Enecol Centro · 10/07/2026, 09:27:23<br/><a href="https://raw.githubusercontent.com/LGRSV/vera-vegetacao/main/fotos/Enecol-Centro/VER20260710092725836290919F1.jpg">Foto</a>]]></description><Point><coordinates>-48.3983425,-10.7042103,0</coordinates></Point></Placemark>
<Placemark><name>V20260710093121720187655 — Oiti</name><description><![CDATA[Espécie: Oiti<br/>Poste: 475476<br/>Área: URBANO<br/>Altura: 6 m · DAP: 40 cm<br/>Dist. BT/MT/AT: 50/300/0 cm<br/>Equipe: Enecol Centro · 10/07/2026, 09:31:17<br/><a href="https://raw.githubusercontent.com/LGRSV/vera-vegetacao/main/fotos/Enecol-Centro/VER20260710093121720187655F1.jpg">Foto</a>]]></description><Point><coordinates>-48.3976948,-10.7041982,0</coordinates></Point></Placemark>
<Placemark><name>V20260710093536840773606 — Oiti</name><description><![CDATA[Espécie: Oiti<br/>Poste: 475476<br/>Área: URBANO<br/>Altura: 6 m · DAP: 40 cm<br/>Dist. BT/MT/AT: 50/300/0 cm<br/>Equipe: Enecol Centro · 10/07/2026, 09:35:33<br/><a href="https://raw.githubusercontent.com/LGRSV/vera-vegetacao/main/fotos/Enecol-Centro/VER20260710093536840773606F1.jpg">Foto</a>]]></description><Point><coordinates>-48.3977338,-10.7041668,0</coordinates></Point></Placemark>
<Placemark><name>V20260710093704698814860 — Oiti</name><description><![CDATA[Espécie: Oiti<br/>Poste: 475476<br/>Área: URBANO<br/>Altura: 5 m · DAP: 80 cm<br/>Dist. BT/MT/AT: 250/300/0 cm<br/>Equipe: Enecol Centro · 10/07/2026, 09:37:00<br/><a href="https://raw.githubusercontent.com/LGRSV/vera-vegetacao/main/fotos/Enecol-Centro/VER20260710093704698814860F1.jpg">Foto</a>]]></description><Point><coordinates>-48.3976874,-10.7042727,0</coordinates></Point></Placemark>
<Placemark><name>V20260710094100680725932 — Oiti</name><description><![CDATA[Espécie: Oiti<br/>Poste: 475476<br/>Área: URBANO<br/>Altura: 5 m · DAP: 60 cm<br/>Dist. BT/MT/AT: 300/300/0 cm<br/>Equipe: Enecol Centro · 10/07/2026, 09:40:20<br/><a href="https://raw.githubusercontent.com/LGRSV/vera-vegetacao/main/fotos/Enecol-Centro/VER20260710094100680725932F1.jpg">Foto</a>]]></description><Point><coordinates>-48.3976399,-10.704227,0</coordinates></Point></Placemark>
<Placemark><name>V20260710094223441009382 — Oiti</name><description><![CDATA[Espécie: Oiti<br/>Poste: 475475<br/>Área: URBANO<br/>Altura: 5 m · DAP: 50 cm<br/>Dist. BT/MT/AT: 300/300/0 cm<br/>Equipe: Enecol Centro · 10/07/2026, 09:42:20<br/><a href="https://raw.githubusercontent.com/LGRSV/vera-vegetacao/main/fotos/Enecol-Centro/VER20260710094223441009382F1.jpg">Foto</a>]]></description><Point><coordinates>-48.3973571,-10.7043753,0</coordinates></Point></Placemark>
<Placemark><name>V20260710094328180223746 — Oiti</name><description><![CDATA[Espécie: Oiti<br/>Poste: 475475<br/>Área: URBANO<br/>Altura: 5 m · DAP: 50 cm<br/>Dist. BT/MT/AT: 300/300/0 cm<br/>Equipe: Enecol Centro · 10/07/2026, 09:43:25<br/><a href="https://raw.githubusercontent.com/LGRSV/vera-vegetacao/main/fotos/Enecol-Centro/VER20260710094328180223746F1.jpg">Foto</a>]]></description><Point><coordinates>-48.3974152,-10.7042881,0</coordinates></Point></Placemark>
<Placemark><name>V20260710094435635991404 — Oiti</name><description><![CDATA[Espécie: Oiti<br/>Poste: 475475<br/>Área: URBANO<br/>Altura: 5 m · DAP: 50 cm<br/>Dist. BT/MT/AT: 300/300/0 cm<br/>Equipe: Enecol Centro · 10/07/2026, 09:44:22<br/><a href="https://raw.githubusercontent.com/LGRSV/vera-vegetacao/main/fotos/Enecol-Centro/VER20260710094435635991404F1.jpg">Foto</a>]]></description><Point><coordinates>-48.3975347,-10.7042783,0</coordinates></Point></Placemark>
<Placemark><name>V20260710094826556693941 — Outros</name><description><![CDATA[Espécie: Outros<br/>Poste: 475475<br/>Área: URBANO<br/>Altura: 7.5 m · DAP: 70 cm<br/>Dist. BT/MT/AT: 50/300/0 cm<br/>Equipe: Enecol Centro · 10/07/2026, 09:48:23<br/><a href="https://raw.githubusercontent.com/LGRSV/vera-vegetacao/main/fotos/Enecol-Centro/VER20260710094826556693941F1.jpg">Foto</a>]]></description><Point><coordinates>-48.3973641,-10.704157,0</coordinates></Point></Placemark>
<Placemark><name>V20260710095003863269266 — Oiti</name><description><![CDATA[Espécie: Oiti<br/>Poste: 475479<br/>Área: URBANO<br/>Altura: 7 m · DAP: 110 cm<br/>Dist. BT/MT/AT: 300/300/0 cm<br/>Equipe: Enecol Centro · 10/07/2026, 09:50:00<br/><a href="https://raw.githubusercontent.com/LGRSV/vera-vegetacao/main/fotos/Enecol-Centro/VER20260710095003863269266F1.jpg">Foto</a>]]></description><Point><coordinates>-48.3972139,-10.7036062,0</coordinates></Point></Placemark>
<Placemark><name>V20260710095113306093803 — Oiti</name><description><![CDATA[Espécie: Oiti<br/>Poste: 1602954<br/>Área: URBANO<br/>Altura: 6 m · DAP: 50 cm<br/>Dist. BT/MT/AT: 300/300/0 cm<br/>Equipe: Enecol Centro · 10/07/2026, 09:51:10<br/><a href="https://raw.githubusercontent.com/LGRSV/vera-vegetacao/main/fotos/Enecol-Centro/VER20260710095113306093803F1.jpg">Foto</a>]]></description><Point><coordinates>-48.3972133,-10.7036372,0</coordinates></Point></Placemark>
<Placemark><name>V20260710095638843903995 — Outros</name><description><![CDATA[Espécie: Outros<br/>Poste: 475479<br/>Área: URBANO<br/>Altura: 6 m · DAP: 50 cm<br/>Dist. BT/MT/AT: 300/300/0 cm<br/>Equipe: Enecol Centro · 10/07/2026, 09:56:33<br/><a href="https://raw.githubusercontent.com/LGRSV/vera-vegetacao/main/fotos/Enecol-Centro/VER20260710095638843903995F1.jpg">Foto</a>]]></description><Point><coordinates>-48.3971033,-10.7036344,0</coordinates></Point></Placemark>
<Placemark><name>V20260710100744419902249 — Oiti</name><description><![CDATA[Espécie: Oiti<br/>Poste: 1602956<br/>Área: URBANO<br/>Altura: 6 m · DAP: 40 cm<br/>Dist. BT/MT/AT: 300/300/0 cm<br/>Equipe: Enecol Centro · 10/07/2026, 10:07:41<br/><a href="https://raw.githubusercontent.com/LGRSV/vera-vegetacao/main/fotos/Enecol-Centro/VER20260710100744419902249F1.jpg">Foto</a>]]></description><Point><coordinates>-48.3974688,-10.7031331,0</coordinates></Point></Placemark>
<Placemark><name>V20260710100915384408487 — Outros</name><description><![CDATA[Espécie: Outros<br/>Poste: 1602956<br/>Área: URBANO<br/>Altura: 6 m · DAP: 50 cm<br/>Dist. BT/MT/AT: 300/300/0 cm<br/>Equipe: Enecol Centro · 10/07/2026, 10:09:12<br/><a href="https://raw.githubusercontent.com/LGRSV/vera-vegetacao/main/fotos/Enecol-Centro/VER20260710100915384408487F1.jpg">Foto</a>]]></description><Point><coordinates>-48.3973175,-10.7029829,0</coordinates></Point></Placemark>
<Placemark><name>V20260710101023122841106 — Outros</name><description><![CDATA[Espécie: Outros<br/>Poste: 472706<br/>Área: URBANO<br/>Altura: 8 m · DAP: 40 cm<br/>Dist. BT/MT/AT: 50/300/0 cm<br/>Equipe: Enecol Centro · 10/07/2026, 10:10:19<br/><a href="https://raw.githubusercontent.com/LGRSV/vera-vegetacao/main/fotos/Enecol-Centro/VER20260710101023122841106F1.jpg">Foto</a>]]></description><Point><coordinates>-48.3971839,-10.7029487,0</coordinates></Point></Placemark>
<Placemark><name>V20260710101305563556166 — Outros</name><description><![CDATA[Espécie: Outros<br/>Poste: 472707<br/>Área: URBANO<br/>Altura: 6 m · DAP: 40 cm<br/>Dist. BT/MT/AT: /300/0 cm<br/>Equipe: Enecol Centro · 10/07/2026, 10:13:02<br/><a href="https://raw.githubusercontent.com/LGRSV/vera-vegetacao/main/fotos/Enecol-Centro/VER20260710101305563556166F1.jpg">Foto</a>]]></description><Point><coordinates>-48.3970367,-10.7025053,0</coordinates></Point></Placemark>
<Placemark><name>V20260710104917149304243 — Outros</name><description><![CDATA[Espécie: Outros<br/>Poste: 1066962<br/>Área: URBANO<br/>Altura: 8 m · DAP: 50 cm<br/>Dist. BT/MT/AT: /50/0 cm<br/>Equipe: Enecol Centro · 10/07/2026, 10:49:13<br/><a href="https://raw.githubusercontent.com/LGRSV/vera-vegetacao/main/fotos/Enecol-Centro/VER20260710104917149304243F1.jpg">Foto</a>]]></description><Point><coordinates>-48.396647,-10.7019083,0</coordinates></Point></Placemark>
<Placemark><name>V20260710105140267045423 — Outros</name><description><![CDATA[Espécie: Outros<br/>Poste: 1066958<br/>Área: URBANO<br/>Altura: 7 m · DAP: 60 cm<br/>Dist. BT/MT/AT: /300/0 cm<br/>Equipe: Enecol Centro · 10/07/2026, 10:51:36<br/><a href="https://raw.githubusercontent.com/LGRSV/vera-vegetacao/main/fotos/Enecol-Centro/VER20260710105140267045423F1.jpg">Foto</a>]]></description><Point><coordinates>-48.3966583,-10.7019641,0</coordinates></Point></Placemark>
<Placemark><name>V20260710105400650817780 — Outros</name><description><![CDATA[Espécie: Outros<br/>Poste: 1066961<br/>Área: URBANO<br/>Altura: 7 m · DAP: 40 cm<br/>Dist. BT/MT/AT: /50/0 cm<br/>Equipe: Enecol Centro · 10/07/2026, 10:53:57<br/><a href="https://raw.githubusercontent.com/LGRSV/vera-vegetacao/main/fotos/Enecol-Centro/VER20260710105400650817780F1.jpg">Foto</a>]]></description><Point><coordinates>-48.3963366,-10.7014956,0</coordinates></Point></Placemark>
<Placemark><name>V20260710132851619809415 — Mangueira</name><description><![CDATA[Espécie: Mangueira<br/>Poste: 473236<br/>Área: URBANO<br/>Altura: 12 m · DAP: 120 cm<br/>Dist. BT/MT/AT: 250/100/0 cm<br/>Equipe: Enecol Centro · 10/07/2026, 13:28:49<br/><a href="https://raw.githubusercontent.com/LGRSV/vera-vegetacao/main/fotos/Enecol-Centro/VER20260710132851619809415F1.jpg">Foto</a>]]></description><Point><coordinates>-48.3982291,-10.7038079,0</coordinates></Point></Placemark>
<Placemark><name>V20260710133033624582264 — Mangueira</name><description><![CDATA[Espécie: Mangueira<br/>Poste: 473707<br/>Área: URBANO<br/>Altura: 11 m · DAP: 120 cm<br/>Dist. BT/MT/AT: 300/300/0 cm<br/>Equipe: Enecol Centro · 10/07/2026, 13:30:31<br/><a href="https://raw.githubusercontent.com/LGRSV/vera-vegetacao/main/fotos/Enecol-Centro/VER20260710133033624582264F1.jpg">Foto</a>]]></description><Point><coordinates>-48.3981546,-10.7038531,0</coordinates></Point></Placemark>
<Placemark><name>V20260710133142225752048 — Babaçu</name><description><![CDATA[Espécie: Babaçu<br/>Poste: 473707<br/>Área: URBANO<br/>Altura: 11 m · DAP: 60 cm<br/>Dist. BT/MT/AT: 250/50/0 cm<br/>Equipe: Enecol Centro · 10/07/2026, 13:31:39<br/><a href="https://raw.githubusercontent.com/LGRSV/vera-vegetacao/main/fotos/Enecol-Centro/VER20260710133142225752048F1.jpg">Foto</a>]]></description><Point><coordinates>-48.3981473,-10.7038705,0</coordinates></Point></Placemark>
<Placemark><name>V20260710135530196321209 — Oiti</name><description><![CDATA[Espécie: Oiti<br/>Poste: 430965<br/>Área: URBANO<br/>Altura: 5 m · DAP: 40 cm<br/>Dist. BT/MT/AT: 250/300/0 cm<br/>Equipe: Enecol Centro · 10/07/2026, 13:55:27<br/><a href="https://raw.githubusercontent.com/LGRSV/vera-vegetacao/main/fotos/Enecol-Centro/VER20260710135530196321209F1.jpg">Foto</a>]]></description><Point><coordinates>-48.391053,-10.7385981,0</coordinates></Point></Placemark>
<Placemark><name>V20260710135620760158037 — Oiti</name><description><![CDATA[Espécie: Oiti<br/>Poste: 430965<br/>Área: URBANO<br/>Altura: 5 m · DAP: 40 cm<br/>Dist. BT/MT/AT: 250/300/0 cm<br/>Equipe: Enecol Centro · 10/07/2026, 13:56:18<br/><a href="https://raw.githubusercontent.com/LGRSV/vera-vegetacao/main/fotos/Enecol-Centro/VER20260710135620760158037F1.jpg">Foto</a>]]></description><Point><coordinates>-48.3910882,-10.7386734,0</coordinates></Point></Placemark>
<Placemark><name>V20260710140346609105705 — Outros</name><description><![CDATA[Espécie: Outros<br/>Poste: 20104972<br/>Área: URBANO<br/>Altura: 4 m · DAP: 30 cm<br/>Dist. BT/MT/AT: 300/300/0 cm<br/>Equipe: Enecol Centro · 10/07/2026, 14:03:44<br/><a href="https://raw.githubusercontent.com/LGRSV/vera-vegetacao/main/fotos/Enecol-Centro/VER20260710140346609105705F1.jpg">Foto</a>]]></description><Point><coordinates>-48.3855291,-10.7361432,0</coordinates></Point></Placemark>
<Placemark><name>V20260710140459981738588 — Outros</name><description><![CDATA[Espécie: Outros<br/>Poste: 20104984<br/>Área: URBANO<br/>Altura: 3.5 m · DAP: 30 cm<br/>Dist. BT/MT/AT: 300/300/0 cm<br/>Equipe: Enecol Centro · 10/07/2026, 14:04:57<br/><a href="https://raw.githubusercontent.com/LGRSV/vera-vegetacao/main/fotos/Enecol-Centro/VER20260710140459981738588F1.jpg">Foto</a>]]></description><Point><coordinates>-48.385488,-10.7361419,0</coordinates></Point></Placemark>
<Placemark><name>V20260710140727220172327 — Cajueiro</name><description><![CDATA[Espécie: Cajueiro<br/>Poste: 20105390<br/>Área: URBANO<br/>Altura: 11 m · DAP: 100 cm<br/>Dist. BT/MT/AT: 50/300/0 cm<br/>Equipe: Enecol Centro · 10/07/2026, 14:07:24<br/><a href="https://raw.githubusercontent.com/LGRSV/vera-vegetacao/main/fotos/Enecol-Centro/VER20260710140727220172327F1.jpg">Foto</a>]]></description><Point><coordinates>-48.3870692,-10.7354242,0</coordinates></Point></Placemark>
<Placemark><name>V20260710141036524438110 — Oiti</name><description><![CDATA[Espécie: Oiti<br/>Poste: 91636<br/>Área: URBANO<br/>Altura: 5 m · DAP: 40 cm<br/>Dist. BT/MT/AT: 300/300/0 cm<br/>Equipe: Enecol Centro · 10/07/2026, 14:10:33<br/><a href="https://raw.githubusercontent.com/LGRSV/vera-vegetacao/main/fotos/Enecol-Centro/VER20260710141036524438110F1.jpg">Foto</a>]]></description><Point><coordinates>-48.3880467,-10.7326812,0</coordinates></Point></Placemark>
<Placemark><name>V20260710141250074488338 — Oiti</name><description><![CDATA[Espécie: Oiti<br/>Poste: 429064<br/>Área: URBANO<br/>Altura: 6 m · DAP: 50 cm<br/>Dist. BT/MT/AT: 100/300/0 cm<br/>Equipe: Enecol Centro · 10/07/2026, 14:12:46<br/><a href="https://raw.githubusercontent.com/LGRSV/vera-vegetacao/main/fotos/Enecol-Centro/VER20260710141250074488338F1.jpg">Foto</a>]]></description><Point><coordinates>-48.3889296,-10.7298299,0</coordinates></Point></Placemark>
<Placemark><name>V20260710141629712110894 — Oiti</name><description><![CDATA[Espécie: Oiti<br/>Poste: 1585221<br/>Área: URBANO<br/>Altura: 4 m · DAP: 60 cm<br/>Dist. BT/MT/AT: /300/0 cm<br/>Equipe: Enecol Centro · 10/07/2026, 14:16:26<br/><a href="https://raw.githubusercontent.com/LGRSV/vera-vegetacao/main/fotos/Enecol-Centro/VER20260710141629712110894F1.jpg">Foto</a>]]></description><Point><coordinates>-48.391101,-10.7281583,0</coordinates></Point></Placemark>
<Placemark><name>V20260710141730977229576 — Oiti</name><description><![CDATA[Espécie: Oiti<br/>Poste: 431190<br/>Área: URBANO<br/>Altura: 4 m · DAP: 60 cm<br/>Dist. BT/MT/AT: 300/300/0 cm<br/>Equipe: Enecol Centro · 10/07/2026, 14:17:27<br/><a href="https://raw.githubusercontent.com/LGRSV/vera-vegetacao/main/fotos/Enecol-Centro/VER20260710141730977229576F1.jpg">Foto</a>]]></description><Point><coordinates>-48.3911448,-10.7281096,0</coordinates></Point></Placemark>
<Placemark><name>V20260710142454989216200 — Outros</name><description><![CDATA[Espécie: Outros<br/>Poste: 106888<br/>Área: URBANO<br/>Altura: 7 m · DAP: 60 cm<br/>Dist. BT/MT/AT: 200/300/0 cm<br/>Equipe: Enecol Centro · 10/07/2026, 14:24:51<br/><a href="https://raw.githubusercontent.com/LGRSV/vera-vegetacao/main/fotos/Enecol-Centro/VER20260710142454989216200F1.jpg">Foto</a>]]></description><Point><coordinates>-48.3919987,-10.7116207,0</coordinates></Point></Placemark>
</Document></kml>
